{"name":"Altersheim","type":"FeatureCollection"
,"features":[
{"type":"Feature","geometry":{"type":"Point","coordinates":[8.5091098695656,47.3815976948057]},"properties":{"Ort":"Zürich","www":"http://www.stadt-zuerich.ch/altersheime","Adresse":"Norastrasse 38","PLZ":"8004","Tel":"044 405 46 56","Name":"Altersheim Hardau"}}
,{"type":"Feature","geometry":{"type":"Point","coordinates":[8.56429397311429,47.3647267364683]},"properties":{"Ort":"Zürich","www":"http://www.stadt-zuerich.ch/altersheime","Adresse":"Asylstrasse 130","PLZ":"8032","Tel":"044 388 22 22","Name":"Altersheim Klus Park"}}
,{"type":"Feature","geometry":{"type":"Point","coordinates":[8.54713852473543,47.3936542764853]},"properties":{"Ort":"Zürich","www":"http://www.stadt-zuerich.ch/altersheime","Adresse":"Langensteinenstrasse 40","PLZ":"8057","Tel":"043 255 20 70","Name":"Altersheim Oberstrass"}}
,{"type":"Feature","geometry":{"type":"Point","coordinates":[8.55716484017102,47.3572245142553]},"properties":{"Ort":"Zürich","www":"http://www.stadt-zuerich.ch/altersheime","Adresse":"Wildbachstrasse 11","PLZ":"8008","Tel":"044 389 93 00","Name":"Altersheim Wildbach"}}
,{"type":"Feature","geometry":{"type":"Point","coordinates":[8.79458192152863,47.3752710225736]},"properties":{"Ort":"Pfäffikon","www":"http://www.stadt-zuerich.ch/altersheime","Adresse":"Waldfriedenstrasse 21","PLZ":"8330","Tel":"044 414 00 14","Name":"Altersheim Waldfrieden"}}
,{"type":"Feature","geometry":{"type":"Point","coordinates":[8.4900049793621,47.395167330627]},"properties":{"Ort":"Zürich","www":"http://www.stadt-zuerich.ch/altersheime","Adresse":"Bändlistrasse 10","PLZ":"8064","Tel":"044 434 70 70","Name":"Altersheim Grünau"}}
,{"type":"Feature","geometry":{"type":"Point","coordinates":[8.49968919930585,47.3725624036937]},"properties":{"Ort":"Zürich","www":"http://www.stadt-zuerich.ch/altersheime","Adresse":"Langgrütstrasse 51","PLZ":"8047","Tel":"044 496 67 00","Name":"Altersheim Langgrüt"}}
,{"type":"Feature","geometry":{"type":"Point","coordinates":[8.51326454466238,47.4239622870427]},"properties":{"Ort":"Zürich","www":"http://www.stadt-zuerich.ch/altersheime","Adresse":"Wolfswinkel 9","PLZ":"8046","Tel":"044 377 92 00","Name":"Altersheim Wolfswinkel"}}
,{"type":"Feature","geometry":{"type":"Point","coordinates":[8.49716589433054,47.3675681182368]},"properties":{"Ort":"Zürich","www":"http://www.stadt-zuerich.ch/altersheime","Adresse":"Birmensdorferstrasse 489","PLZ":"8055","Tel":"","Name":"Temporäres Altersheim Triemli (Zwischennutzung Asylorganisation AOZ)"}}
,{"type":"Feature","geometry":{"type":"Point","coordinates":[8.51074329127942,47.3810433745478]},"properties":{"Ort":"Zürich","www":"http://www.stadt-zuerich.ch/altersheime","Adresse":"Bullingerstrasse 69","PLZ":"8004","Tel":"044 405 46 56","Name":"Altersheime Bullinger-Hardau"}}
,{"type":"Feature","geometry":{"type":"Point","coordinates":[8.54599514148231,47.3773261619025]},"properties":{"Ort":"Zürich","www":"http://www.stadt-zuerich.ch/altersheime","Adresse":"Leonhardstrasse 18","PLZ":"8001","Tel":"044 253 69 69","Name":"Altersheime Bürgerasyl-Pfrundhaus"}}
,{"type":"Feature","geometry":{"type":"Point","coordinates":[8.56655849376143,47.3745028097797]},"properties":{"Ort":"Zürich","www":"http://www.stadt-zuerich.ch/altersheime","Adresse":"Ebelstrasse 29","PLZ":"8032","Tel":"044 265 30 20","Name":"Altersheim Doldertal"}}
,{"type":"Feature","geometry":{"type":"Point","coordinates":[8.5129807352463,47.326502794847]},"properties":{"Ort":"Zürich","www":"http://www.stadt-zuerich.ch/altersheime","Adresse":"Klebestrasse 2","PLZ":"8041","Tel":"044 487 89 00","Name":"Gästehaus Mittelleimbach"}}
,{"type":"Feature","geometry":{"type":"Point","coordinates":[8.51774796860987,47.3953702884434]},"properties":{"Ort":"Zürich","www":"http://www.stadt-zuerich.ch/altersheime","Adresse":"Hönggerstrasse 119","PLZ":"8037","Tel":"044 446 40 10","Name":"Koordinationsstelle Soziokultur"}}
,{"type":"Feature","geometry":{"type":"Point","coordinates":[8.5934314042272,47.308148705345]},"properties":{"Ort":"Erlenbach","www":"http://www.stadt-zuerich.ch/altersheime","Adresse":"Lerchenbergstrasse 35","PLZ":"8703","Tel":"044 913 68 68","Name":"Altersheim Sonnenhof"}}
,{"type":"Feature","geometry":{"type":"Point","coordinates":[8.51882035574279,47.396221543987]},"properties":{"Ort":"Zürich","www":"http://www.stadt-zuerich.ch/altersheime","Adresse":"Trottenstrasse 76","PLZ":"8037","Tel":"044 276 40 80","Name":"Altersheim Trotte"}}
,{"type":"Feature","geometry":{"type":"Point","coordinates":[8.58526369570885,47.3471708410852]},"properties":{"Ort":"Zollikon","www":"http://www.stadt-zuerich.ch/altersheime","Adresse":"Schützenstrasse 31","PLZ":"8702","Tel":"044 396 46 96","Name":"Altersheim Rebwies"}}
,{"type":"Feature","geometry":{"type":"Point","coordinates":[8.48179158012161,47.38230698336]},"properties":{"Ort":"Adliswil","www":"http://www.stadt-zuerich.ch/altersheime","Adresse":"Erlenstrasse 10","PLZ":"8134","Tel":"044 712 82 00","Name":"Altersheim Buttenau"}}
,{"type":"Feature","geometry":{"type":"Point","coordinates":[8.57383911924867,47.4071572542627]},"properties":{"Ort":"Zürich","www":"http://www.stadt-zuerich.ch/altersheime","Adresse":"Glattstegweg 7","PLZ":"8051","Tel":"044 325 31 31","Name":"Altersheim Herzogenmühle"}}
,{"type":"Feature","geometry":{"type":"Point","coordinates":[8.53260022676244,47.370341013074]},"properties":{"Ort":"Zürich","www":"http://www.stadt-zuerich.ch/altersheime","Adresse":"Selnaustrasse 18","PLZ":"8001","Tel":"044 283 27 47","Name":"Altersheim Selnau"}}
,{"type":"Feature","geometry":{"type":"Point","coordinates":[8.53448261727601,47.3347913476951]},"properties":{"Ort":"Zürich","www":"http://www.stadt-zuerich.ch/altersheime","Adresse":"Kalchbühlstrasse 118","PLZ":"8038","Tel":"044 485 51 00","Name":"Altersheim Kalchbühl (Wollishofen)"}}
,{"type":"Feature","geometry":{"type":"Point","coordinates":[8.72939906042569,47.3461708099628]},"properties":{"Ort":"Uster","www":"http://www.stadt-zuerich.ch/altersheime","Adresse":"Aathalstrasse 21","PLZ":"8610","Tel":"043 399 23 23","Name":"Altersheim Rosengarten"}}
,{"type":"Feature","geometry":{"type":"Point","coordinates":[8.54948576693315,47.4079773936822]},"properties":{"Ort":"Zürich","www":"http://www.stadt-zuerich.ch/altersheime","Adresse":"Dorflindenstrasse 4","PLZ":"8050","Tel":"044 319 94 00","Name":"Altersheim Dorflinde"}}
,{"type":"Feature","geometry":{"type":"Point","coordinates":[8.51348760744905,47.3577962634068]},"properties":{"Ort":"Zürich","www":"http://www.stadt-zuerich.ch/altersheime","Adresse":"Hegianwandweg 16","PLZ":"8045","Tel":"044 466 97 97","Name":"Altersheim Laubegg"}}
,{"type":"Feature","geometry":{"type":"Point","coordinates":[8.53009262797977,47.3869344480846]},"properties":{"Ort":"Zürich","www":"http://www.stadt-zuerich.ch/altersheime","Adresse":"Limmatstrasse 186","PLZ":"8005","Tel":"044 446 86 86","Name":"Altersheim Limmat"}}
,{"type":"Feature","geometry":{"type":"Point","coordinates":[8.48457820150703,47.3798891106671]},"properties":{"Ort":"Zürich","www":"http://www.stadt-zuerich.ch/altersheime","Adresse":"Altstetterstrasse 267","PLZ":"8047","Tel":"044 435 88 00","Name":"Altersheim Mathysweg"}}
,{"type":"Feature","geometry":{"type":"Point","coordinates":[8.51776055263481,47.3953702608366]},"properties":{"Ort":"Zürich","www":"http://www.stadt-zuerich.ch/altersheime","Adresse":"Hönggerstrasse 119","PLZ":"8037","Tel":"044 446 40 10","Name":"Altersheim Sydefädeli"}}
,{"type":"Feature","geometry":{"type":"Point","coordinates":[8.51498121366284,47.3259751213537]},"properties":{"Ort":"Zürich","www":"http://www.stadt-zuerich.ch/altersheime","Adresse":"Leimbachstrasse 210","PLZ":"8041","Tel":"044 487 88 00","Name":"Altersheim Mittelleimbach"}}
,{"type":"Feature","geometry":{"type":"Point","coordinates":[8.5389935235472,47.3869123219231]},"properties":{"Ort":"Zürich","www":"http://www.stadt-zuerich.ch/altersheime","Adresse":"Lindenbachstrasse 1","PLZ":"8006","Tel":"044 360 38 38","Name":"Altersheim Stampfenbach"}}
]}
