{"name":"Beratungsstelle","type":"FeatureCollection"
,"features":[
{"type":"Feature","geometry":{"type":"Point","coordinates":[8.52700484901354,47.3719050844599]},"properties":{"Ort":"Zürich","www":"http://www.stadt-zuerich.ch/wegweiser","Adresse":"Werdstrasse 75","PLZ":"8004","Tel":"044 412 61 11","Name":"Informationszentrum"}}
,{"type":"Feature","geometry":{"type":"Point","coordinates":[8.52470279245744,47.3752459697517]},"properties":{"Ort":"Zürich","www":"http://www.stadt-zuerich.ch/infodona","Adresse":"Langstrasse 21","PLZ":"8004","Tel":"044 271 35 00","Name":"Beratungsstelle Infodona"}}
,{"type":"Feature","geometry":{"type":"Point","coordinates":[8.55328271966456,47.4241498514303]},"properties":{"Ort":"Zürich","www":"http://www.schulden-zh.ch/","Adresse":"Schaffhauserstrasse 550","PLZ":"8055","Tel":"043 333 36 86","Name":"Fachstelle für Schuldenfragen"}}
,{"type":"Feature","geometry":{"type":"Point","coordinates":[8.5895573914964,47.3602971982235]},"properties":{"Ort":"Zürich","www":"http://www.stadt-zuerich.ch/content/ssd/de/index/volksschule/besondere_beduerfnisse/psychomotorik_therapie/alletherapiestellen/kindergarten_lehfrauenweg.html","Adresse":"Lehfrauenweg 24","PLZ":"8053","Tel":"044 422 25 36","Name":"Psychomotorik Therapiestelle Lehfrauenweg"}}
,{"type":"Feature","geometry":{"type":"Point","coordinates":[8.56692161078174,47.4116583204965]},"properties":{"Ort":"Zürich","www":"http://www.stadt-zuerich.ch/content/ssd/de/index/volksschule/besondere_beduerfnisse/psychomotorik_therapie/alletherapiestellen/Glattbogen.html","Adresse":"Am Glattbogen 138","PLZ":"8050","Tel":"044 321 52 43","Name":"Psychomotorik Therapiestelle Glattbogen"}}
,{"type":"Feature","geometry":{"type":"Point","coordinates":[8.56425362636898,47.3650623644396]},"properties":{"Ort":"Zürich","www":"http://www.offenetuer.ch","Adresse":"Jupiterstrasse 42","PLZ":"8032","Tel":"044 202 30 00","Name":"Offene Türe Zürich"}}
,{"type":"Feature","geometry":{"type":"Point","coordinates":[8.54556801770316,47.4075472543813]},"properties":{"Ort":"Zürich","www":"http://www.stadt-zuerich.ch/content/ssd/de/index/volksschule/besondere_beduerfnisse/psychomotorik_therapie/alletherapiestellen/halden_c.html","Adresse":"Gubelstrasse 9","PLZ":"8050","Tel":"044 311 77 73","Name":"Psychomotorik Therapiestelle Halde C"}}
,{"type":"Feature","geometry":{"type":"Point","coordinates":[8.5688455340612,47.4161460337461]},"properties":{"Ort":"Zürich","www":"http://www.stadt-zuerich.ch/content/ssd/de/index/volksschule/besondere_beduerfnisse/psychomotorik_therapie/alletherapiestellen/schulhaus_auzelg.html","Adresse":"Opfikonstrasse 151","PLZ":"8050","Tel":"044 325 36 72","Name":"Psychomotorik Therapiestelle Auzelg"}}
,{"type":"Feature","geometry":{"type":"Point","coordinates":[8.49965483283614,47.4041191106141]},"properties":{"Ort":"Zürich","www":"http://www.stadt-zuerich.ch/content/ssd/de/index/volksschule/besondere_beduerfnisse/psychomotorik_therapie/alletherapiestellen/kindergarten_vogtsrain.html","Adresse":"Ferdinand-Hodler-Strasse 23","PLZ":"8049","Tel":"043 244 40 78","Name":"Psychomotorik Therapiestelle Vogtsrain"}}
,{"type":"Feature","geometry":{"type":"Point","coordinates":[8.51028768069343,47.4136906529859]},"properties":{"Ort":"Zürich","www":"http://www.stadt-zuerich.ch/content/ssd/de/index/volksschule/besondere_beduerfnisse/psychomotorik_therapie/alletherapiestellen/schulhaus_schauenberg.html","Adresse":"Lerchenhalde 40","PLZ":"8046","Tel":"043 299 10 52","Name":"Psychomotorik Therapiestelle Schauenberg"}}
,{"type":"Feature","geometry":{"type":"Point","coordinates":[8.51636276358548,47.3681640293785]},"properties":{"Ort":"Zürich","www":"http://://www.stadt-zuerich.ch/content/ssd/de/index/volksschule/besondere_beduerfnisse/psychomotorik_therapie/alletherapiestellen/buehl.html","Adresse":"Bühlstrasse 6","PLZ":"8055","Tel":"043 960 77 67","Name":"Psychomotorik Therapiestelle Bühl"}}
,{"type":"Feature","geometry":{"type":"Point","coordinates":[8.53078532747021,47.383859926201]},"properties":{"Ort":"","www":"http://www.winterhilfe.ch/de/extras-deutsch/geschaeftsstellen/zh/","Adresse":"Langstrasse 231","PLZ":"8005","Tel":"044 272 95 00","Name":"Winterhilfe Stadt Zürich"}}
,{"type":"Feature","geometry":{"type":"Point","coordinates":[8.53760020289635,47.3822930831921]},"properties":{"Ort":"","www":"http://www.haz.ch/startseite","Adresse":"Sihlquai 67","PLZ":"8021","Tel":"044 271 22 50","Name":"HAZ, Homosexuelle Arbeitsgruppe Zürich"}}
,{"type":"Feature","geometry":{"type":"Point","coordinates":[8.53117681233323,47.3829297227735]},"properties":{"Ort":"","www":"http://www.beratungsnetz.ch/html/impuls-treffpunkt.html","Adresse":"Josefstrasse 84","PLZ":"8031","Tel":"044 296 50 00","Name":"impuls-treffpunkt"}}
,{"type":"Feature","geometry":{"type":"Point","coordinates":[8.54404129854043,47.3748555833958]},"properties":{"Ort":"","www":"http://www.lotse.zh.ch/home/","Adresse":"Häringstrasse 3","PLZ":"8001","Tel":"044 262 37 69","Name":"Speak-Out"}}
,{"type":"Feature","geometry":{"type":"Point","coordinates":[8.53583296629407,47.3865106245276]},"properties":{"Ort":"","www":"http://www.srk-zuerich.ch/srk/Wer-wir-sind/Organisation/index.php","Adresse":"Kronenstrasse 10","PLZ":"8006","Tel":"044 360 28 54","Name":"SRK, Rotkäppchen - Kinderbertreuung zu Hause"}}
,{"type":"Feature","geometry":{"type":"Point","coordinates":[8.48779800978576,47.3759470809906]},"properties":{"Ort":"Zürich","www":"http://www.stadt-zuerich.ch/megaphon","Adresse":"Albisriederstrasse 330","PLZ":"8047","Tel":"043 336 12 12","Name":"Kinder- und Jugendpartizipation Mega!phon"}}
,{"type":"Feature","geometry":{"type":"Point","coordinates":[8.52715640129937,47.3845058588654]},"properties":{"Ort":"Zürich","www":"http://www.stadt-zuerich.ch/jugendberatung","Adresse":"Röntgenstrasse 44","PLZ":"8005","Tel":"044 412 83 50","Name":"Jugendberatung Zürich-City"}}
,{"type":"Feature","geometry":{"type":"Point","coordinates":[8.53484177392598,47.3692403394171]},"properties":{"Ort":"Zürich","www":"http://www.frauenzentrale.ch/zuerich/cms/front_content.php","Adresse":"Am Schanzengraben 29","PLZ":"8002","Tel":"044 206 30 20","Name":"Zürcher Frauenzentrale"}}
,{"type":"Feature","geometry":{"type":"Point","coordinates":[8.5257663515676,47.3754518441032]},"properties":{"Ort":"Zürich","www":"http://www.stadt-zuerich.ch/content/ssd/de/index/volksschule/besondere_beduerfnisse/psychomotorik_therapie/alletherapiestellen/schulhaus_kanzlei.html","Adresse":"Kanzleistrasse 56","PLZ":"8004","Tel":"044 291 17 95","Name":"Psychomotorik Therapiestelle Kanzlei"}}
,{"type":"Feature","geometry":{"type":"Point","coordinates":[8.53152614004847,47.3672860068709]},"properties":{"Ort":"","www":"http://www.unschlagbar.ch","Adresse":"Parkring 4","PLZ":"8027","Tel":"044 413 86 86","Name":"Fachstelle für Gewaltprävention"}}
,{"type":"Feature","geometry":{"type":"Point","coordinates":[8.53350428613823,47.3892042812251]},"properties":{"Ort":"Zürich","www":"http://www.stadt-zuerich.ch/content/ssd/de/index/volksschule/besondere_beduerfnisse/psychomotorik_therapie/alletherapiestellen/schulhaus_letten.html","Adresse":"Rousseaustrasse 43","PLZ":"8037","Tel":"043 300 52 34","Name":"Psychomotorik Therapiestelle Letten"}}
,{"type":"Feature","geometry":{"type":"Point","coordinates":[8.53190284376988,47.3705545068762]},"properties":{"Ort":"Zürich","www":"http://www.stadt-zuerich.ch/quartierkoordination","Adresse":"Selnaustrasse 17","PLZ":"8026","Tel":"044 412 68 60","Name":"Quartierkoordination Uto/Zürichberg"}}
,{"type":"Feature","geometry":{"type":"Point","coordinates":[8.55757568968716,47.3698588152085]},"properties":{"Ort":"","www":"http://www.schlupfhuus.ch/html/index.php?id=21","Adresse":"Schönbühlstrasse 8","PLZ":"8032","Tel":"043 268 22 66","Name":"Schlupfhuus"}}
,{"type":"Feature","geometry":{"type":"Point","coordinates":[8.48779800978576,47.3759470809906]},"properties":{"Ort":"Zürich","www":"http://www.stadt-zuerich.ch/pflegekinder","Adresse":"Albisriederstrasse 330","PLZ":"8047","Tel":"043 336 12 20","Name":"Fachstelle Pflegekinder"}}
,{"type":"Feature","geometry":{"type":"Point","coordinates":[8.52585607526649,47.3915253101721]},"properties":{"Ort":"Zürich","www":"http://www.stadt-zuerich.ch/alimentenstelle","Adresse":"Hönggerstrasse 24","PLZ":"8037","Tel":"043 444 63 40","Name":"Alimentenstelle"}}
,{"type":"Feature","geometry":{"type":"Point","coordinates":[8.52585607526649,47.3915253101721]},"properties":{"Ort":"Zürich","www":"http://www.stadt-zuerich.ch/elternberatung","Adresse":"Hönggerstrasse 24","PLZ":"8037","Tel":"043 444 64 70","Name":"Elternberatungstelle"}}
,{"type":"Feature","geometry":{"type":"Point","coordinates":[8.54003506671382,47.4276679877627]},"properties":{"Ort":"Zürich","www":"http://www.stadt-zuerich.ch/content/ssd/de/index/volksschule/besondere_beduerfnisse/psychomotorik_therapie/alletherapiestellen/schulhaus_buchwiesen.html","Adresse":"Schönauweg 15","PLZ":"8052","Tel":"044 306 41 96","Name":"Psychomotorik Therapiestelle Buchwiesen"}}
,{"type":"Feature","geometry":{"type":"Point","coordinates":[8.4890733785377,47.3962911886914]},"properties":{"Ort":"Zürich","www":"http://www.stadt-zuerich.ch/content/ssd/de/index/volksschule/besondere_beduerfnisse/psychomotorik_therapie/alletherapiestellen/schulhaus_gruenau.html","Adresse":"Grünauring 26","PLZ":"8046","Tel":"043 311 72 38","Name":"Psychomotorik Therapiestelle Grünau"}}
,{"type":"Feature","geometry":{"type":"Point","coordinates":[8.5590445441443,47.3540759106718]},"properties":{"Ort":"Zürich","www":"http://www.stadt-zuerich.ch/content/ssd/de/index/volksschule/besondere_beduerfnisse/psychomotorik_therapie/alletherapiestellen/therapieraum_wildbachstrasse.html","Adresse":"Wildbachstrasse 76","PLZ":"8008","Tel":"044 382 17 87","Name":"Psychomotorik Therapiestelle Wildbachstrasse"}}
,{"type":"Feature","geometry":{"type":"Point","coordinates":[8.51765069953353,47.368997535615]},"properties":{"Ort":"Zürich","www":"http://www.stadt-zuerich.ch/content/ssd/de/index/volksschule/besondere_beduerfnisse/psychomotorik_therapie/alletherapiestellen/schwendenweg.html","Adresse":"Schwendenweg 7","PLZ":"8055","Tel":"044 451 99 09","Name":"Psychomotorik Therapiestelle Schwendenweg"}}
,{"type":"Feature","geometry":{"type":"Point","coordinates":[8.53421543876041,47.3838544211217]},"properties":{"Ort":"Zürich","www":"","Adresse":"Ausstellungsstrasse 88","PLZ":"8005","Tel":"044 447 16 19","Name":"Quartierkoordination Kreise 3,4,5"}}
,{"type":"Feature","geometry":{"type":"Point","coordinates":[8.52585607526649,47.3915253101721]},"properties":{"Ort":"Zürich","www":"","Adresse":"Hönggerstrasse 24","PLZ":"8037","Tel":"043 444 63 17","Name":"Quartierkoordination Waidberg"}}
,{"type":"Feature","geometry":{"type":"Point","coordinates":[8.55021148336547,47.4071968393192]},"properties":{"Ort":"Zürich","www":"","Adresse":"Schwamendingenstrasse 41","PLZ":"8050","Tel":"044 318 82 03","Name":"Quartierkoordination Zürich Nord"}}
,{"type":"Feature","geometry":{"type":"Point","coordinates":[8.55554653187704,47.401919228359]},"properties":{"Ort":"Zürich","www":"http://www.stadt-zuerich.ch/content/ssd/de/index/volksschule/besondere_beduerfnisse/psychomotorik_therapie/alletherapiestellen/frohburgstrasse.html","Adresse":"Frohburgstrasse 269","PLZ":"8057","Tel":"044 313 02 08","Name":"Psychomotorik Therapiestelle Frohburgstrasse"}}
,{"type":"Feature","geometry":{"type":"Point","coordinates":[8.53784011293272,47.3964851230398]},"properties":{"Ort":"Zürich","www":"http://www.stadt-zuerich.ch/content/ssd/de/index/volksschule/besondere_beduerfnisse/psychomotorik_therapie/alletherapiestellen/schulhaus_milchbuck_b.html","Adresse":"Guggachstrasse 15","PLZ":"8057","Tel":"044 368 38 92","Name":"Psychomotorik Therapiestelle Milchbuck B"}}
,{"type":"Feature","geometry":{"type":"Point","coordinates":[8.52767847698534,47.3368355246888]},"properties":{"Ort":"Zürich","www":"http://www.stadt-zuerich.ch/content/ssd/de/index/volksschule/besondere_beduerfnisse/psychomotorik_therapie/alletherapiestellen/Hauriweg.html","Adresse":"Hauriweg 21","PLZ":"8038","Tel":"044 481 05 45","Name":"Psychomotorik Therapiestelle Hauriweg"}}
,{"type":"Feature","geometry":{"type":"Point","coordinates":[8.5769077211618,47.4014948537457]},"properties":{"Ort":"Zürich","www":"http://www.stadt-zuerich.ch/content/ssd/de/index/volksschule/besondere_beduerfnisse/psychomotorik_therapie/alletherapiestellen/schulhaus_probstei.html","Adresse":"Stettbachstrasse 88","PLZ":"8051","Tel":"044 325 35 61","Name":"Psychomotorik Therapiestelle Probstei"}}
,{"type":"Feature","geometry":{"type":"Point","coordinates":[8.53520483828088,47.3701543980588]},"properties":{"Ort":"Zürich","www":"http://www.stadt-zuerich.ch/content/ssd/de/index/volksschule/besondere_beduerfnisse/psychomotorik_therapie/alletherapiestellen/schulhaus_schanzengraben.html","Adresse":"Basteiplatz 11","PLZ":"8001","Tel":"044 218 70 56","Name":"Psychomotorik Therapiestelle Schanzengraben"}}
,{"type":"Feature","geometry":{"type":"Point","coordinates":[8.54523546003167,47.3749700816315]},"properties":{"Ort":"","www":"http://www.stadtmission.ch/cafe-yucca/","Adresse":"Häringstrasse 20","PLZ":"8022","Tel":"043 244 74 88","Name":"Café Yucca"}}
,{"type":"Feature","geometry":{"type":"Point","coordinates":[8.54877594042459,47.4057084622177]},"properties":{"Ort":"","www":"http://www.insieme-zuerich.ch/htm/337/de/insieme-Zuerich.htm","Adresse":"Regensbergstrasse 89","PLZ":"8050","Tel":"044 381 21 05","Name":"insieme Zürich - anders und doch gleich"}}
,{"type":"Feature","geometry":{"type":"Point","coordinates":[8.56191564977454,47.3653190335562]},"properties":{"Ort":"","www":"http://www.infosekta.ch/","Adresse":"Streulistrasse 28","PLZ":"8032","Tel":"044 454 80 80","Name":"Verein infoSekta"}}
,{"type":"Feature","geometry":{"type":"Point","coordinates":[8.51475550390089,47.3770841824052]},"properties":{"Ort":"Zürich","www":"http://www.zefzh.ch","Adresse":"Hildastrasse 18","PLZ":"8004","Tel":"044 242 96 60","Name":"Zentralstelle Ehe- und Familienberatung"}}
,{"type":"Feature","geometry":{"type":"Point","coordinates":[8.48524369656876,47.3881404826189]},"properties":{"Ort":"Zürich","www":"http://www.fiz-info.ch","Adresse":"Badenerstrasse 682","PLZ":"8048","Tel":"044 240 44 22","Name":"Fraueninformationszentrum FIZ"}}
,{"type":"Feature","geometry":{"type":"Point","coordinates":[8.54783052215297,47.3692242689514]},"properties":{"Ort":"Zürich","www":"","Adresse":"Rämistrasse 39","PLZ":"8001","Tel":"044 250 22 50","Name":"Fachstelle Logopädie"}}
,{"type":"Feature","geometry":{"type":"Point","coordinates":[8.54479197340825,47.4282252107567]},"properties":{"Ort":"Zürich","www":"http://www.stadt-zuerich.ch/content/ssd/de/index/volksschule/besondere_beduerfnisse/psychomotorik_therapie/alletherapiestellen/leimgruebelstrasse.html","Adresse":"Leimgrübelstrasse 11","PLZ":"8052","Tel":"044 301 13 49","Name":"Psychomotorik Therapiestelle Leimgrübelstrasse"}}
,{"type":"Feature","geometry":{"type":"Point","coordinates":[8.52511733982241,47.3773919117984]},"properties":{"Ort":"Zürich","www":"http://www.stadt-zuerich.ch/content/ssd/de/index/volksschule/besondere_beduerfnisse/psychomotorik_therapie/alletherapiestellen/schulhaus_kern.html","Adresse":"Kernstrasse 45","PLZ":"8004","Tel":"043 322 25 85","Name":"Psychomotorik Therapiestelle Kern"}}
,{"type":"Feature","geometry":{"type":"Point","coordinates":[8.51627194391401,47.332894760243]},"properties":{"Ort":"Zürich","www":"http://www.stadt-zuerich.ch/content/ssd/de/index/volksschule/besondere_beduerfnisse/psychomotorik_therapie/alletherapiestellen/leimbach.html","Adresse":"Wegackerstrasse 42","PLZ":"8041","Tel":"079 468 33 72","Name":"Psychomotorik Therapiestelle Ref. Kirchgemeindehaus Leimbach"}}
,{"type":"Feature","geometry":{"type":"Point","coordinates":[8.53989478482099,47.3830987791288]},"properties":{"Ort":"","www":"http://www.archezuerich.ch/BERATUNG-und-STATIONAERE-THERAPIE/Beratung-fuer-Familien/Angebot/","Adresse":"Wasserwerkstrasse 17","PLZ":"8006","Tel":"044 273 31 35","Name":"Arche Beratung für Familien (BasaLina)"}}
,{"type":"Feature","geometry":{"type":"Point","coordinates":[8.55168410900495,47.3597422114166]},"properties":{"Ort":"","www":"http://zh.pro-senectute.ch/de/unserangebot/beratung/treuhanddienste/","Adresse":"Seefeldstrasse 94a","PLZ":"8034","Tel":"058 451 50 00","Name":"Treuhanddienst"}}
,{"type":"Feature","geometry":{"type":"Point","coordinates":[8.52422228176178,47.3757092417593]},"properties":{"Ort":"Zürich","www":"http://www.domicilwohnen.ch","Adresse":"Kanzleistrasse 80","PLZ":"8004","Tel":"044 245 90 25","Name":"Stiftung Domicil, Wohnungsvermittlung"}}
,{"type":"Feature","geometry":{"type":"Point","coordinates":[8.52510325904668,47.3721568695966]},"properties":{"Ort":"Zürich","www":"http://www.juwo.ch","Adresse":"Gartenhofstrasse 15","PLZ":"8004","Tel":"044 298 20 42","Name":"Verein Jugendwohnnetz Zürich"}}
,{"type":"Feature","geometry":{"type":"Point","coordinates":[8.53066242973907,47.3830335348428]},"properties":{"Ort":"Zürich","www":"http://www.zfa.ch","Adresse":"Josefstrasse 91","PLZ":"8005","Tel":"044 272 18 33","Name":"Zürcher Fachstelle für Alkoholfragen"}}
,{"type":"Feature","geometry":{"type":"Point","coordinates":[8.51410935927432,47.4231358801877]},"properties":{"Ort":"Zürich","www":"http://www.stadt-zuerich.ch/content/ssd/de/index/volksschule/besondere_beduerfnisse/psychomotorik_therapie/alletherapiestellen/schulhaus_im_isengrind.html","Adresse":"Wolfswinkel 3","PLZ":"8046","Tel":"044 377 85 16","Name":"Psychomotorik Therapiestelle Im Isengrind"}}
,{"type":"Feature","geometry":{"type":"Point","coordinates":[8.57106772344778,47.4028655313544]},"properties":{"Ort":"Zürich","www":"http://www.stadt-zuerich.ch/content/ssd/de/index/volksschule/besondere_beduerfnisse/psychomotorik_therapie/alletherapiestellen/schulhaus_h_bosshardt_b.html","Adresse":"Heinrich-Bosshardt-Strasse 19","PLZ":"8051","Tel":"043 299 32 24","Name":"Psychomotorik Therapiestelle Heinrich Bosshardt B"}}
,{"type":"Feature","geometry":{"type":"Point","coordinates":[8.50972742095176,47.3542293871878]},"properties":{"Ort":"Zürich","www":"http://www.stadt-zuerich.ch/content/ssd/de/index/volksschule/besondere_beduerfnisse/psychomotorik_therapie/alletherapiestellen/kindergarten_frauentalweg.html","Adresse":"Frauentalweg 39","PLZ":"8045","Tel":"044 451 20 87","Name":"Psychomotorik Therapiestelle Frauentalweg"}}
,{"type":"Feature","geometry":{"type":"Point","coordinates":[8.54116339493239,47.3816834294291]},"properties":{"Ort":"Zürich","www":"http://www.stadt-zuerich.ch/schaedlingsbekaempfung","Adresse":"Walchestrasse 31","PLZ":"8021","Tel":"044 412 28 38","Name":"Beratungsstelle Schädlingsbekämpfung"}}
,{"type":"Feature","geometry":{"type":"Point","coordinates":[8.54163559165475,47.3693125319279]},"properties":{"Ort":"Zürich","www":"http://www.stadt-zuerich.ch/anlaufstellekmu","Adresse":"Stadthausquai 17","PLZ":"8001","Tel":"044 412 36 33","Name":"Anlaufstelle KMU"}}
,{"type":"Feature","geometry":{"type":"Point","coordinates":[8.48779800978576,47.3759470809906]},"properties":{"Ort":"Zürich","www":"","Adresse":"Albisriederstrasse 330","PLZ":"8047","Tel":"043 336 12 00","Name":"Quartierkoordination Kreis 9"}}
,{"type":"Feature","geometry":{"type":"Point","coordinates":[8.52651574268048,47.3803741302749]},"properties":{"Ort":"","www":"http://www.stadtmission.ch/isla-victoria/","Adresse":"Schöneggstrasse 24","PLZ":"8026","Tel":"044 291 60 00","Name":"Isla Victoria"}}
,{"type":"Feature","geometry":{"type":"Point","coordinates":[8.51389811506499,47.373970865884]},"properties":{"Ort":"","www":"http://www.limita-zh.ch/home/index.html","Adresse":"Bertastrasse 35","PLZ":"8003","Tel":"044 450 85 20","Name":"Limita-Verein zur Prävention sexueller Ausbeutung"}}
,{"type":"Feature","geometry":{"type":"Point","coordinates":[8.52589749936568,47.3604647149451]},"properties":{"Ort":"","www":"http://www.mmizuerich.ch/","Adresse":"Schulhausstrasse 64","PLZ":"8002","Tel":"044 205 52 20","Name":"Marie Meierhof - Institut für das Kind"}}
,{"type":"Feature","geometry":{"type":"Point","coordinates":[8.52585607526649,47.3915253101721]},"properties":{"Ort":"Zürich","www":"http://www.stadt-zuerich.ch/freiwillige","Adresse":"Hönggerstrasse 24","PLZ":"8037","Tel":"043 444 64 25","Name":"Kontaktstelle Freiwilligenarbeit"}}
,{"type":"Feature","geometry":{"type":"Point","coordinates":[8.54565295489845,47.4084459457317]},"properties":{"Ort":"Zürich","www":"http://www.stadt-zuerich.ch/jugendberatung","Adresse":"Baumackerstrasse 18","PLZ":"8050","Tel":"044 316 60 60","Name":"Jugendberatung Zürich-Nord"}}
,{"type":"Feature","geometry":{"type":"Point","coordinates":[8.52585607526649,47.3915253101721]},"properties":{"Ort":"Zürich","www":"http://www.stadt-zuerich.ch/beistand","Adresse":"Hönggerstrasse 24","PLZ":"8037","Tel":"043 444 63 10","Name":"Begleitung privater MandatsträgerInnen"}}
,{"type":"Feature","geometry":{"type":"Point","coordinates":[8.52902374004536,47.3722098578219]},"properties":{"Ort":"Zürich","www":"http://www.stadt-zuerich.ch/internet/sd/home/geld/sozialhilfe/zav.html","Adresse":"Strassburgstrasse 5","PLZ":"8026","Tel":"044 412 64 21","Name":"Zentrale Abklärungs- und Vermittlungsstelle"}}
,{"type":"Feature","geometry":{"type":"Point","coordinates":[8.52669197527531,47.3773321082779]},"properties":{"Ort":"Zürich","www":"http://www.mannebuero.ch","Adresse":"Hohlstrasse 36","PLZ":"8004","Tel":"044 242 02 88","Name":"Verein Mannebüro"}}
,{"type":"Feature","geometry":{"type":"Point","coordinates":[8.54783052215297,47.3692242689514]},"properties":{"Ort":"Zürich","www":"http://www.stadt-zuerich.ch/psychomotorik-therapie","Adresse":"Rämistrasse 39","PLZ":"8001","Tel":"044 250 22 60","Name":"Fachstelle Psychomotorik-Therapie"}}
,{"type":"Feature","geometry":{"type":"Point","coordinates":[8.48829247908503,47.3741615778575]},"properties":{"Ort":"Zürich","www":"http://www.stadt-zuerich.ch/content/ssd/de/index/volksschule/besondere_beduerfnisse/psychomotorik_therapie/alletherapiestellen/in_der_ey.html","Adresse":"In der Ey 20","PLZ":"8047","Tel":"043 311 10 62","Name":"Psychomotorik Therapiestelle In der Ey"}}
,{"type":"Feature","geometry":{"type":"Point","coordinates":[8.50470450640372,47.3717893848196]},"properties":{"Ort":"Zürich","www":"http://www.stadt-zuerich.ch/content/ssd/de/index/volksschule/besondere_beduerfnisse/psychomotorik_therapie/alletherapiestellen/schulhaus_im_gut.html","Adresse":"Gutstrasse 107","PLZ":"8055","Tel":"044 405 64 56","Name":"Psychomotorik Therapiestelle Im Gut"}}
,{"type":"Feature","geometry":{"type":"Point","coordinates":[8.57106772344778,47.4028655313544]},"properties":{"Ort":"Zürich","www":"http://www.stadt-zuerich.ch/content/ssd/de/index/volksschule/besondere_beduerfnisse/psychomotorik_therapie/alletherapiestellen/schulhaus_h_bosshardt_a.html","Adresse":"Heinrich-Bosshardt-Strasse 19","PLZ":"8051","Tel":"043 299 32 23","Name":"Psychomotorik Therapiestelle Heinrich Bosshardt A"}}
,{"type":"Feature","geometry":{"type":"Point","coordinates":[8.51652018511545,47.3569636295072]},"properties":{"Ort":"Zürich","www":"http://www.stadt-zuerich.ch/content/ssd/de/index/volksschule/besondere_beduerfnisse/psychomotorik_therapie/alletherapiestellen/wannerstrasse.html","Adresse":"Wannerstrasse 31","PLZ":"8045","Tel":"044 461 15 81","Name":"Psychomotorik Therapiestelle Wannerstrasse"}}
,{"type":"Feature","geometry":{"type":"Point","coordinates":[8.481752687697,47.3897821693683]},"properties":{"Ort":"Zürich","www":"http://www.stadt-zuerich.ch/content/ssd/de/index/volksschule/besondere_beduerfnisse/psychomotorik_therapie/alletherapiestellen/schulhaus_ImHerrlig.html","Adresse":"Badenerstrasse 724","PLZ":"8048","Tel":"043 311 76 14","Name":"Psychomotorik Therapiestelle Im Herrlig"}}
,{"type":"Feature","geometry":{"type":"Point","coordinates":[8.52902392409347,47.3722188512149]},"properties":{"Ort":"Zürich","www":"http://www.stadt-zuerich.ch/vermieter","Adresse":"Strassburgstrasse 5","PLZ":"8004","Tel":"044 412 65 80","Name":"Anlaufstelle für Vermieter"}}
,{"type":"Feature","geometry":{"type":"Point","coordinates":[8.52913129184089,47.371642148571]},"properties":{"Ort":"","www":"http://www.pinocchio-zh.ch/cms/","Adresse":"Hallwylstrasse 29","PLZ":"8004","Tel":"044 242 75 33","Name":"Beratungsstelle Pinocchio"}}
]}
