{"name":"Aussichtspunkt","type":"FeatureCollection"
,"features":[
{"type":"Feature","geometry":{"type":"Point","coordinates":[8.52738685563834,47.3966798356251]},"properties":{"Ort":"Zürich","Name":"Reformierte Kirche Wipkingen","PLZ":"8037"}}
,{"type":"Feature","geometry":{"type":"Point","coordinates":[8.53001707542874,47.3985142092471]},"properties":{"Ort":"Zürich","Name":"Obere Waidstrasse Weihersteig - Im Rehsprung (Wipkingen)","PLZ":"8037"}}
,{"type":"Feature","geometry":{"type":"Point","coordinates":[8.54121859014148,47.3729274633046]},"properties":{"Ort":"Zürich","Name":"Lindenhof (Altstadt)","PLZ":"8001"}}
,{"type":"Feature","geometry":{"type":"Point","coordinates":[8.54312928495676,47.3669332141929]},"properties":{"Ort":"Zürich","Name":"Quaibrücke","PLZ":"8001"}}
,{"type":"Feature","geometry":{"type":"Point","coordinates":[8.53067556906412,47.3566321492438]},"properties":{"Ort":"Zürich","Name":"Rieterpark","PLZ":"8002"}}
,{"type":"Feature","geometry":{"type":"Point","coordinates":[8.48211694788126,47.3712058866716]},"properties":{"Ort":"Zürich","Name":"Hagenbuchrain (Albisrieden)","PLZ":"8047"}}
,{"type":"Feature","geometry":{"type":"Point","coordinates":[8.52938046490778,47.3587358993396]},"properties":{"Ort":"Zürich","Name":"Rieterpark (Enge)","PLZ":"8002"}}
,{"type":"Feature","geometry":{"type":"Point","coordinates":[8.54092691651142,47.4192957772111]},"properties":{"Ort":"Zürich","Name":"Buhn (Seebach)","PLZ":"8052"}}
,{"type":"Feature","geometry":{"type":"Point","coordinates":[8.53691936252994,47.3495728268324]},"properties":{"Ort":"Zürich","Name":"Saffainsel","PLZ":"8038"}}
,{"type":"Feature","geometry":{"type":"Point","coordinates":[8.50643846982583,47.4029166869017]},"properties":{"Ort":"Zürich","Name":"Müseliweg (Höngg)","PLZ":"8049"}}
,{"type":"Feature","geometry":{"type":"Point","coordinates":[8.57328803774538,47.3987872506074]},"properties":{"Ort":"","Name":"Ziegelhütte (Schwamendingen)","PLZ":"8051"}}
,{"type":"Feature","geometry":{"type":"Point","coordinates":[8.5896320233563,47.3811199778265]},"properties":{"Ort":"Zürich","Name":"Tobelhof bei Gockhausen","PLZ":"8044"}}
,{"type":"Feature","geometry":{"type":"Point","coordinates":[8.50840459449096,47.330641184146]},"properties":{"Ort":"Zürich","Name":"Waldrandspazierweg (Unterleimbach)","PLZ":"8041"}}
,{"type":"Feature","geometry":{"type":"Point","coordinates":[8.59897085225201,47.3697658068261]},"properties":{"Ort":"","Name":"Loorenkopf","PLZ":""}}
,{"type":"Feature","geometry":{"type":"Point","coordinates":[8.47844006990737,47.4072108792827]},"properties":{"Ort":"Zürich","Name":"Eggbühl (Höngg)","PLZ":"8049"}}
,{"type":"Feature","geometry":{"type":"Point","coordinates":[8.48046225429685,47.4050567870044]},"properties":{"Ort":"Zürich","Name":"Frankental (Höngg)","PLZ":"8049"}}
,{"type":"Feature","geometry":{"type":"Point","coordinates":[8.48918903713959,47.4096762648319]},"properties":{"Ort":"Zürich","Name":"Ruggerenweg (Höngg)","PLZ":"8049"}}
,{"type":"Feature","geometry":{"type":"Point","coordinates":[8.58713477217459,47.3559912767045]},"properties":{"Ort":"Zürich","Name":"Segetenweg (Witikon)","PLZ":"8053"}}
,{"type":"Feature","geometry":{"type":"Point","coordinates":[8.48453467070958,47.4161044841128]},"properties":{"Ort":"Zürich","Name":"Heizenholz (Höngg)","PLZ":"8049"}}
,{"type":"Feature","geometry":{"type":"Point","coordinates":[8.54354457437533,47.3701617791277]},"properties":{"Ort":"Zürich","Name":"Grossmünster","PLZ":"8001"}}
,{"type":"Feature","geometry":{"type":"Point","coordinates":[8.526102880121,47.3504875040955]},"properties":{"Ort":"Zürich","Name":"Muggenbühlstrasse (Wollishofen)","PLZ":"8038"}}
,{"type":"Feature","geometry":{"type":"Point","coordinates":[8.53908380347075,47.3650434943364]},"properties":{"Ort":"Zürich","Name":"General-Guisan-Quai","PLZ":"8002"}}
,{"type":"Feature","geometry":{"type":"Point","coordinates":[8.52772220518105,47.3613493614284]},"properties":{"Ort":"Zürich","Name":"Katharinenweg (Enge)","PLZ":"8002"}}
,{"type":"Feature","geometry":{"type":"Point","coordinates":[8.58927457279819,47.3648939823634]},"properties":{"Ort":"Zürich","Name":"Looren (Adlisberg)","PLZ":"8053"}}
,{"type":"Feature","geometry":{"type":"Point","coordinates":[8.49808727912891,47.3566520901978]},"properties":{"Ort":"Zürich","Name":"Friesenberg (Wiedikon)","PLZ":"8045"}}
,{"type":"Feature","geometry":{"type":"Point","coordinates":[8.51749603131705,47.3559358971944]},"properties":{"Ort":"Zürich","Name":"Albisgütliweg (Wiedikon)","PLZ":"8045"}}
,{"type":"Feature","geometry":{"type":"Point","coordinates":[8.53683738110809,47.3340534883166]},"properties":{"Ort":"Zürich","Name":"Bühl (Wollishofen)","PLZ":"8038"}}
,{"type":"Feature","geometry":{"type":"Point","coordinates":[8.54944910675236,47.3932455296648]},"properties":{"Ort":"Zürich","Name":"Irchelpark","PLZ":"8057"}}
,{"type":"Feature","geometry":{"type":"Point","coordinates":[8.54650017354465,47.3761532351585]},"properties":{"Ort":"Zürich","Name":"Polyterrasse (Universitätsviertel)","PLZ":"8001"}}
,{"type":"Feature","geometry":{"type":"Point","coordinates":[8.5579105543185,47.3753013384982]},"properties":{"Ort":"Zürich","Name":"Gloriastrasse-Himmelsleiterli (Fluntern)","PLZ":"8044"}}
,{"type":"Feature","geometry":{"type":"Point","coordinates":[8.54901305523158,47.3675044435745]},"properties":{"Ort":"Zürich","Name":"Hohe Promenade (Stadelhofen)","PLZ":"8001"}}
,{"type":"Feature","geometry":{"type":"Point","coordinates":[8.56598126509691,47.355357612894]},"properties":{"Ort":"","Name":"Burghölzli (Riesbach)","PLZ":"8008"}}
,{"type":"Feature","geometry":{"type":"Point","coordinates":[8.53092156159617,47.4218397803481]},"properties":{"Ort":"Zürich","Name":"Schwandholz (Seebach)","PLZ":"8052"}}
,{"type":"Feature","geometry":{"type":"Point","coordinates":[8.50214251424319,47.4304966339448]},"properties":{"Ort":"Zürich","Name":"Äbnet (Unter-Affoltern)","PLZ":"8046"}}
,{"type":"Feature","geometry":{"type":"Point","coordinates":[8.56817329432669,47.3667581067238]},"properties":{"Ort":"Zürich","Name":"Sonnenberg","PLZ":"8032"}}
,{"type":"Feature","geometry":{"type":"Point","coordinates":[8.49641891198265,47.4012265724703]},"properties":{"Ort":"Zürich","Name":"Reformierte Kirche Höngg (Promenade)","PLZ":"8049"}}
,{"type":"Feature","geometry":{"type":"Point","coordinates":[8.59015774113096,47.3968865738218]},"properties":{"Ort":"Zürich","Name":"Erholungsanlage Mattenhof (Stettbach)","PLZ":"8051"}}
,{"type":"Feature","geometry":{"type":"Point","coordinates":[8.53719314403318,47.4313640872368]},"properties":{"Ort":"Zürich","Name":"Köschenrüti (Seebach)","PLZ":"8052"}}
,{"type":"Feature","geometry":{"type":"Point","coordinates":[8.47463757676411,47.3808889979561]},"properties":{"Ort":"Zürich","Name":"Lyren-Weg (Altstetten)","PLZ":"8048"}}
,{"type":"Feature","geometry":{"type":"Point","coordinates":[8.5750196724017,47.3720000821961]},"properties":{"Ort":"Zürich","Name":"Dolder (Hottingen)","PLZ":"8032"}}
,{"type":"Feature","geometry":{"type":"Point","coordinates":[8.48984889196089,47.3547227354479]},"properties":{"Ort":"Zürich","Name":"Gratweg (Üetliberg)","PLZ":"8055"}}
,{"type":"Feature","geometry":{"type":"Point","coordinates":[8.46975471143602,47.4174808405243]},"properties":{"Ort":"Zürich","Name":"Sonnenbergstrasse (Rütihof)","PLZ":"8049"}}
,{"type":"Feature","geometry":{"type":"Point","coordinates":[8.52186063428165,47.3349348149736]},"properties":{"Ort":"Zürich","Name":"Äntlisberg (Wollishofen)","PLZ":"8041"}}
,{"type":"Feature","geometry":{"type":"Point","coordinates":[8.50164395099128,47.4156188059654]},"properties":{"Ort":"Zürich","Name":"Plätschweg-Hungerberg (Ober-Affoltern)","PLZ":"8046"}}
,{"type":"Feature","geometry":{"type":"Point","coordinates":[8.49142773912466,47.3495566801785]},"properties":{"Ort":"Zürich","Name":"Uetliberg","PLZ":"8143"}}
]}
