{"name":"Beachvolleyball","type":"FeatureCollection"
,"features":[
{"type":"Feature","geometry":{"type":"Point","coordinates":[8.53525035479065,47.3395523303361]},"properties":{"Ort":"Zürich","www":"","Adresse":"Kilchbergstrasse 50","PLZ":"8038","Tel":"079 699 25 18","Name":"Schulhaus Im Lee"}}
,{"type":"Feature","geometry":{"type":"Point","coordinates":[8.49803470845179,47.371311095456]},"properties":{"Ort":"Zürich","www":"","Adresse":"Espenhofweg 60","PLZ":"8047","Tel":"043 311 15 75","Name":"Schulhaus Letzi"}}
,{"type":"Feature","geometry":{"type":"Point","coordinates":[8.47743569093289,47.3810149835122]},"properties":{"Ort":"Zürich","www":"","Adresse":"Friedhofstrasse 89","PLZ":"8048","Tel":"044 433 03 41","Name":"Sportanlage Buchlern"}}
,{"type":"Feature","geometry":{"type":"Point","coordinates":[8.48878005913724,47.4049290875566]},"properties":{"Ort":"Zürich","www":"","Adresse":"Imbisbühlstrasse 80","PLZ":"8049","Tel":"079 441 35 69","Name":"Schulhaus Lachenzelg"}}
,{"type":"Feature","geometry":{"type":"Point","coordinates":[8.50612389835102,47.3679533529186]},"properties":{"Ort":"Zürich","www":"http://www.stadt-zuerich.ch/content/ssd/de/index/sport/schwimmen/sommerbaeder/freibad_heuried/adresse.html","Adresse":"Wasserschöpfi 71","PLZ":"8055","Tel":"044 455 51 61","Name":"Freibad Heuried"}}
,{"type":"Feature","geometry":{"type":"Point","coordinates":[8.4737784982333,47.4095260563104]},"properties":{"Ort":"Oberengstringen","www":"http://www.stadt-zuerich.ch/content/ssd/de/index/sport/schwimmen/sommerbaeder/freibad_zwischen_den_hoelzern/adresse.html","Adresse":"Zwischen den Hölzern","PLZ":"8102","Tel":"044 750 01 77","Name":"Freibad Zwischen den Hölzern"}}
,{"type":"Feature","geometry":{"type":"Point","coordinates":[8.53426642321225,47.3856889480953]},"properties":{"Ort":"Zürich","www":"http://www.stadt-zuerich.ch/content/ssd/de/index/sport/schwimmen/sommerbaeder/flussbad_oberer_letten/adresse.html#contenttabs","Adresse":"Lettensteg 10","PLZ":"8031","Tel":"044 362 92 00","Name":"Oberer Letten"}}
,{"type":"Feature","geometry":{"type":"Point","coordinates":[8.54267587677509,47.4207886159211]},"properties":{"Ort":"Zürich","www":"","Adresse":"Buhnrain 40","PLZ":"8052","Tel":"","Name":"Schulhaus Buhnrain"}}
,{"type":"Feature","geometry":{"type":"Point","coordinates":[8.53902059199131,47.4055319394588]},"properties":{"Ort":"Zürich","www":"http://www.stadt-zuerich.ch/content/ssd/de/index/sport/schwimmen/sommerbaeder/freibad_allenmoos/adresse.html","Adresse":"Ringstrasse 79","PLZ":"8057","Tel":"044 315 50 00","Name":"Freibad Allenmoos"}}
,{"type":"Feature","geometry":{"type":"Point","coordinates":[8.47180837010907,47.3967709579738]},"properties":{"Ort":"Zürich","www":"","Adresse":"Vulkanstrasse 200","PLZ":"8048","Tel":"044 434 70 12","Name":"Sportanlage Juchof 1"}}
,{"type":"Feature","geometry":{"type":"Point","coordinates":[8.52603338680577,47.3690717800924]},"properties":{"Ort":"Zürich","www":"","Adresse":"Manessestrasse 1","PLZ":"8003","Tel":"","Name":"Sportanlage Sihlhölzli"}}
,{"type":"Feature","geometry":{"type":"Point","coordinates":[8.49294037400602,47.386199526709]},"properties":{"Ort":"Zürich","www":"","Adresse":"Badenerstrasse 618","PLZ":"8048","Tel":"","Name":"Schulhaus Kappeli"}}
,{"type":"Feature","geometry":{"type":"Point","coordinates":[8.58193514748167,47.4011663708108]},"properties":{"Ort":"Zürich","www":"","Adresse":"Dübendorfstrasse 158","PLZ":"8051","Tel":"079 418 44 71","Name":"Schulhaus Stettbach"}}
,{"type":"Feature","geometry":{"type":"Point","coordinates":[8.55909636139087,47.3559104461173]},"properties":{"Ort":"Zürich","www":"","Adresse":"Mühlebachstrasse 180","PLZ":"8008","Tel":"","Name":"Schulhaus Münchhalde"}}
,{"type":"Feature","geometry":{"type":"Point","coordinates":[8.52309767366352,47.3861631679991]},"properties":{"Ort":"Zürich","www":"","Adresse":"Josefstrasse 197","PLZ":"8005","Tel":"","Name":"Josefwiese"}}
]}
