{"name":"Fussballplatz","type":"FeatureCollection"
,"features":[
{"type":"Feature","geometry":{"type":"Point","coordinates":[8.49782480187282,47.3793995634654]},"properties":{"Ort":"Zürich","www":"http://www.stadt-zuerich.ch/content/ssd/de/index/sport/anlagen/miete.html","Adresse":"Dennlerstrasse 43a","PLZ":"8047","Tel":"044 492 16 89","Name":"Sportanlage Utogrund"}}
,{"type":"Feature","geometry":{"type":"Point","coordinates":[8.54869273565967,47.4284036836411]},"properties":{"Ort":"Zürich","www":"http://www.stadt-zuerich.ch/content/ssd/de/index/sport/anlagen/miete.html","Adresse":"Stiglenstrasse 60","PLZ":"8052","Tel":"044 302 67 02","Name":"Sportanlage Eichrain"}}
,{"type":"Feature","geometry":{"type":"Point","coordinates":[8.47743569093289,47.3810149835122]},"properties":{"Ort":"Zürich","www":"http://www.stadt-zuerich.ch/content/ssd/de/index/sport/anlagen/miete.html","Adresse":"Friedhofstrasse 89","PLZ":"8048","Tel":"044 433 03 41","Name":"Sportanlage Buchlern"}}
,{"type":"Feature","geometry":{"type":"Point","coordinates":[8.51196977145395,47.4208800441158]},"properties":{"Ort":"Zürich","www":"http://www.stadt-zuerich.ch/content/ssd/de/index/sport/anlagen/miete.html","Adresse":"Fronwaldstrasse 115","PLZ":"8046","Tel":"044 372 04 80","Name":"Sportanlage Fronwald"}}
,{"type":"Feature","geometry":{"type":"Point","coordinates":[8.49747641638708,47.396511320509]},"properties":{"Ort":"Zürich","www":"http://www.stadt-zuerich.ch/content/ssd/de/index/sport/anlagen/miete.html","Adresse":"Hardhof 19","PLZ":"8064","Tel":"044 431 49 26","Name":"Sportanlage Hardhof"}}
,{"type":"Feature","geometry":{"type":"Point","coordinates":[8.47180837010907,47.3967709579738]},"properties":{"Ort":"Zürich","www":"http://www.stadt-zuerich.ch/content/ssd/de/index/sport/anlagen/miete.html","Adresse":"Vulkanstrasse 200","PLZ":"8048","Tel":"044 434 70 12","Name":"Rasensportanlage Juchhof 1"}}
,{"type":"Feature","geometry":{"type":"Point","coordinates":[8.46625876973646,47.3988804176638]},"properties":{"Ort":"Zürich","www":"http://www.stadt-zuerich.ch/content/ssd/de/index/sport/anlagen/miete.html","Adresse":"Bernerstrasse 331","PLZ":"8048","Tel":"044 434 70 20","Name":"Rasensportanlage Juchhof 2"}}
,{"type":"Feature","geometry":{"type":"Point","coordinates":[8.52363089332005,47.3538206393756]},"properties":{"Ort":"Zürich","www":"http://www.stadt-zuerich.ch/content/ssd/de/index/sport/anlagen/miete.html","Adresse":"Allmendstrasse 10","PLZ":"8002","Tel":"044 201 56 04","Name":"Rasensportanlage Allmend Brunau"}}
,{"type":"Feature","geometry":{"type":"Point","coordinates":[8.59483834978659,47.4011279358072]},"properties":{"Ort":"Zürich","www":"http://www.stadt-zuerich.ch/content/ssd/de/index/sport/anlagen/miete.html","Adresse":"Helen-Kellerstr. 20","PLZ":"8051","Tel":"044 325 26 00","Name":"Rasensportanlage Heerenschürli"}}
,{"type":"Feature","geometry":{"type":"Point","coordinates":[8.59607682679999,47.3624088662001]},"properties":{"Ort":"Zürich","www":"http://www.stadt-zuerich.ch/content/ssd/de/index/sport/anlagen/miete.html","Adresse":"","PLZ":"8053","Tel":"044 381 01 33","Name":"Rasensportanlage Witikon"}}
,{"type":"Feature","geometry":{"type":"Point","coordinates":[8.55641178708742,47.4115805737381]},"properties":{"Ort":"Zürich","www":"http://www.stadt-zuerich.ch/content/ssd/de/index/sport/anlagen/miete.html","Adresse":"","PLZ":"8050","Tel":"044 311 49 59","Name":"Rasensportanlage Neudorf"}}
]}
