{"name":"Gemeinschaftszentrum","type":"FeatureCollection"
,"features":[
{"type":"Feature","geometry":{"type":"Point","coordinates":[8.50391043996258,47.367173242425]},"properties":{"Ort":"Zürich","www":"http://www.gz-zh.ch/heuried","Adresse":"Döltschiweg 130","PLZ":"8055","Tel":"043 268 60 80","Name":"GZ Heuried"}}
,{"type":"Feature","geometry":{"type":"Point","coordinates":[8.59183862669959,47.4027050730821]},"properties":{"Ort":"Zürich","www":"http://wwv.gz-zh.ch/gz-hirzenbach/","Adresse":"Helen-Keller-Strasse 55","PLZ":"8051","Tel":"044 325 60 11","Name":"GZ Hirzenbach"}}
,{"type":"Feature","geometry":{"type":"Point","coordinates":[8.55390981194577,47.3591900008301]},"properties":{"Ort":"Zürich","www":"http://www.gz-zh.ch/riesbach","Adresse":"Seefeldstrasse 93","PLZ":"8008","Tel":"044 387 74 50","Name":"GZ Riesbach"}}
,{"type":"Feature","geometry":{"type":"Point","coordinates":[8.53580134171345,47.3451061447765]},"properties":{"Ort":"Zürich","www":"http://www.gz-zh.ch/wollishofen","Adresse":"Bachstrasse 7","PLZ":"8038","Tel":"043 243 11 37","Name":"GZ Wollishofen"}}
,{"type":"Feature","geometry":{"type":"Point","coordinates":[8.48999447276196,47.3959769778562]},"properties":{"Ort":"Zürich","www":"http://www.gz-zh.ch/gruenau","Adresse":"Grünauring 18","PLZ":"8064","Tel":"044 431 86 00","Name":"GZ Grünau"}}
,{"type":"Feature","geometry":{"type":"Point","coordinates":[8.55617702054636,47.3694585902132]},"properties":{"Ort":"Zürich","www":"http://www.gz-zh.ch/hottingen","Adresse":"Gemeindestrasse 54","PLZ":"8032","Tel":"044 251 02 29","Name":"GZ Hottingen"}}
,{"type":"Feature","geometry":{"type":"Point","coordinates":[8.5942499614502,47.3599714636437]},"properties":{"Ort":"Zürich","www":"http://wwv.gz-zh.ch/gz-witikon/gz-witikon/","Adresse":"Witikonerstrasse 405","PLZ":"8053","Tel":"044 422 75 61","Name":"GZ Witikon"}}
,{"type":"Feature","geometry":{"type":"Point","coordinates":[8.53259696636487,47.3321294605901]},"properties":{"Ort":"Zürich","www":"http://www.gz-zh.ch/wollishofen","Adresse":"Erligatterweg 53","PLZ":"8038","Tel":"044 482 66 84","Name":"GZ Wollishofen, Standort Neubühl"}}
,{"type":"Feature","geometry":{"type":"Point","coordinates":[8.49731200280479,47.4022336599066]},"properties":{"Ort":"","www":"http://gz-hoengg@gz-zh.ch","Adresse":"Limmattalstrasse 214","PLZ":"8049","Tel":"044 341 70 00","Name":"GZ Höngg/Rütlihof"}}
,{"type":"Feature","geometry":{"type":"Point","coordinates":[8.51093043678025,47.4245506612952]},"properties":{"Ort":"Zürich","www":"http://www.gz-zh.ch/affoltern","Adresse":"Bodenacker 25","PLZ":"8046","Tel":"043 299 20 10","Name":"GZ Affoltern"}}
,{"type":"Feature","geometry":{"type":"Point","coordinates":[8.54662658693391,47.3724560920696]},"properties":{"Ort":"Zürich","www":"http://www.gz-zh.ch/gz-altstadthaus","Adresse":"Obmannamtsgasse 15","PLZ":"8001","Tel":"044 251 42 59","Name":"GZ Altstadthaus"}}
,{"type":"Feature","geometry":{"type":"Point","coordinates":[8.48614202014946,47.3799468952651]},"properties":{"Ort":"Zürich","www":"http://www.gz-zh.ch/bachwiesen","Adresse":"Bachwiesenstrasse 40","PLZ":"8047","Tel":"044 436 86 36","Name":"GZ Bachwiesen"}}
,{"type":"Feature","geometry":{"type":"Point","coordinates":[8.54569173272636,47.4077619502317]},"properties":{"Ort":"Zürich","www":"http://www.gz-zh.ch/gz-oerlikon","Adresse":"Gubelstrasse 10","PLZ":"8050","Tel":"044 315 52 42","Name":"GZ Oerlikon"}}
,{"type":"Feature","geometry":{"type":"Point","coordinates":[8.5361029992795,47.3867599229319]},"properties":{"Ort":"Zürich","www":"http://www.gz-zh.ch/schindlergut","Adresse":"Kronenstrasse 12","PLZ":"8006","Tel":"044 365 24 40","Name":"GZ Schindlergut"}}
,{"type":"Feature","geometry":{"type":"Point","coordinates":[8.54397303539976,47.4245361150105]},"properties":{"Ort":"Zürich","www":"http://www.gz-zh.ch/seebach","Adresse":"Hertensteinstrasse 20","PLZ":"8052","Tel":"044 307 51 50","Name":"GZ Seebach"}}
,{"type":"Feature","geometry":{"type":"Point","coordinates":[8.53509567101849,47.3989488789252]},"properties":{"Ort":"Zürich","www":"http://www.gz-zh.ch/buchegg","Adresse":"Bucheggstrasse 93","PLZ":"8057","Tel":"044 360 80 10","Name":"GZ Buchegg"}}
,{"type":"Feature","geometry":{"type":"Point","coordinates":[8.51346663356383,47.3341982351935]},"properties":{"Ort":"Zürich","www":"http://www.gz-zh.ch/leimbach","Adresse":"Rebenweg 6","PLZ":"8041","Tel":"044 482 57 09","Name":"GZ Leimbach"}}
,{"type":"Feature","geometry":{"type":"Point","coordinates":[8.47248267512683,47.3885164236077]},"properties":{"Ort":"Zürich","www":"http://www.gz-zh.ch/loogarten","Adresse":"Salzweg 1","PLZ":"8048","Tel":"044 437 90 20","Name":"GZ Loogarten"}}
,{"type":"Feature","geometry":{"type":"Point","coordinates":[8.52021873893624,47.3930984094102]},"properties":{"Ort":"Zürich","www":"http://www.gz-zh.ch/wipkingen","Adresse":"Breitensteinstrasse 19a","PLZ":"8037","Tel":"044 276 82 80","Name":"GZ Wipkingen"}}
]}
