{"name":"Kinderhaus","type":"FeatureCollection"
,"features":[
{"type":"Feature","geometry":{"type":"Point","coordinates":[8.52290764754239,47.3865877232561]},"properties":{"Ort":"Zürich","www":"http://www.stadt-zuerich.ch/viadukt","Adresse":"Viaduktstrasse 55","PLZ":"8005","Tel":"044 272 01 31","Name":"Kindertreff Viadukt"}}
,{"type":"Feature","geometry":{"type":"Point","coordinates":[8.5097318413388,47.3821141818074]},"properties":{"Ort":"Zürich","www":"","Adresse":"Bullingerstrasse 60","PLZ":"8004","Tel":"044 492 89 58","Name":"Kindertreff Hardau"}}
,{"type":"Feature","geometry":{"type":"Point","coordinates":[8.51360103244469,47.4156837508548]},"properties":{"Ort":"","www":"http://zentrumelch.ch/FamilienzentrenELCH/FriedenDetail","Adresse":"Wehntalerstrasse 440","PLZ":"8046","Tel":"044 377 77 00","Name":"Zentrum Elch - Frieden"}}
,{"type":"Feature","geometry":{"type":"Point","coordinates":[8.57352572199551,47.4044335505373]},"properties":{"Ort":"Zürich","www":"http://www.zentrum-krokodil.ch/index2.php","Adresse":"Winterthurerstrasse 537","PLZ":"8304","Tel":"044 321 06 21","Name":"Zentrum Krokodil für Eltern und Kinder"}}
,{"type":"Feature","geometry":{"type":"Point","coordinates":[8.5257663515676,47.3754518441032]},"properties":{"Ort":"Zürich","www":"","Adresse":"Kanzleistrasse 56","PLZ":"8004","Tel":"044 272 19 29","Name":"Spielanimation Kreise 3, 4 und 5"}}
,{"type":"Feature","geometry":{"type":"Point","coordinates":[8.55565136286601,47.365856608287]},"properties":{"Ort":"Zürich","www":"http://www.stadt-zuerich.ch/internet/sd/home/kinder/betreuung/Krippen/kha.html","Adresse":"Klosbachstrasse 25","PLZ":"8032","Tel":"044 251 47 04","Name":"Kinderhaus Artergut"}}
,{"type":"Feature","geometry":{"type":"Point","coordinates":[8.52443783192479,47.3407969815641]},"properties":{"Ort":"Zürich","www":"http://www.stadt-zuerich.ch/internet/sd/home/kinder/betreuung/Krippen/khe.html","Adresse":"Butzenstrasse 49","PLZ":"8038","Tel":"044 488 10 11","Name":"Kinderhaus Entlisberg"}}
,{"type":"Feature","geometry":{"type":"Point","coordinates":[8.57104654518404,47.4062299183437]},"properties":{"Ort":"Zürich","www":"http://www.stadt-zuerich.ch/internet/sd/home/kinder/betreuung/Krippen/schw.html","Adresse":"Aprikosenstrasse 12","PLZ":"8051","Tel":"043 299 32 00","Name":"Kinderhaus Schwamendingen"}}
,{"type":"Feature","geometry":{"type":"Point","coordinates":[8.48679091451761,47.3900333918601]},"properties":{"Ort":"Zürich","www":"http://www.zentrumelch.ch/verein","Adresse":"Altstetterstrasse 118","PLZ":"8048","Tel":"044 225 77 90","Name":"Verein Zentrum Elch - Altstetten"}}
,{"type":"Feature","geometry":{"type":"Point","coordinates":[8.53987731509052,47.4149236050614]},"properties":{"Ort":"","www":"http://zentrumelch.ch/FamilienzentrenELCH/MslihuusDetail","Adresse":"Otto-Schütz-Weg 9","PLZ":"8050","Tel":"043 333 43 36","Name":"Zentrum Elch - Müslihuus / ACCU"}}
,{"type":"Feature","geometry":{"type":"Point","coordinates":[8.53452859739632,47.4100181930579]},"properties":{"Ort":"Zürich","www":"http://www.zentrumelch.ch/","Adresse":"Regensbergstrasse 209","PLZ":"8050","Tel":"044 372 01 69","Name":"Zentrum Elch für Eltere und Chind, Begegnungsort für Familien"}}
,{"type":"Feature","geometry":{"type":"Point","coordinates":[8.5257663515676,47.3754518441032]},"properties":{"Ort":"Zürich","www":"","Adresse":"Kanzleistrasse 56","PLZ":"8004","Tel":"076 247 31 10","Name":"Spielbaracke"}}
,{"type":"Feature","geometry":{"type":"Point","coordinates":[8.52290602568627,47.3780513554155]},"properties":{"Ort":"Zürich","www":"","Adresse":"Ecke Stauffacherstrasse/Feldstrasse","PLZ":"8004","Tel":"044 241 06 42","Name":"Spielwagen Bäckeranlage"}}
,{"type":"Feature","geometry":{"type":"Point","coordinates":[8.52891852677378,47.3871248112994]},"properties":{"Ort":"Züridh","www":"","Adresse":"Fabrikstrasse 7","PLZ":"8005","Tel":"043 818 23 59","Name":"Kindertreff Point 5"}}
,{"type":"Feature","geometry":{"type":"Point","coordinates":[8.49928982813433,47.4230480189989]},"properties":{"Ort":"","www":"http://zentrumelch.ch/FamilienzentrenELCH/CeCeArealDetail","Adresse":"Wehntalerstrasse 634","PLZ":"8046","Tel":"043 960 15 17","Name":"Zentrum Elch - Ce Ce Areal"}}
]}
