{"name":"Kinderkrippe","type":"FeatureCollection"
,"features":[
{"type":"Feature","geometry":{"type":"Point","coordinates":[8.54193620315712,47.4138785271398]},"properties":{"Ort":"Zürich","www":"http://www.abbkinderkrippen.ch","Adresse":"Binzmühlestrasse 81","PLZ":"8050","Tel":"044 310 34 73","Name":"Kita Schnäggehuus ABB"}}
,{"type":"Feature","geometry":{"type":"Point","coordinates":[8.49798306199408,47.3673807192553]},"properties":{"Ort":"Zürich","www":"http://www.triemli.ch","Adresse":"Birmensdorferstrasse 491","PLZ":"8063","Tel":"044 466 22 97","Name":"Kita Stadtspital Triemli"}}
,{"type":"Feature","geometry":{"type":"Point","coordinates":[8.49836811835466,47.4027097079931]},"properties":{"Ort":"Zürich","www":"http://www.montessori-schulung.ch","Adresse":"Regensdorferstrasse 9","PLZ":"8049","Tel":"044 341 04 66","Name":"Kinderhaus Quelle Montessori-Tageskindergarten"}}
,{"type":"Feature","geometry":{"type":"Point","coordinates":[8.49765227845221,47.3853738515417]},"properties":{"Ort":"Zürich","www":"http://www.stadt-zuerich.ch/kinderbetreuung","Adresse":"Grundstrasse 28","PLZ":"8048","Tel":"044 492 24 88","Name":"Kinderkrippe Baby Disney"}}
,{"type":"Feature","geometry":{"type":"Point","coordinates":[8.54486768597967,47.3929729002012]},"properties":{"Ort":"Zürich","www":"http://www.kinderkrippe-murmel.ch","Adresse":"Winterthurerstrasse 117","PLZ":"8006","Tel":"044 362 64 84","Name":"Kinderkrippe Murmel"}}
,{"type":"Feature","geometry":{"type":"Point","coordinates":[8.5336466077351,47.3838868016285]},"properties":{"Ort":"Zürich","www":"http://www.zwergenburg-zh.ch","Adresse":"Ackerstrasse 63","PLZ":"8005","Tel":"043 366 81 23","Name":"Kindertrefff Zwergenburg Limmatplatz"}}
,{"type":"Feature","geometry":{"type":"Point","coordinates":[8.50180377761588,47.4221703844136]},"properties":{"Ort":"Zürich","www":"http://www.kinderkrippe-bambi.ch","Adresse":"Blumenfeldstrasse 7","PLZ":"8046","Tel":"043 811 40 00","Name":"Kita Bambi Affoltern"}}
,{"type":"Feature","geometry":{"type":"Point","coordinates":[8.54561148721907,47.4191953984541]},"properties":{"Ort":"Zürich","www":"http://www.kinderkrippe-bambi.ch","Adresse":"Bahnhaldenstrasse 12","PLZ":"8052","Tel":"043 300 19 91","Name":"Kita Bambi Seebach"}}
,{"type":"Feature","geometry":{"type":"Point","coordinates":[8.56535968688541,47.3466203040823]},"properties":{"Ort":"Zürich","www":"http://www.cartonaurio.ch","Adresse":"Seefeldstrasse 331","PLZ":"8008","Tel":"044 422 74 48","Name":"Kita Cartonaurio Seefeldstrasse"}}
,{"type":"Feature","geometry":{"type":"Point","coordinates":[8.48366460863532,47.3825958775721]},"properties":{"Ort":"Zürich","www":"http://www.chinderburg.ch","Adresse":"Altstetterstrasse 218","PLZ":"8048","Tel":"044 431 79 77","Name":"Kita Chinderburg 9"}}
,{"type":"Feature","geometry":{"type":"Point","coordinates":[8.49625102998184,47.4028460433345]},"properties":{"Ort":"Zürich","www":"http://www.chrabelschloss.ch/","Adresse":"Wieslergasse 10","PLZ":"8049","Tel":"043 300 22 33","Name":"Kita Chrabelschloss 2"}}
,{"type":"Feature","geometry":{"type":"Point","coordinates":[8.57748325974798,47.3509719174807]},"properties":{"Ort":"Zürich","www":"http://www.kita-hoppel.ch","Adresse":"Witellikerstrasse 45","PLZ":"8008","Tel":"044 381 30 90","Name":"Kita Hoppel"}}
,{"type":"Feature","geometry":{"type":"Point","coordinates":[8.49543846415864,47.3659198566544]},"properties":{"Ort":"Zürich","www":"http://www.zentrum-inselhof.ch","Adresse":"Birmensdorferstrasse 501","PLZ":"8063","Tel":"044 498 51 31","Name":"Kita Inselhof"}}
,{"type":"Feature","geometry":{"type":"Point","coordinates":[8.5187649075738,47.3971777889496]},"properties":{"Ort":"Zürich","www":"http://www.kita-kaeferberg.ch","Adresse":"Griesernweg 26","PLZ":"8037","Tel":"043 321 39 20","Name":"Kita Käferberg AG"}}
,{"type":"Feature","geometry":{"type":"Point","coordinates":[8.51332189563962,47.3664113541079]},"properties":{"Ort":"Zürich","www":"http://www.childcare.ch","Adresse":"Im Tiergarten 12","PLZ":"8055","Tel":"044 254 60 50","Name":"Kita Kids & Co Tiergarten"}}
,{"type":"Feature","geometry":{"type":"Point","coordinates":[8.5091566572756,47.4108227251865]},"properties":{"Ort":"Zürich","www":"http://www.kihz.ethz.ch","Adresse":"Schafmattstrasse 15","PLZ":"8049","Tel":"044 633 45 32","Name":"Kita kihz Hönggerberg"}}
,{"type":"Feature","geometry":{"type":"Point","coordinates":[8.5495237729292,47.3735976315579]},"properties":{"Ort":"Zürich","www":"http://www.kihz.ethz.ch","Adresse":"Schönberggasse 4","PLZ":"8001","Tel":"044 634 40 27","Name":"Kita kihz Schönberg"}}
,{"type":"Feature","geometry":{"type":"Point","coordinates":[8.53257166342295,47.3695946861093]},"properties":{"Ort":"Zürich","www":"http://www.globegarden.org","Adresse":"Friedensgasse 7","PLZ":"8002","Tel":"043 222 47 40","Name":"Globegarden (Friedensgasse)"}}
,{"type":"Feature","geometry":{"type":"Point","coordinates":[8.53231241642069,47.3956650697355]},"properties":{"Ort":"Zürich","www":"http://www.ringelrosen.ch","Adresse":"Rötelstrasse 96","PLZ":"8057","Tel":"044 350 61 66","Name":"Kita Ringelrosen Aussengruppe"}}
,{"type":"Feature","geometry":{"type":"Point","coordinates":[8.53563700585516,47.3435515324742]},"properties":{"Ort":"Zürich","www":"http://www.stadt-zuerich.ch/kinderbetreuung","Adresse":"Seestrasse 395","PLZ":"8038","Tel":"044 481 86 89","Name":"Kita Rote Fabrik"}}
,{"type":"Feature","geometry":{"type":"Point","coordinates":[8.53888619318158,47.4131340399565]},"properties":{"Ort":"Zürich","www":"http://www.grow2gether.ch","Adresse":"Binzmühlestrasse 103","PLZ":"8050","Tel":"044 301 18 66","Name":"Kita Schnappi"}}
,{"type":"Feature","geometry":{"type":"Point","coordinates":[8.57546835792053,47.3520712130204]},"properties":{"Ort":"Zürich","www":"http://www.stadt-zuerich.ch/kinderbetreuung","Adresse":"Witellikerstrasse 22","PLZ":"8008","Tel":"044 384 29 64","Name":"Kita Spatzennest"}}
,{"type":"Feature","geometry":{"type":"Point","coordinates":[8.54867315870921,47.3969662040954]},"properties":{"Ort":"Zürich","www":"http://www.unizh.ch/leben/kinder/uki","Adresse":"Winterthurerstrasse 190","PLZ":"8057","Tel":"078 896 17 27","Name":"Kita UKI, Universitäts-Kinderkrippe Zürich Irchel"}}
,{"type":"Feature","geometry":{"type":"Point","coordinates":[8.48286879702615,47.3973908716423]},"properties":{"Ort":"Zürich","www":"http://www.stadt-zuerich.ch/kinderbetreuung","Adresse":"Bändlistrasse 68","PLZ":"8064","Tel":"044 432 25 66","Name":"Kita Wirbelwind Bändli"}}
,{"type":"Feature","geometry":{"type":"Point","coordinates":[8.56266169123979,47.3661663105638]},"properties":{"Ort":"Zürich","www":"http://www.stadt-zuerich.ch/kinderbetreuung","Adresse":"Veilchenstrasse 2","PLZ":"8032","Tel":"044 251 81 05","Name":"Kita Wurzelchind"}}
,{"type":"Feature","geometry":{"type":"Point","coordinates":[8.55026338295372,47.3608083489609]},"properties":{"Ort":"Zürich","www":"http://www.littlestardayschool.com","Adresse":"Dufourstrasse 71","PLZ":"8008","Tel":"043 377 54 00","Name":"Little Star Day School Dufourstrasse"}}
,{"type":"Feature","geometry":{"type":"Point","coordinates":[8.57289859228174,47.360066295821]},"properties":{"Ort":"Zürich","www":"http://www.wakita.ch","Adresse":"Bergheimstrasse 22","PLZ":"8032","Tel":"044 421 12 13","Name":"WaKiTa"}}
,{"type":"Feature","geometry":{"type":"Point","coordinates":[8.56115195327288,47.3623760328358]},"properties":{"Ort":"Zürich","www":"http://www.alilec.ch","Adresse":"Hegibachstrasse 9","PLZ":"8032","Tel":"044 422 90 47","Name":"Kita ALILEC Tucan"}}
,{"type":"Feature","geometry":{"type":"Point","coordinates":[8.51346123609953,47.3771145359386]},"properties":{"Ort":"Zürich","www":"http://www.kidischloss.ch","Adresse":"Badenerstrasse 296","PLZ":"8004","Tel":"078 880 83 21","Name":"Kidischloss"}}
,{"type":"Feature","geometry":{"type":"Point","coordinates":[8.54958089743191,47.3623620996764]},"properties":{"Ort":"Zürich","www":"http://www.firststep.ch","Adresse":"Färberstrasse 31","PLZ":"8008","Tel":"043 343 92 43","Name":"The First Step"}}
,{"type":"Feature","geometry":{"type":"Point","coordinates":[8.4907747173658,47.3751374319709]},"properties":{"Ort":"Zürich","www":"http://www.krippe-schmetterling.ch","Adresse":"Fellenbergstrasse 289","PLZ":"8047","Tel":"044 492 60 02","Name":"Kita Schmetterling 3"}}
,{"type":"Feature","geometry":{"type":"Point","coordinates":[8.55905996022351,47.4032974404118]},"properties":{"Ort":"Zürich","www":"http://www.waldkindergarten-zh.ch","Adresse":"Hubenstrasse 20","PLZ":"8057","Tel":"043 321 54 08","Name":"Waldkindergarten Troll, Gruppe Zürichberg Waldgarten"}}
,{"type":"Feature","geometry":{"type":"Point","coordinates":[8.54193853067828,47.3948089374287]},"properties":{"Ort":"Zürich","www":"http://www.stadt-zuerich.ch/content/sd/de/index/kinderbetreuung","Adresse":"Scheuchzerstrasse 189","PLZ":"8057","Tel":"044 361 06 06","Name":"Kita Chinderhuus Bärätatze"}}
,{"type":"Feature","geometry":{"type":"Point","coordinates":[8.51770432030639,47.3598759815763]},"properties":{"Ort":"Zürich","www":"http://www.globegarden.ch/","Adresse":"Uetlibergstrasse 123","PLZ":"8045","Tel":"044 536 55 32","Name":"Globegarden (Uetlibergstrasse)"}}
,{"type":"Feature","geometry":{"type":"Point","coordinates":[8.50761922505964,47.3804516793088]},"properties":{"Ort":"Zürich","www":"http://www.guexi.ch","Adresse":"Norastrasse 7","PLZ":"8004","Tel":"044 401 20 20","Name":"Güxi Albisriederplatz"}}
,{"type":"Feature","geometry":{"type":"Point","coordinates":[8.5313984085248,47.3827567181735]},"properties":{"Ort":"Zürich","www":"http://www.gfz-zh.ch","Adresse":"Josefstrasse 76","PLZ":"8005","Tel":"044 271 70 80","Name":"GFZ Kita 5"}}
,{"type":"Feature","geometry":{"type":"Point","coordinates":[8.57104654518404,47.4062299183437]},"properties":{"Ort":"Zürich","www":"http://www.stadt-zuerich.ch/kitas","Adresse":"Aprikosenstrasse 12","PLZ":"8051","Tel":"043 299 32 00","Name":"Kita Schwamendingen"}}
,{"type":"Feature","geometry":{"type":"Point","coordinates":[8.53663882980585,47.3703476613595]},"properties":{"Ort":"Zürich","www":"http://www.globegarden.org","Adresse":"Talacker 23","PLZ":"8001","Tel":"043 497 22 77","Name":"Globegarden (Talacker)"}}
,{"type":"Feature","geometry":{"type":"Point","coordinates":[8.499946573721,47.4254076729979]},"properties":{"Ort":"Zürich","www":"http://www.stadt-zuerich.ch/kinderbetreuung","Adresse":"Mühlackerstrasse 104","PLZ":"8046","Tel":"078 697 00 11","Name":"Kinderkrippe Dino"}}
,{"type":"Feature","geometry":{"type":"Point","coordinates":[8.57515467236345,47.4043995481716]},"properties":{"Ort":"Zürich","www":"http://www.stadt-zuerich.ch/kinderbetreuung","Adresse":"Winterthurerstrasse 544","PLZ":"8051","Tel":"044 322 01 55","Name":"Kinderkrippe s'Nuscheli"}}
,{"type":"Feature","geometry":{"type":"Point","coordinates":[8.56329900335134,47.371899038333]},"properties":{"Ort":"Zürich","www":"http://www.kindervilla.ch","Adresse":"Dolderstrasse 71","PLZ":"8032","Tel":"044 252 24 49","Name":"Kindervilla  Ali Baba"}}
,{"type":"Feature","geometry":{"type":"Point","coordinates":[8.55612943881319,47.3798214869108]},"properties":{"Ort":"Zürich","www":"http://www.bethanien.ch/content/kita-bethanien-fluntern-betreuungsm%C3%B6glichkeiten","Adresse":"Herzogstrasse 2","PLZ":"8044","Tel":"044 262 96 56","Name":"Kita Bethanien Fluntern"}}
,{"type":"Feature","geometry":{"type":"Point","coordinates":[8.57202348953761,47.4041964339952]},"properties":{"Ort":"Zürich","www":"http://www.guexi.ch","Adresse":"Winterthurerstrasse 525","PLZ":"8051","Tel":"044 321 10 10","Name":"Kita Güxi Poscht"}}
,{"type":"Feature","geometry":{"type":"Point","coordinates":[8.50941875052312,47.4179263704321]},"properties":{"Ort":"Zürich","www":"http://www.stadt-zuerich.ch/kinderbetreuung","Adresse":"Wehntalerstrasse 506","PLZ":"8046","Tel":"044 372 07 84","Name":"Kita In Böden"}}
,{"type":"Feature","geometry":{"type":"Point","coordinates":[8.51141399656333,47.3827821940513]},"properties":{"Ort":"Zürich","www":"http://www.childcare.ch","Adresse":"Hohlstrasse 301","PLZ":"8004","Tel":"044 254 60 50","Name":"Kita Kids & Co Hohlstrasse"}}
,{"type":"Feature","geometry":{"type":"Point","coordinates":[8.54686118351144,47.4015621150672]},"properties":{"Ort":"Zürich","www":"http://www.kihz.ch","Adresse":"Bülachhof 4","PLZ":"8057","Tel":"043 333 49 80","Name":"Kita kihz Bülachhof"}}
,{"type":"Feature","geometry":{"type":"Point","coordinates":[8.53505119549053,47.3330866599458]},"properties":{"Ort":"Zürich","www":"","Adresse":"Nidelbadstrasse 79","PLZ":"8038","Tel":"043 243 19 61","Name":"HaZoKita"}}
,{"type":"Feature","geometry":{"type":"Point","coordinates":[8.54128974694212,47.3353210095687]},"properties":{"Ort":"Zürich","www":"http://www.lipschule.ch","Adresse":"Seestrasse 561","PLZ":"8038","Tel":"044 480 08 80","Name":"Kita Lipschule"}}
,{"type":"Feature","geometry":{"type":"Point","coordinates":[8.53120353539381,47.3693827636148]},"properties":{"Ort":"Zürich","www":"http://www.stadt-zuerich.ch/kinderbetreuung","Adresse":"Gerechtigkeitsgasse 16","PLZ":"8002","Tel":"044 201 48 80","Name":"Kita Maon Jom"}}
,{"type":"Feature","geometry":{"type":"Point","coordinates":[8.59401725961713,47.3999218066027]},"properties":{"Ort":"Zürich","www":"http://www.stadt-zuerich.ch/kinderbetreuung","Adresse":"Helen-Keller-Strasse 12","PLZ":"8051","Tel":"044 325 55 86","Name":"Kita Mattenhof"}}
,{"type":"Feature","geometry":{"type":"Point","coordinates":[8.53858765681254,47.3871410669837]},"properties":{"Ort":"Zürich","www":"http://www.kita-tandem.ch/","Adresse":"Gaugerstrasse 3","PLZ":"8006","Tel":"043 810 09 50","Name":"Kita Tandem Stampfenbach"}}
,{"type":"Feature","geometry":{"type":"Point","coordinates":[8.50238903110388,47.3997223966656]},"properties":{"Ort":"Zürich","www":"http://www.schiguna.ch","Adresse":"Ackersteinstrasse 161","PLZ":"8006","Tel":"044 361 11 68","Name":"Kita Schiguna"}}
,{"type":"Feature","geometry":{"type":"Point","coordinates":[8.4967317050616,47.3730411068067]},"properties":{"Ort":"Zürich","www":"http://www.krippe-schmetterling.ch","Adresse":"Langgrütstrasse 88a","PLZ":"8047","Tel":"044 492 60 03","Name":"Kita Schmetterling"}}
,{"type":"Feature","geometry":{"type":"Point","coordinates":[8.5473102315869,47.3792228837174]},"properties":{"Ort":"Zürich","www":"http://www.stadt-zuerich.ch/kinderbetreuung","Adresse":"Sonneggstrasse 16","PLZ":"8006","Tel":"044 255 57 39","Name":"Kita Unispital"}}
,{"type":"Feature","geometry":{"type":"Point","coordinates":[8.51513377038304,47.3754885194918]},"properties":{"Ort":"Zürich","www":"http://www.zyp.ch","Adresse":"Zentralstrasse 140","PLZ":"8003","Tel":"043 321 81 79","Name":"Kita Zypresse"}}
,{"type":"Feature","geometry":{"type":"Point","coordinates":[8.52629374705958,47.3630156013816]},"properties":{"Ort":"Zürich","www":"","Adresse":"Brandschenkestrasse 172","PLZ":"8002","Tel":"043 243 09 81","Name":"MIC Montessori Infant Community"}}
,{"type":"Feature","geometry":{"type":"Point","coordinates":[8.4955944053362,47.3811200591867]},"properties":{"Ort":"Zürich","www":"http://www.kk-gummibaerli.ch","Adresse":"Anemonenstrasse 40","PLZ":"8047","Tel":"043 311 61 03","Name":"Kinderkrippe Gummibärli Anemonenstrasse"}}
,{"type":"Feature","geometry":{"type":"Point","coordinates":[8.48525196510354,47.3771125495075]},"properties":{"Ort":"Zürich","www":"http://www.krippe-schmetterling.ch","Adresse":"Bachwiesenstrasse 117","PLZ":"8047","Tel":"044 492 60 02","Name":"Kita Schmetterling 2"}}
,{"type":"Feature","geometry":{"type":"Point","coordinates":[8.59153066847521,47.3591081234668]},"properties":{"Ort":"Zürich","www":"http://www.littlefrogs.ch","Adresse":"Witikonerstrasse 365","PLZ":"8053","Tel":"043 499 88 32","Name":"Little Frogs Daycare"}}
,{"type":"Feature","geometry":{"type":"Point","coordinates":[8.58805459039477,47.357523640977]},"properties":{"Ort":"Zürich","www":"http://www.montessori-zaubermond.ch","Adresse":"Carl-Spitteler-Strasse 6","PLZ":"8053","Tel":"044 422 58 86","Name":"Montessori Kinderhaus Zaubermond"}}
,{"type":"Feature","geometry":{"type":"Point","coordinates":[8.53310863746045,47.3647951799501]},"properties":{"Ort":"Zürich","www":"http://www.bambis.ch","Adresse":"Gotthardstrasse 55","PLZ":"8002","Tel":"044 201 67 18","Name":"Kita Bambis Chinderland"}}
,{"type":"Feature","geometry":{"type":"Point","coordinates":[8.54272337456285,47.3860221850037]},"properties":{"Ort":"Zürich","www":"http://www.kinderkrippe-zauberblumen.ch","Adresse":"Granitweg 6","PLZ":"8006","Tel":"044 350 23 15","Name":"Kinderkrippe Zauberblumen"}}
,{"type":"Feature","geometry":{"type":"Point","coordinates":[8.53261428491973,47.3452263604356]},"properties":{"Ort":"Zürich","www":"http://www.kita-takatukaland.com","Adresse":"Renggerstrasse 49","PLZ":"8038","Tel":"079 276 88 29","Name":"Kita Taka Tuka Land"}}
,{"type":"Feature","geometry":{"type":"Point","coordinates":[8.52679911067263,47.3345950113717]},"properties":{"Ort":"Zürich","www":"http://www.stadt-zuerich.ch/kinderbetreuung","Adresse":"Paradiesstrasse 45","PLZ":"8038","Tel":"043 495 11 27","Name":"Kita Paradies"}}
,{"type":"Feature","geometry":{"type":"Point","coordinates":[8.50903530322571,47.3902881791711]},"properties":{"Ort":"Zürich","www":"http://www.stadt-zuerich.ch/kinderbetreuung","Adresse":"Pfingstweidstrasse 101","PLZ":"8005","Tel":"044 278 54 66","Name":"Kita Wirbelschloss Migros"}}
,{"type":"Feature","geometry":{"type":"Point","coordinates":[8.59659662365647,47.3540380547323]},"properties":{"Ort":"Zürich","www":"http://www.stadt-zuerich.ch/kinderbetreuung","Adresse":"Schäracher 16","PLZ":"8053","Tel":"044 381 84 00","Name":"Chinderhuus Jota"}}
,{"type":"Feature","geometry":{"type":"Point","coordinates":[8.54762984969571,47.4041183424733]},"properties":{"Ort":"Zürich","www":"http://www.tsba.ch/","Adresse":"Schaffhauserstrasse 265","PLZ":"8057","Tel":"044 310 18 83","Name":"Kinderkrippe Blüemlisalp, Tages- und Vorschule nach Montess"}}
,{"type":"Feature","geometry":{"type":"Point","coordinates":[8.48513288381864,47.3905881237203]},"properties":{"Ort":"Zürich","www":"http://www.kk-gummibaerli.ch","Adresse":"Bachmattweg 20","PLZ":"8048","Tel":"079 678 12 44","Name":"Kinderkrippe Gummibärli"}}
,{"type":"Feature","geometry":{"type":"Point","coordinates":[8.53075877056819,47.3825648759701]},"properties":{"Ort":"Zürich","www":"http://www.zwergenburg-zh.ch","Adresse":"Mattengasse 22","PLZ":"8005","Tel":"043 366 81 23","Name":"Kindertreff Zwergenburg Mattengasse"}}
,{"type":"Feature","geometry":{"type":"Point","coordinates":[8.49153938501877,47.3736282939079]},"properties":{"Ort":"Zürich","www":"http://www.kinderkrippe-albisrieden.ch","Adresse":"Langgrütweg 21","PLZ":"8047","Tel":"044 406 87 87","Name":"Kita Albisrieden"}}
,{"type":"Feature","geometry":{"type":"Point","coordinates":[8.51901858172978,47.372465844885]},"properties":{"Ort":"Zürich","www":"http://www.stadt-zuerich.ch/kinderbetreuung","Adresse":"Stationsstrasse 22","PLZ":"8003","Tel":"044 461 88 00","Name":"Kita Bambi Stationsstrasse"}}
,{"type":"Feature","geometry":{"type":"Point","coordinates":[8.53311707265765,47.3645612262337]},"properties":{"Ort":"Zürich","www":"http://www.bambis.ch","Adresse":"Alfred-Escher-Strasse 17","PLZ":"8002","Tel":"044 201 67 18","Name":"Kita Bambis Chinderland 2"}}
,{"type":"Feature","geometry":{"type":"Point","coordinates":[8.54947464850618,47.3833128674904]},"properties":{"Ort":"Zürich","www":"http://www.kinderkrippe-zauberblumen.ch","Adresse":"Gladbachstrasse 2","PLZ":"8006","Tel":"043 255 09 75","Name":"Kinderkrippe Zauberblumen"}}
,{"type":"Feature","geometry":{"type":"Point","coordinates":[8.5605366359309,47.361446515181]},"properties":{"Ort":"Zürich","www":"http://www.gate24.ch/42814","Adresse":"Drahtzugstrasse 4","PLZ":"8008","Tel":"044 380 65 01","Name":"Kita Kids 2 Skool - Playschool For Kindergartner"}}
,{"type":"Feature","geometry":{"type":"Point","coordinates":[8.54645440810261,47.3820105951966]},"properties":{"Ort":"Zürich","www":"http://www.kikri.ethz.ch","Adresse":"Nelkenstrasse 11","PLZ":"8006","Tel":"044 632 48 38","Name":"Kita KIKRI ETH-Zentrum"}}
,{"type":"Feature","geometry":{"type":"Point","coordinates":[8.51102050107796,47.3645527842577]},"properties":{"Ort":"Zürich","www":"http://www.krippekinderparadies.ch","Adresse":"Sieberstrasse 16","PLZ":"8055","Tel":"044 960 94 41","Name":"Kita Kinderparadies Sieberstrasse"}}
,{"type":"Feature","geometry":{"type":"Point","coordinates":[8.47628779077864,47.387348862144]},"properties":{"Ort":"Zürich","www":"http://www.stadt-zuerich.ch/kinderbetreuung","Adresse":"Eugen-Huber-Strasse 97","PLZ":"8048","Tel":"044 431 40 30","Name":"Kita Luna"}}
,{"type":"Feature","geometry":{"type":"Point","coordinates":[8.54252791710673,47.4149342887942]},"properties":{"Ort":"Zürich","www":"http://www.kinderkrippe-mariakaefer.ch","Adresse":"Binzmühlestrasse 78","PLZ":"8050","Tel":"044 492 90 45","Name":"Kita Mariakäfer 2"}}
,{"type":"Feature","geometry":{"type":"Point","coordinates":[8.52508650626628,47.3836708129309]},"properties":{"Ort":"Zürich","www":"http://www.stadt-zuerich.ch/kinderbetreuung","Adresse":"Neugasse 99","PLZ":"8005","Tel":"044 271 06 29","Name":"Kita Minimuus"}}
,{"type":"Feature","geometry":{"type":"Point","coordinates":[8.57386258415612,47.3562248380708]},"properties":{"Ort":"Zürich","www":"http://www.stadt-zuerich.ch/kinderbetreuung","Adresse":"Forchstrasse 295","PLZ":"8008","Tel":"044 980 25 19","Name":"Kita Moonlight"}}
,{"type":"Feature","geometry":{"type":"Point","coordinates":[8.51392908066784,47.380752892001]},"properties":{"Ort":"Zürich","www":"http://www.stadt-zuerich.ch/kinderbetreuung","Adresse":"Hirzelstrasse 20","PLZ":"8004","Tel":"044 405 20 00","Name":"Kita Sunneblueme"}}
,{"type":"Feature","geometry":{"type":"Point","coordinates":[8.477225728522,47.413030106267]},"properties":{"Ort":"Zürich","www":"http://www.tabaluga-kinderkrippe.ch","Adresse":"Rütihofstrasse 55","PLZ":"8049","Tel":"044 341 72 22","Name":"Kita Tabaluga"}}
,{"type":"Feature","geometry":{"type":"Point","coordinates":[8.53767231423361,47.4133884590709]},"properties":{"Ort":"Zürich","www":"http://www.kinderhaus-seebach.org","Adresse":"Birchstrasse 183","PLZ":"8050","Tel":"","Name":"Kinderhaus im Birch"}}
,{"type":"Feature","geometry":{"type":"Point","coordinates":[8.56987384385316,47.4140221361882]},"properties":{"Ort":"Zürich","www":"http://www.villa-kunterbunt.ch/","Adresse":"Auzelg 47","PLZ":"8050","Tel":"044 321 21 10","Name":"Villa Kunterbunt Auzelg"}}
,{"type":"Feature","geometry":{"type":"Point","coordinates":[8.53036630255574,47.336270410091]},"properties":{"Ort":"Zürich","www":"http://www.ameisenburg.ch","Adresse":"Albisstrasse 129","PLZ":"8038","Tel":"043 534 69 25","Name":"Kinderkrippe Ameisenburg"}}
,{"type":"Feature","geometry":{"type":"Point","coordinates":[8.58332260316017,47.4065407086994]},"properties":{"Ort":"Zürich","www":"http://www.kita-zauberburg.ch","Adresse":"Winterthurerstrasse 689","PLZ":"8051","Tel":"043 321 64 26","Name":"Kita Zauberburg"}}
,{"type":"Feature","geometry":{"type":"Point","coordinates":[8.55274476041425,47.3604515933797]},"properties":{"Ort":"Zürich","www":"","Adresse":"Feldeggstrasse 52","PLZ":"8008","Tel":"079 937 84 36","Name":"Kita Feldegger Stadtzwerge"}}
,{"type":"Feature","geometry":{"type":"Point","coordinates":[8.52554909341673,47.3777836350359]},"properties":{"Ort":"Zürich","www":"http://www.playground-edu.ch","Adresse":"Hohlstrasse 52","PLZ":"8004","Tel":"043 817 24 93","Name":"Kita playground education"}}
,{"type":"Feature","geometry":{"type":"Point","coordinates":[8.55566459994866,47.3658564801599]},"properties":{"Ort":"Zürich","www":"http://www.stadt-zuerich.ch/kitas","Adresse":"Klosbachstrasse 25","PLZ":"8032","Tel":"044 251 47 04","Name":"Kinderhaus Artergut"}}
,{"type":"Feature","geometry":{"type":"Point","coordinates":[8.52299472299731,47.3596374901973]},"properties":{"Ort":"Zürich","www":"http://www.littlestardayschool.com","Adresse":"Giesshübelstrasse 15","PLZ":"8045","Tel":"043 377 54 00","Name":"LIttle Star Day School (Giesshübelstrasse)"}}
,{"type":"Feature","geometry":{"type":"Point","coordinates":[8.53974618157604,47.3855198943958]},"properties":{"Ort":"Zürich","www":"http://www.dayschool.ch","Adresse":"Stampfenbachstrasse 131","PLZ":"8006","Tel":"077 430 99 13","Name":"Dreisprachige Tagesschule d.e.f"}}
,{"type":"Feature","geometry":{"type":"Point","coordinates":[8.55755287005829,47.3542702967649]},"properties":{"Ort":"Zürich","www":"http://www.globegarden.org","Adresse":"Münchhaldenstrasse 15","PLZ":"8008","Tel":"043 344 58 02","Name":"Globegarden (Münchhaldenstrasse)"}}
,{"type":"Feature","geometry":{"type":"Point","coordinates":[8.53348166528391,47.3629746241633]},"properties":{"Ort":"Zürich","www":"http://www.globegarden.ch/","Adresse":"Alfred-Escher-Strasse 34","PLZ":"8002","Tel":"044 536 55 32","Name":"Globegarden (Alfred-Escher-Strasse)"}}
,{"type":"Feature","geometry":{"type":"Point","coordinates":[8.54936480254802,47.4231351628709]},"properties":{"Ort":"Zürich","www":"http://www.gfz-zh.ch","Adresse":"Glatttalstrasse 11","PLZ":"8052","Tel":"044 301 31 93","Name":"GFZ Kita 11a"}}
,{"type":"Feature","geometry":{"type":"Point","coordinates":[8.49407069106731,47.3703939336129]},"properties":{"Ort":"Zürich","www":"http://www.kinderkrippe-bambi.ch","Adresse":"Wydäckerring 52","PLZ":"8047","Tel":"044 431 13 65","Name":"Kinderkrippe Bambi Albisrieden"}}
,{"type":"Feature","geometry":{"type":"Point","coordinates":[8.50632559265558,47.4242694914921]},"properties":{"Ort":"Zürich","www":"http://www.grow2gether.ch","Adresse":"Alte Mühlackerstrasse 30","PLZ":"8046","Tel":"043 535 84 10","Name":"Kinderkrippe Dinolina"}}
,{"type":"Feature","geometry":{"type":"Point","coordinates":[8.56895308506794,47.3631633984546]},"properties":{"Ort":"Zürich","www":"http://www.kindervilla-lummerland.ch","Adresse":"Biberlinstrasse 16","PLZ":"8032","Tel":"043 499 98 28","Name":"Kindervilla Lummerland"}}
,{"type":"Feature","geometry":{"type":"Point","coordinates":[8.51875367127979,47.35743747648]},"properties":{"Ort":"Zürich","www":"http://www.childcare.ch","Adresse":"Wannerstrasse 13","PLZ":"8045","Tel":"044 254 60 50","Name":"Kids & Co Wannerstrasse"}}
,{"type":"Feature","geometry":{"type":"Point","coordinates":[8.54493252266897,47.3699446903691]},"properties":{"Ort":"Zürich","www":"http://www.gfz-zh.ch","Adresse":"Neustadtgasse 11","PLZ":"8001","Tel":"044 252 12 62","Name":"GFZ Kita 1"}}
,{"type":"Feature","geometry":{"type":"Point","coordinates":[8.54654720884942,47.4297645242875]},"properties":{"Ort":"Zürich","www":"http://www.gfz-zh.ch","Adresse":"Eichrainstrasse 11","PLZ":"8052","Tel":"043 300 91 60","Name":"GFZ Kita 11"}}
,{"type":"Feature","geometry":{"type":"Point","coordinates":[8.53028585847207,47.3963228929045]},"properties":{"Ort":"Zürich","www":"http://www.ringelrosen.ch","Adresse":"Scheffelstrasse 46","PLZ":"8037","Tel":"044 350 61 66","Name":"Kinderhaus Ringelrosen Scheffelstrasse"}}
,{"type":"Feature","geometry":{"type":"Point","coordinates":[8.52758113103977,47.3670602685011]},"properties":{"Ort":"Zürich","www":"http://www.stadt-zuerich.ch/kinderbetreuung","Adresse":"Brandschenkestrasse 72","PLZ":"8002","Tel":"043 344 52 27","Name":"Kinderkrippe Delfin GmbH"}}
,{"type":"Feature","geometry":{"type":"Point","coordinates":[8.52402446623847,47.3750994309059]},"properties":{"Ort":"Zürich","www":"http://www.kita4you.ch","Adresse":"Wengistrasse 2a","PLZ":"8004","Tel":"077 408 24 33","Name":"Kindertagesstätte Kita4you"}}
,{"type":"Feature","geometry":{"type":"Point","coordinates":[8.52397843681635,47.3565878811082]},"properties":{"Ort":"Zürich","www":"http://www.littlestardayschool.com","Adresse":"Büttenweg 16","PLZ":"8045","Tel":"043 377 54 00","Name":"Little Star Day School (Büttenweg)"}}
,{"type":"Feature","geometry":{"type":"Point","coordinates":[8.55899862694038,47.3613355321017]},"properties":{"Ort":"Zürich","www":"http://www.stadt-zuerich.ch/kinderbetreuung","Adresse":"Neumünsterstrasse 21","PLZ":"8008","Tel":"044 422 90 47","Name":"Kita ALILEC"}}
,{"type":"Feature","geometry":{"type":"Point","coordinates":[8.51043065426239,47.3681383150554]},"properties":{"Ort":"Zürich","www":"http://www.stadt-zuerich.ch/kinderbetreuung","Adresse":"Höfliweg 1","PLZ":"8055","Tel":"043 333 12 00","Name":"Kita Bambi Höfliweg"}}
,{"type":"Feature","geometry":{"type":"Point","coordinates":[8.55539848134872,47.3582131111539]},"properties":{"Ort":"Zürich","www":"http://www.LittleFrogs.ch","Adresse":"Riesbachstrasse 61","PLZ":"8008","Tel":"043 344 83 35","Name":"Kita Little Frog"}}
,{"type":"Feature","geometry":{"type":"Point","coordinates":[8.56030356544919,47.364210318829]},"properties":{"Ort":"Zürich","www":"http://www.vorkindergarten-purzelbaum.ch","Adresse":"Böcklinstrasse 17","PLZ":"8032","Tel":"044 383 22 05","Name":"Vorkindergarten Puzelbaum - Kinderkrippe"}}
,{"type":"Feature","geometry":{"type":"Point","coordinates":[8.5557703602496,47.3677444465906]},"properties":{"Ort":"Zürich","www":"http://www.colibri-kinderprojekte.ch","Adresse":"Merkurstrasse 56","PLZ":"8032","Tel":"044 261 73 33","Name":"Kita Colibri Merkurstrasse"}}
,{"type":"Feature","geometry":{"type":"Point","coordinates":[8.55631032892655,47.3631876427561]},"properties":{"Ort":"Zürich","www":"http://www.dinsle.ch","Adresse":"Signaustrasse 7","PLZ":"8008","Tel":"043 443 00 30","Name":"Kinderkrippe Vorkindergarten Montessori-Schule dinsle"}}
,{"type":"Feature","geometry":{"type":"Point","coordinates":[8.5053081804386,47.360935719636]},"properties":{"Ort":"Zürich","www":"http://www.friesi-krippe.ch","Adresse":"Borrweg 76","PLZ":"8055","Tel":"043 960 25 72","Name":"Kita Friesenberg"}}
,{"type":"Feature","geometry":{"type":"Point","coordinates":[8.5333737989237,47.4099211998997]},"properties":{"Ort":"Zürich","www":"http://www.kinderkrippe-goldraege.ch","Adresse":"Goldregenweg 30","PLZ":"8050","Tel":"043 288 59 88","Name":"Kita Goldräge"}}
,{"type":"Feature","geometry":{"type":"Point","coordinates":[8.5738231072844,47.4040888136899]},"properties":{"Ort":"Zürich","www":"http://www.guexi.ch","Adresse":"Dübendorfstrasse 2","PLZ":"8051","Tel":"043 321 51 57","Name":"Kita Güxi"}}
,{"type":"Feature","geometry":{"type":"Point","coordinates":[8.56342983023657,47.406322314052]},"properties":{"Ort":"Zürich","www":"http://www.stadt-zuerich.ch/kinderbetreuung","Adresse":"Herbstweg 88","PLZ":"8050","Tel":"044 321 63 37","Name":"Kita Herbstweg"}}
,{"type":"Feature","geometry":{"type":"Point","coordinates":[8.50704754954606,47.402126061909]},"properties":{"Ort":"Zürich","www":"http://www.stadt-zuerich.ch/kinderbetreuung","Adresse":"Lebristweg 45","PLZ":"8049","Tel":"044 341 02 78","Name":"Kita Hönggerberg (Chindsgi)"}}
,{"type":"Feature","geometry":{"type":"Point","coordinates":[8.48801422178995,47.3815399985435]},"properties":{"Ort":"Zürich","www":"http://www.kibiz.ch","Adresse":"Rautistrasse 77","PLZ":"8048","Tel":"044 400 12 86","Name":"Kita KiBiZ Sternli"}}
,{"type":"Feature","geometry":{"type":"Point","coordinates":[8.51533889041718,47.3672920652967]},"properties":{"Ort":"Zürich","www":"http://www.krippekinderparadies.ch","Adresse":"Bühlstrasse 19","PLZ":"8055","Tel":"044 451 25 21","Name":"Kita Kinderparadies Bühlstrasse"}}
,{"type":"Feature","geometry":{"type":"Point","coordinates":[8.51534190238346,47.3929910567687]},"properties":{"Ort":"Zürich","www":"http://www.stadt-zuerich.ch/kinderbetreuung","Adresse":"Hardturmstrasse 120","PLZ":"8005","Tel":"044 271 72 22","Name":"Kita Limmatwest"}}
,{"type":"Feature","geometry":{"type":"Point","coordinates":[8.5296526752623,47.3751183449372]},"properties":{"Ort":"Zürich","www":"http://www.stadt-zuerich.ch/kinderbetreuung","Adresse":"Müllerstrasse 43","PLZ":"8004","Tel":"043 243 89 85","Name":"Kita Lus do Sol"}}
,{"type":"Feature","geometry":{"type":"Point","coordinates":[8.5535555392157,47.4068048143209]},"properties":{"Ort":"Zürich","www":"http://www.bethanien.ch/content/kita-bethanien-oerlikon-betreuungsm%C3%B6glichkeiten","Adresse":"Magdalenenstrasse 37","PLZ":"8050","Tel":"044 311 81 63","Name":"Kita Bethanien Oerlikon"}}
,{"type":"Feature","geometry":{"type":"Point","coordinates":[8.54540916152315,47.3877955083975]},"properties":{"Ort":"Zürich","www":"http://www.kita-riedtli.ch","Adresse":"Stolzestrasse 23","PLZ":"8006","Tel":"044 361 92 44","Name":"Kita Riedtli"}}
,{"type":"Feature","geometry":{"type":"Point","coordinates":[8.5293576292481,47.3962776914028]},"properties":{"Ort":"Zürich","www":"http://www.ringelrosen.ch","Adresse":"Rosengartenstrasse 61","PLZ":"8037","Tel":"044 350 61 66","Name":"Kita Ringelrosen"}}
,{"type":"Feature","geometry":{"type":"Point","coordinates":[8.53966412542792,47.4126192460439]},"properties":{"Ort":"Zürich","www":"http://www.grow2gether.ch","Adresse":"Sophie-Taeuber-Strasse 8","PLZ":"8050","Tel":"043 301 18 66","Name":"Kita Schnappi Aussengruppe"}}
,{"type":"Feature","geometry":{"type":"Point","coordinates":[8.52310311182667,47.3870806196651]},"properties":{"Ort":"Zürich","www":"http://www.ortefuerkinder.ch","Adresse":"Josefstrasse 212","PLZ":"8005","Tel":"044 440 01 80","Name":"Kita Regenbogen"}}
,{"type":"Feature","geometry":{"type":"Point","coordinates":[8.53049605720644,47.3697492637952]},"properties":{"Ort":"Zürich","www":"http://www.stadt-zuerich.ch/kinderbetreuung","Adresse":"Sihlamtsstrasse 16","PLZ":"8001","Tel":"044 201 59 19","Name":"Kita Selnau"}}
,{"type":"Feature","geometry":{"type":"Point","coordinates":[8.5637814348428,47.36276419234]},"properties":{"Ort":"Zürich","www":"http://www.stadt-zuerich.ch/kinderbetreuung","Adresse":"Freiestrasse 175","PLZ":"8032","Tel":"043 500 10 30","Name":"Kita tandem preschool"}}
,{"type":"Feature","geometry":{"type":"Point","coordinates":[8.48263276576522,47.3880561692876]},"properties":{"Ort":"Zürich","www":"http://www.kita-wunderland.ch","Adresse":"Feldblumenstrasse 10","PLZ":"8048","Tel":"044 431 97 80","Name":"Kita Wunderland"}}
,{"type":"Feature","geometry":{"type":"Point","coordinates":[8.55683354560546,47.4052903897244]},"properties":{"Ort":"Zürich","www":"http://www.krippekinderparadies.ch","Adresse":"Magdalenenstrasse 74","PLZ":"8050","Tel":"044 321 05 20","Name":"Kita Kinderparadies Magdalenenstrasse"}}
,{"type":"Feature","geometry":{"type":"Point","coordinates":[8.50227531597041,47.3655152368173]},"properties":{"Ort":"Zürich","www":"http://www.waldkindergarten-zh.ch","Adresse":"Schweighofstrasse 357","PLZ":"8055","Tel":"043 321 54 08","Name":"Waldkindergarten Troll: Gruppe: Uetliberg/Schweighof"}}
,{"type":"Feature","geometry":{"type":"Point","coordinates":[8.51371119596543,47.3778315114796]},"properties":{"Ort":"Zürich","www":"http://www.guexi.ch","Adresse":"Zypressenstrasse 60","PLZ":"8004","Tel":"043 266 62 62","Name":"Kita Güxi Zypressenstrasse"}}
,{"type":"Feature","geometry":{"type":"Point","coordinates":[8.51490287145711,47.3647145352054]},"properties":{"Ort":"Zürich","www":"http://www.kita-tandem.ch","Adresse":"Bühlstrasse 45b","PLZ":"8055","Tel":"043 317 97 10","Name":"Kita Tandem Binz 2"}}
,{"type":"Feature","geometry":{"type":"Point","coordinates":[8.52464723825561,47.3725209649035]},"properties":{"Ort":"Zürich","www":"http://www.kita-tandem.ch/","Adresse":"Zweierstrasse 49","PLZ":"8004","Tel":"043 317 97 10","Name":"Kita Tandem Stauffacher 2"}}
,{"type":"Feature","geometry":{"type":"Point","coordinates":[8.5145079947996,47.4159721433935]},"properties":{"Ort":"Zürich","www":"http://www.krippenverein.ch","Adresse":"Neuwiesenstrasse 16","PLZ":"8046","Tel":"044 371 17 00","Name":"Chinderhuus Kaya"}}
,{"type":"Feature","geometry":{"type":"Point","coordinates":[8.58578431398264,47.3584457508175]},"properties":{"Ort":"Zürich","www":"http://www.kitabluemli.ch","Adresse":"Witikonerstrasse 285","PLZ":"8053","Tel":"079 756 20 28","Name":"Kita Blüemli 2 Witikonerstrasse"}}
,{"type":"Feature","geometry":{"type":"Point","coordinates":[8.55707065641624,47.3634591280703]},"properties":{"Ort":"Zürich","www":"http://www.dinsle.ch","Adresse":"Forchstrasse 40","PLZ":"8008","Tel":"043 443 00 30","Name":"Kinderkrippe Vorkindergarten 2 Montessori-Schule dinsle"}}
,{"type":"Feature","geometry":{"type":"Point","coordinates":[8.55728038297817,47.356422814348]},"properties":{"Ort":"Zürich","www":"http://www.thefirststep.ch","Adresse":"Wildbachstrasse 44","PLZ":"8008","Tel":"043 343 92 43","Name":"The First Step"}}
,{"type":"Feature","geometry":{"type":"Point","coordinates":[8.54532223171679,47.3874365353932]},"properties":{"Ort":"Zürich","www":"http://www.kita-riedtli.ch","Adresse":"Riedtlistrasse 71","PLZ":"8006","Tel":"044 443 61 92","Name":"Kita Riedtli 2"}}
,{"type":"Feature","geometry":{"type":"Point","coordinates":[8.58578431398264,47.3584457508175]},"properties":{"Ort":"Zürich","www":"http://www.kitabluemli.ch","Adresse":"Witikonerstrasse 285","PLZ":"8053","Tel":"079 756 20 28","Name":"KiTa Blüemli 2"}}
,{"type":"Feature","geometry":{"type":"Point","coordinates":[8.52239399881981,47.3880317643544]},"properties":{"Ort":"Zürich","www":"http://www.arbeitgeberkrippen.ch","Adresse":"Heinrichstrasse 255","PLZ":"8005","Tel":"043 366 89 77","Name":"Frechdachs Arbeitgeberkrippen"}}
,{"type":"Feature","geometry":{"type":"Point","coordinates":[8.52903996557676,47.3742965776597]},"properties":{"Ort":"Zürich","www":"http://www.stadt-zuerich.ch/kinderbetreuung","Adresse":"Lutherstrasse 20","PLZ":"8004","Tel":"044 242 90 80","Name":"Kinderhaus am Stauffacher"}}
,{"type":"Feature","geometry":{"type":"Point","coordinates":[8.50712714796749,47.3704447040714]},"properties":{"Ort":"Zürich","www":"http://www.zauberstei.ch","Adresse":"Burstwiesenstrasse 20","PLZ":"8055","Tel":"044 454 45 08","Name":"Kinderkrippe Zauberstei"}}
,{"type":"Feature","geometry":{"type":"Point","coordinates":[8.50150165913913,47.4010618249008]},"properties":{"Ort":"Zürich","www":"http://www.gfz-zh.ch","Adresse":"Limmattalstrasse 157","PLZ":"8049","Tel":"044 341 63 93","Name":"GFZ Kita 10a"}}
,{"type":"Feature","geometry":{"type":"Point","coordinates":[8.53465812472892,47.3924945474409]},"properties":{"Ort":"Zürich","www":"http://www.roetel.ch/angebot/krippe.html","Adresse":"Rötelstrasse 53","PLZ":"8037","Tel":"044 368 55 22","Name":"Kinderkrippe Rötel"}}
,{"type":"Feature","geometry":{"type":"Point","coordinates":[8.48279679571618,47.3883155409572]},"properties":{"Ort":"Zürich","www":"http://www.kita-abrakadabra.ch","Adresse":"Im Struppen 1","PLZ":"8048","Tel":"043 311 98 10","Name":"Kita Abrakadabra"}}
,{"type":"Feature","geometry":{"type":"Point","coordinates":[8.54538041282366,47.4144572451495]},"properties":{"Ort":"Zürich","www":"http://www.gfkb.ch","Adresse":"Schaffhauserstrasse 405","PLZ":"8050","Tel":"043 311 66 22","Name":"Kita Beba"}}
,{"type":"Feature","geometry":{"type":"Point","coordinates":[8.52443783192479,47.3407969815641]},"properties":{"Ort":"Zürich","www":"http://www.stadt-zuerich.ch/kinderbetreuung","Adresse":"Butzenstrasse 49","PLZ":"8038","Tel":"044 488 10 02","Name":"24h-Kita und Krisenintervention"}}
,{"type":"Feature","geometry":{"type":"Point","coordinates":[8.54887915821698,47.3833365857946]},"properties":{"Ort":"Zürich","www":"http://www.montessori-kindergarten.ch","Adresse":"Winkelriedstrasse 4","PLZ":"8006","Tel":"044 361 15 72","Name":"Kita Fiorella Irene"}}
,{"type":"Feature","geometry":{"type":"Point","coordinates":[8.51448929619083,47.365869765929]},"properties":{"Ort":"Zürich","www":"http://www.kita-tandem.ch/","Adresse":"Binzallee 37","PLZ":"8055","Tel":"044 450 34 11","Name":"Kita Tandem Binz 3"}}
,{"type":"Feature","geometry":{"type":"Point","coordinates":[8.51685902183982,47.3985718375105]},"properties":{"Ort":"Zürich","www":"http://www.stadt-zuerich.ch/kinderbetreuung","Adresse":"Rebbergstrasse 14","PLZ":"8037","Tel":"044 414 60 97","Name":"Kita Käferhaus"}}
,{"type":"Feature","geometry":{"type":"Point","coordinates":[8.50915520368774,47.3771452456793]},"properties":{"Ort":"Zürich","www":"http://www.mukita.ch","Adresse":"Hardaustrasse 23","PLZ":"8050","Tel":"079 379 68 30","Name":"MUKITA -musische Kindertagesstätte"}}
,{"type":"Feature","geometry":{"type":"Point","coordinates":[8.5486871371483,47.3620378768411]},"properties":{"Ort":"Zürich","www":"http://www.stadt-zuerich.ch/kinderbetreuung","Adresse":"Färberstrasse 15","PLZ":"8008","Tel":"044 262 40 90","Name":"Kita Operinos"}}
,{"type":"Feature","geometry":{"type":"Point","coordinates":[8.52630083723217,47.3711471342422]},"properties":{"Ort":"Zürich","www":"http://www.rasselchischte.ch","Adresse":"Werdgartengasse 3","PLZ":"8004","Tel":"043 322 08 00","Name":"Kita Rasselchischte"}}
,{"type":"Feature","geometry":{"type":"Point","coordinates":[8.58252546233223,47.4064406613316]},"properties":{"Ort":"Zürich","www":"http://www.kita-schatzinsel.ch","Adresse":"Luegislandstrasse 597","PLZ":"8051","Tel":"043 321 64 25","Name":"Kita Schatzinsel"}}
,{"type":"Feature","geometry":{"type":"Point","coordinates":[8.57855211531344,47.3514381163662]},"properties":{"Ort":"Zürich","www":"http://www.montessori-zuerichsee.ch","Adresse":"Forchstrasse 370","PLZ":"8008","Tel":"043 540 43 89","Name":"Montessori Kinderhaus Seldwyla"}}
,{"type":"Feature","geometry":{"type":"Point","coordinates":[8.55118497088522,47.3802290506262]},"properties":{"Ort":"Zürich","www":"","Adresse":"Huttenstrasse 50","PLZ":"8006","Tel":"044 255 57 39","Name":"USZ Huttenstrasse"}}
,{"type":"Feature","geometry":{"type":"Point","coordinates":[8.51655215795651,47.3637816398757]},"properties":{"Ort":"Zürich","www":"http://www.kkstaernschnuppe.ch","Adresse":"Binzallee 11","PLZ":"8055","Tel":"079 651 82 66","Name":"Kinderkrippe Stärnschnuppe"}}
,{"type":"Feature","geometry":{"type":"Point","coordinates":[8.58792006046131,47.3580377104759]},"properties":{"Ort":"8053 Zürich","www":"http://www.littlelearners.ch","Adresse":"Carl-Spitteler-Strasse 2","PLZ":"","Tel":"044 422 86 69","Name":"Little Learners"}}
,{"type":"Feature","geometry":{"type":"Point","coordinates":[8.53313581007267,47.3448436147927]},"properties":{"Ort":"Zürich","www":"http://www.joey-kinderkrippe.ch","Adresse":"Albisstrasse 10","PLZ":"8038","Tel":"044 480 15 00","Name":"Joey Kinderkrippe"}}
,{"type":"Feature","geometry":{"type":"Point","coordinates":[8.51594554949494,47.3324570403877]},"properties":{"Ort":"Zürich","www":"http://www.kinderhaus-ruetschlibach.ch","Adresse":"Wegackerstrasse 46","PLZ":"8041","Tel":"043 243 13 35","Name":"Kinderhaus Rütschlibach"}}
,{"type":"Feature","geometry":{"type":"Point","coordinates":[8.49102164691146,47.3749013109889]},"properties":{"Ort":"Zürich","www":"http://www.krippe-schmetterling.ch","Adresse":"Fellenbergstrasse 281","PLZ":"8047","Tel":"044 492 60 02","Name":"Kita Schmetterling 4"}}
,{"type":"Feature","geometry":{"type":"Point","coordinates":[8.47640362542125,47.3898934317982]},"properties":{"Ort":"Zürich","www":"http://www.kribbelkrabbel.ch","Adresse":"Dachslernstrasse 67","PLZ":"8048","Tel":"043 817 02 87","Name":"Chinderhuus Kribbel Krabbel Dachslernstrasse"}}
,{"type":"Feature","geometry":{"type":"Point","coordinates":[8.50630429146246,47.421886013243]},"properties":{"Ort":"Zürich","www":"http://www.krippenverein.ch","Adresse":"Dora-Staudinger-Strasse 15","PLZ":"8046","Tel":"043 811 38 55","Name":"Chinderhuus Sitara"}}
,{"type":"Feature","geometry":{"type":"Point","coordinates":[8.58599479032362,47.3577690143948]},"properties":{"Ort":"Zürich","www":"http://www.chrippeamhuegeli.ch","Adresse":"Heilighüsli 9","PLZ":"8053","Tel":"044 383 44 70","Name":"Chrippe am Hügeli"}}
,{"type":"Feature","geometry":{"type":"Point","coordinates":[8.52094467990363,47.3610329927611]},"properties":{"Ort":"Zürich","www":"http://www.stadt-zuerich.ch/kinderbetreuung","Adresse":"Staffelstrasse 10","PLZ":"8045","Tel":"043 344 52 60","Name":"myKita"}}
,{"type":"Feature","geometry":{"type":"Point","coordinates":[8.52030054841656,47.3762587784181]},"properties":{"Ort":"Zürich","www":"http://www.gfz-zh.ch","Adresse":"Pflanzschulstrasse 30","PLZ":"8004","Tel":"044 242 63 49","Name":"GFZ Kita 4"}}
,{"type":"Feature","geometry":{"type":"Point","coordinates":[8.48801422178995,47.3815399985435]},"properties":{"Ort":"Zürich","www":"http://www.kibiz.ch","Adresse":"Rautistrasse 77","PLZ":"8048","Tel":"044 400 22 33","Name":"Kibiz Kita / Pre-School/Hort Kinderbildungszentrum"}}
,{"type":"Feature","geometry":{"type":"Point","coordinates":[8.55504759341768,47.3629480000243]},"properties":{"Ort":"Zürich","www":"http://www.stadt-zuerich.ch/content/sd/de/index/kinderbetreuung","Adresse":"Zollikerstrasse 22","PLZ":"8008","Tel":"044 201 47 47","Name":"Kita 7 Bears"}}
,{"type":"Feature","geometry":{"type":"Point","coordinates":[8.52819612170158,47.3919530145117]},"properties":{"Ort":"Zürich","www":"http://www.kitaamwasser.ch","Adresse":"Landenbergstrasse 10","PLZ":"8037","Tel":"043 321 30 04","Name":"Kita am Wasser"}}
,{"type":"Feature","geometry":{"type":"Point","coordinates":[8.55758829103952,47.3666743951998]},"properties":{"Ort":"Zürich","www":"http://www.stadt-zuerich.ch/kinderbetreuung","Adresse":"Englischviertelstrasse 42","PLZ":"8032","Tel":"044 252 91 21","Name":"Kita Children First"}}
,{"type":"Feature","geometry":{"type":"Point","coordinates":[8.53276013640366,47.3697458182188]},"properties":{"Ort":"Zürich","www":"http://www.stadt-zuerich.ch/kinderbetreuung","Adresse":"Friedensgasse 3","PLZ":"8002","Tel":"044 281 12 40","Name":"Kita Guarderia"}}
,{"type":"Feature","geometry":{"type":"Point","coordinates":[8.55229016598904,47.3735439881442]},"properties":{"Ort":"Zürich","www":"http://www.childcare.ch","Adresse":"Freiestrasse 11","PLZ":"8032","Tel":"044 254 60 50","Name":"Kita Kids & Co Freiestrasse"}}
,{"type":"Feature","geometry":{"type":"Point","coordinates":[8.54869734747563,47.3714287522369]},"properties":{"Ort":"Zürich","www":"http://www.kihz.ch","Adresse":"Kantonsschulstrasse 3","PLZ":"8001","Tel":"043 305 55 11","Name":"Kita kihz Wolfbach"}}
,{"type":"Feature","geometry":{"type":"Point","coordinates":[8.51634190232963,47.3873374358126]},"properties":{"Ort":"Zürich","www":"http://www.childcare.ch","Adresse":"Hardstrasse 225","PLZ":"8005","Tel":"043 960 34 30","Name":"Kids&Co Prime Tower"}}
,{"type":"Feature","geometry":{"type":"Point","coordinates":[8.5122356520145,47.36199020173]},"properties":{"Ort":"Zürich","www":"http://www.guexi.ch","Adresse":"Binzstrasse 38","PLZ":"8045","Tel":"044 321 20 20","Name":"Kita Güxi Friesenberg"}}
,{"type":"Feature","geometry":{"type":"Point","coordinates":[8.54418079184449,47.4179497987646]},"properties":{"Ort":"Zürich","www":"http://www.stadt-zuerich.ch/kinderbetreuung","Adresse":"Felsenrainstrasse 11","PLZ":"8052","Tel":"043 443 92 22","Name":"Kita Seebach Kinderhaus"}}
,{"type":"Feature","geometry":{"type":"Point","coordinates":[8.49814793398349,47.3730101249312]},"properties":{"Ort":"Zürich","www":"http://www.stadt-zuerich.ch/kinderbetreuung","Adresse":"Espenhofweg 42","PLZ":"8047","Tel":"043 311 67 60","Name":"Kita s'Rägäbögeli (Arco Iris)"}}
,{"type":"Feature","geometry":{"type":"Point","coordinates":[8.55150124112941,47.4042430261213]},"properties":{"Ort":"Zürich","www":"http://www.stadt-zuerich.ch/kinderbetreuung","Adresse":"Viktoriastrasse 30b","PLZ":"8057","Tel":"044 312 04 52","Name":"Kita Trippel-Trappel"}}
,{"type":"Feature","geometry":{"type":"Point","coordinates":[8.55378760297924,47.3558809290341]},"properties":{"Ort":"Zürich","www":"http://www.villa-rumpelkiste.ch","Adresse":"Dufourstrasse 146","PLZ":"8008","Tel":"044 381 60 57","Name":"Kita Villa Rumpelkiste"}}
,{"type":"Feature","geometry":{"type":"Point","coordinates":[8.49323043687234,47.370086786374]},"properties":{"Ort":"Zürich","www":"http://www.stadt-zuerich.ch/kinderbetreuung","Adresse":"Wydäckerring 144","PLZ":"8047","Tel":"043 537 02 91","Name":"Kita Wydäcker"}}
,{"type":"Feature","geometry":{"type":"Point","coordinates":[8.56460675460434,47.3604713476272]},"properties":{"Ort":"Zürich","www":"http://www.rachelskinderkrippe.ch","Adresse":"Forchstrasse 155","PLZ":"8032","Tel":"044 381 40 90","Name":"Rachel's Kinderkrippe"}}
,{"type":"Feature","geometry":{"type":"Point","coordinates":[8.49574021132505,47.3664478036559]},"properties":{"Ort":"Zürich","www":"http://www.zentrum-inselhof.ch","Adresse":"Birmensdorferstrasse 505","PLZ":"8063","Tel":"044 498 50 31","Name":"Tagesstruktur Plus Kinderhaus Inselhof"}}
,{"type":"Feature","geometry":{"type":"Point","coordinates":[8.50999224870545,47.3766247600435]},"properties":{"Ort":"Zürich","www":"http://www.fridakrippe.ch","Adresse":"Friedaustrasse 3","PLZ":"8003","Tel":"076 331 97 29","Name":"Kita Krippe Frida"}}
,{"type":"Feature","geometry":{"type":"Point","coordinates":[8.54263286124391,47.4084928351862]},"properties":{"Ort":"Zürich","www":"http://www.kids-island.ch","Adresse":"Gubelhangstrasse 6","PLZ":"8050","Tel":"043 537 75 80","Name":"Kita Kids Island"}}
,{"type":"Feature","geometry":{"type":"Point","coordinates":[8.58106915058067,47.3601836191996]},"properties":{"Ort":"Zürich","www":"http://www.kitabluemli.ch","Adresse":"Im Brächli 33","PLZ":"8053","Tel":"079 756 20 28","Name":"Kita Blüemli"}}
,{"type":"Feature","geometry":{"type":"Point","coordinates":[8.51092991526623,47.3922855022996]},"properties":{"Ort":"Zürich","www":"http://www.kitakeiki.ch","Adresse":"Förrlibuckstrasse 178","PLZ":"8005","Tel":"076 311 26 26","Name":"keiki Förrlibuck"}}
,{"type":"Feature","geometry":{"type":"Point","coordinates":[8.52309254083834,47.3943667570861]},"properties":{"Ort":"Zürich","www":"http://www.alilec.ch","Adresse":"Dorfstrasse 24","PLZ":"8037","Tel":"043 960 30 45","Name":"ALILEC zum Waidberg"}}
,{"type":"Feature","geometry":{"type":"Point","coordinates":[8.54713646974134,47.4224189734578]},"properties":{"Ort":"Zürich","www":"http://www.little-friends.ch/","Adresse":"Katzenbachstrasse 71","PLZ":"8052","Tel":"043 811 48 66","Name":"Little Friends"}}
,{"type":"Feature","geometry":{"type":"Point","coordinates":[8.49049730561163,47.3745013151404]},"properties":{"Ort":"Zürich","www":"http://www.kita-kiddi.jimdo.com","Adresse":"Langgrütstrasse 172","PLZ":"8047","Tel":"043 931 78 14","Name":"Kita Kiddi (Langgrütstrasse)"}}
,{"type":"Feature","geometry":{"type":"Point","coordinates":[8.57814707281782,47.3516849883053]},"properties":{"Ort":"Zürich","www":"http://www.kita-mobil.ch","Adresse":"Forchstrasse 366","PLZ":"8008","Tel":"044 380 04 71","Name":"KITA-MOBIL"}}
,{"type":"Feature","geometry":{"type":"Point","coordinates":[8.54790808480197,47.4047543231606]},"properties":{"Ort":"Zürich","www":"http://www.the-daycare.com","Adresse":"Blütenstrasse 2","PLZ":"8057","Tel":"044 312 24 34","Name":"The DayCare"}}
,{"type":"Feature","geometry":{"type":"Point","coordinates":[8.51320730461918,47.3692638689928]},"properties":{"Ort":"Zürich","www":"http://www.stadt-zuerich.ch/kinderbetreuung","Adresse":"Friesenbergstrasse 23","PLZ":"8055","Tel":"044 463 63 69","Name":"Chinderhus Teddybär"}}
,{"type":"Feature","geometry":{"type":"Point","coordinates":[8.50274109314236,47.3848593390228]},"properties":{"Ort":"Zürich","www":"http://www.kribbelkrabbel.ch","Adresse":"Baslerstrasse 30","PLZ":"8048","Tel":"043 817 02 82","Name":"Chinderhuus Kribbel Krabbel Freihofstrasse"}}
,{"type":"Feature","geometry":{"type":"Point","coordinates":[8.55720087706111,47.3595719237676]},"properties":{"Ort":"Zürich","www":"http://www.gfz-zh.ch","Adresse":"Zollikerstrasse 78","PLZ":"8008","Tel":"044 383 02 57","Name":"GFZ Kita 8"}}
,{"type":"Feature","geometry":{"type":"Point","coordinates":[8.48151568487553,47.3857995348958]},"properties":{"Ort":"Zürich","www":"http://www.gfz-zh.ch","Adresse":"Zwischenbächen 2","PLZ":"8048","Tel":"","Name":"GFZ Kita 9"}}
,{"type":"Feature","geometry":{"type":"Point","coordinates":[8.48524369656876,47.3881404826189]},"properties":{"Ort":"Zürich","www":"http://www.guexi.ch","Adresse":"Badenerstrasse 682","PLZ":"8048","Tel":"043 818 70 00","Name":"Güxi Lindenplatz"}}
,{"type":"Feature","geometry":{"type":"Point","coordinates":[8.5384433101111,47.4160706352663]},"properties":{"Ort":"Zürich","www":"http://www.stadt-zuerich.ch/kinderbetreuung","Adresse":"Margrit-Rainer-Strasse 14","PLZ":"8050","Tel":"043 443 92 32","Name":"Kinderhaus Züri Nord"}}
,{"type":"Feature","geometry":{"type":"Point","coordinates":[8.56001687154748,47.4109879475357]},"properties":{"Ort":"Zürich","www":"http://www.kinderkrippe-sonnenhaus.ch","Adresse":"Wallisellenstrasse 255","PLZ":"8050","Tel":"043 321 55 40","Name":"Kinderkrippe Sonnenhaus"}}
,{"type":"Feature","geometry":{"type":"Point","coordinates":[8.51255536022489,47.3717345932179]},"properties":{"Ort":"Zürich","www":"http://www.kindervilla-abraxas.ch","Adresse":"Saumstrasse 27","PLZ":"8003","Tel":"043 539 50 61","Name":"Kindervilla Abraxas"}}
,{"type":"Feature","geometry":{"type":"Point","coordinates":[8.49737225279377,47.3832805715636]},"properties":{"Ort":"Zürich","www":"http://www.ants.ch","Adresse":"Fuchsiastrasse 14","PLZ":"8047","Tel":"043 366 83 61","Name":"Kita Ants"}}
,{"type":"Feature","geometry":{"type":"Point","coordinates":[8.48681794805866,47.4055405846519]},"properties":{"Ort":"Zürich","www":"http://www.chrabelschloss.ch","Adresse":"Imbisbühlstrasse 100","PLZ":"8049","Tel":"043 300 22 33","Name":"Kita Chrabelschloss"}}
,{"type":"Feature","geometry":{"type":"Point","coordinates":[8.55112309260735,47.4019978911217]},"properties":{"Ort":"Zürich","www":"http://www.stadt-zuerich.ch/kinderbetreuung","Adresse":"Hörnlistrasse 4","PLZ":"8057","Tel":"044 312 14 43","Name":"Kita DEA"}}
,{"type":"Feature","geometry":{"type":"Point","coordinates":[8.54516351148899,47.4027477525437]},"properties":{"Ort":"Zürich","www":"http://www.joyfactory.ch","Adresse":"Oerlikonerstrasse 50","PLZ":"8057","Tel":"077 448 81 58","Name":"Joy Factory"}}
,{"type":"Feature","geometry":{"type":"Point","coordinates":[8.53484117255731,47.3885169646316]},"properties":{"Ort":"Zürich","www":"http://www.pazh.ch","Adresse":"Imfeldstrasse 11","PLZ":"8037","Tel":"043 255 24 00","Name":"Kita Imfeldstrasse"}}
,{"type":"Feature","geometry":{"type":"Point","coordinates":[8.5605366359309,47.361446515181]},"properties":{"Ort":"Zürich","www":"http://www.gate24.ch/42814","Adresse":"Drahtzugstrasse 4","PLZ":"8008","Tel":"044 380 65 00","Name":"Kita Kids 2 Skool"}}
,{"type":"Feature","geometry":{"type":"Point","coordinates":[8.55219158078384,47.3738957507141]},"properties":{"Ort":"Zürich","www":"http://www.childcare.ch","Adresse":"Schönleinstrasse 14","PLZ":"8032","Tel":"044 253 26 76","Name":"Kids & Co Schönleinstrasse"}}
,{"type":"Feature","geometry":{"type":"Point","coordinates":[8.51968010424918,47.3657702838557]},"properties":{"Ort":"Zürich","www":"http://www.stadt-zuerich.ch/kinderbetreuung","Adresse":"Austrasse 24","PLZ":"8045","Tel":"044 463 32 00","Name":"Kita KITT Wiedikon"}}
,{"type":"Feature","geometry":{"type":"Point","coordinates":[8.54249507789648,47.414628771415]},"properties":{"Ort":"Zürich","www":"http://www.kinderkrippe-mariakaefer.ch","Adresse":"Binzmühlestrasse 76a","PLZ":"8050","Tel":"044 492 90 45","Name":"Kita Mariakäfer"}}
,{"type":"Feature","geometry":{"type":"Point","coordinates":[8.51941668082327,47.3712028034807]},"properties":{"Ort":"Zürich","www":"http://www.schmiedhof.ch","Adresse":"Erikastrasse 25","PLZ":"8003","Tel":"044 462 65 30","Name":"Kita Schmiedhof"}}
,{"type":"Feature","geometry":{"type":"Point","coordinates":[8.55399446511415,47.3765229217378]},"properties":{"Ort":"Zürich","www":"http://www.unizh.ch/leben/kinder/spielchischte","Adresse":"Häldeliweg 10","PLZ":"8044","Tel":"044 262 78 78","Name":"Kita Spielchischte"}}
,{"type":"Feature","geometry":{"type":"Point","coordinates":[8.54960695052487,47.3667874882808]},"properties":{"Ort":"Zürich","www":"http://www.kitasputnik.ch","Adresse":"Schanzengasse 11","PLZ":"8001","Tel":"044 261 48 74","Name":"Kita Sputnik"}}
,{"type":"Feature","geometry":{"type":"Point","coordinates":[8.5314581219828,47.3740488346038]},"properties":{"Ort":"Zürich","www":"http://www.kita-tandem.ch","Adresse":"Müllerstrasse 8","PLZ":"8004","Tel":"043 317 97 10","Name":"Kita Tandem Stauffacher 1"}}
,{"type":"Feature","geometry":{"type":"Point","coordinates":[8.53014462999699,47.3344914490576]},"properties":{"Ort":"Zürich","www":"http://www.littlestardayschool.com","Adresse":"Albisstrasse 147","PLZ":"8038","Tel":"043 377 54 00","Name":"Little Star Day School Wollishofen 1"}}
,{"type":"Feature","geometry":{"type":"Point","coordinates":[8.50845422753379,47.3541062710572]},"properties":{"Ort":"Zürich","www":"http://www.kita-albatros.ch","Adresse":"Frauentalweg 100","PLZ":"8045","Tel":"078 600 37 14","Name":"Kindertagesstätte Albatros"}}
,{"type":"Feature","geometry":{"type":"Point","coordinates":[8.5529409118511,47.3995966651349]},"properties":{"Ort":"Zürich","www":"http://www.kihz.ch","Adresse":"Frohburgstrasse 211","PLZ":"8057","Tel":"044 635 99 99","Name":"Kita kihz Tierspital"}}
,{"type":"Feature","geometry":{"type":"Point","coordinates":[8.51214227678465,47.3821187828834]},"properties":{"Ort":"Zürich","www":"http://www.sunneblueme.org","Adresse":"Eichbühlstrasse 15","PLZ":"8004","Tel":"044 405 20 10","Name":"Kita Sunneblueme"}}
,{"type":"Feature","geometry":{"type":"Point","coordinates":[8.52889605514335,47.3944380537999]},"properties":{"Ort":"Zürich","www":"http://www.zauberhimmel.ch","Adresse":"Uhlandstrasse 6","PLZ":"8037","Tel":"044 271 80 37","Name":"Zauberhimmel"}}
,{"type":"Feature","geometry":{"type":"Point","coordinates":[8.52576981535174,47.413905830586]},"properties":{"Ort":"Zürich","www":"http://www.kita-moetteliweg.ch","Adresse":"Binzmühlestrasse 317","PLZ":"8046","Tel":"044 577 17 61","Name":"Kita Mötteliweg"}}
,{"type":"Feature","geometry":{"type":"Point","coordinates":[8.57585881510782,47.3498995053494]},"properties":{"Ort":"Zürich","www":"http://www.hirslanden.ch","Adresse":"Enzenbühlstrasse 47","PLZ":"8008","Tel":"044 387 25 15","Name":"Kita der Klinik Hirslanden"}}
,{"type":"Feature","geometry":{"type":"Point","coordinates":[8.54900674122175,47.4142335521953]},"properties":{"Ort":"Zürich","www":"http://www.abbkinderkrippen.ch","Adresse":"Allmannstrasse 4","PLZ":"8050","Tel":"044 313 07 11","Name":"Kita Zwärgehuus ABB"}}
,{"type":"Feature","geometry":{"type":"Point","coordinates":[8.56452845692037,47.41065623005]},"properties":{"Ort":"Zürich","www":"http://www.cartonaurio.ch","Adresse":"Wallisellenstrasse 340","PLZ":"8050","Tel":"043 321 66 12","Name":"Kita Cartonaurio Wallisellenstrasse"}}
,{"type":"Feature","geometry":{"type":"Point","coordinates":[8.55682200088329,47.4140772256029]},"properties":{"Ort":"Zürich","www":"http://www.stadt-zuerich.ch/kinderbetreuung","Adresse":"Hagenholzstrasse 76","PLZ":"8050","Tel":"043 300 12 14","Name":"Kita im Andreaspark 2"}}
,{"type":"Feature","geometry":{"type":"Point","coordinates":[8.55877585095176,47.4162440924397]},"properties":{"Ort":"Zürich","www":"http://www.chinderhuus-babar.ch","Adresse":"Heidi-Abel-Weg 9","PLZ":"8050","Tel":"044 344 44 88","Name":"Chinderhuus Babar"}}
,{"type":"Feature","geometry":{"type":"Point","coordinates":[8.54545622405431,47.4155539119686]},"properties":{"Ort":"Zürich","www":"http://www.kita-yemaya.ch","Adresse":"Schaffhauserstrasse 424","PLZ":"8050","Tel":"076 567 84 06","Name":"Yemaya"}}
,{"type":"Feature","geometry":{"type":"Point","coordinates":[8.5230111779595,47.3929732809441]},"properties":{"Ort":"Zürich","www":"http://www.gfz-zh.ch","Adresse":"Hönggerstrasse 60","PLZ":"8037","Tel":"044 271 15 81","Name":"GFZ Kita 10"}}
,{"type":"Feature","geometry":{"type":"Point","coordinates":[8.52121195162252,47.3683255331862]},"properties":{"Ort":"Zürich","www":"http://www.gfz-zh.ch","Adresse":"Zelgstrasse 37","PLZ":"8003","Tel":"044 462 72 70","Name":"GFZ Kita 3"}}
,{"type":"Feature","geometry":{"type":"Point","coordinates":[8.55919449436245,47.3719119947526]},"properties":{"Ort":"Zürich","www":"http://www.gfz-zh.ch","Adresse":"Hofstrasse 49","PLZ":"8032","Tel":"044 260 21 15","Name":"GFZ Kita 7"}}
,{"type":"Feature","geometry":{"type":"Point","coordinates":[8.54745312897808,47.4013585422565]},"properties":{"Ort":"Zürich","www":"http://www.irchelkrippe.ch","Adresse":"Bülachstrasse 13","PLZ":"8057","Tel":"044 311 67 78","Name":"Irchelkrippe"}}
,{"type":"Feature","geometry":{"type":"Point","coordinates":[8.52882071277492,47.3700529432272]},"properties":{"Ort":"Zürich","www":"http://www.enaip.ch/html/enaipch/kita/index.html","Adresse":"Weberstrasse 3","PLZ":"8004","Tel":"043 322 10 80","Name":"Kinderplanet / Planeta Bimbi"}}
,{"type":"Feature","geometry":{"type":"Point","coordinates":[8.50970371881746,47.391910089824]},"properties":{"Ort":"Zürich","www":"http://www.zwergenburg-zh.ch","Adresse":"Förrlibuckstrasse 191","PLZ":"8005","Tel":"043 366 81 23","Name":"Kindertreff Zwergenburg Förrlibuck"}}
,{"type":"Feature","geometry":{"type":"Point","coordinates":[8.47815046021569,47.3918476031861]},"properties":{"Ort":"Zürich","www":"http://www.kinderkrippe-bambi.ch","Adresse":"Badenerstrasse 760","PLZ":"8048","Tel":"044 401 20 70","Name":"Kita Bambi Badenerstrasse"}}
,{"type":"Feature","geometry":{"type":"Point","coordinates":[8.52354915184431,47.4245857931782]},"properties":{"Ort":"Zürich","www":"http://www.gfkb.ch","Adresse":"Schwandenholzstrasse 190a","PLZ":"8046","Tel":"044 370 15 15","Name":"Kita Bambina"}}
,{"type":"Feature","geometry":{"type":"Point","coordinates":[8.54192772176205,47.4096329477262]},"properties":{"Ort":"Zürich","www":"http://www.gfkb.ch","Adresse":"Baumackerstrasse 53","PLZ":"8050","Tel":"044 311 41 40","Name":"Kita Bambola"}}
,{"type":"Feature","geometry":{"type":"Point","coordinates":[8.51581011136235,47.4128657236331]},"properties":{"Ort":"Zürich","www":"http://www.gfkb.ch","Adresse":"Glaubtenstrasse 32","PLZ":"8046","Tel":"044 370 14 90","Name":"Kita Biene Maya"}}
,{"type":"Feature","geometry":{"type":"Point","coordinates":[8.54521785577026,47.3722087367966]},"properties":{"Ort":"Zürich","www":"http://www.colibri-kinderprojekte.ch","Adresse":"Leuengasse 21","PLZ":"8001","Tel":"044 261 96 82","Name":"Kita Colibri Leuengasse"}}
,{"type":"Feature","geometry":{"type":"Point","coordinates":[8.51615275070911,47.3826571164171]},"properties":{"Ort":"Zürich","www":"http://www.icf.ch","Adresse":"Hohlstrasse 236","PLZ":"8004","Tel":"043 366 76 36","Name":"Chinderinsle"}}
,{"type":"Feature","geometry":{"type":"Point","coordinates":[8.57405383504775,47.3552604643296]},"properties":{"Ort":"Zürich","www":"http://www.gigelisuppe.ch","Adresse":"Russenweg 39","PLZ":"8008","Tel":"044 262 65 95","Name":"Kita Gigelisuppe"}}
,{"type":"Feature","geometry":{"type":"Point","coordinates":[8.51559504206067,47.3694844811127]},"properties":{"Ort":"Zürich","www":"http://www.stadt-zuerich.ch/kinderbetreuung","Adresse":"Schrennengasse 21","PLZ":"8003","Tel":"044 462 85 78","Name":"Kita Zauberschloss"}}
,{"type":"Feature","geometry":{"type":"Point","coordinates":[8.5578482412302,47.3614006724707]},"properties":{"Ort":"Zürich","www":"http://www.stadt-zuerich.ch/kinderbetreuung","Adresse":"Neumünsterallee 17","PLZ":"8008","Tel":"044 383 47 00","Name":"Kita Heilsarmee"}}
,{"type":"Feature","geometry":{"type":"Point","coordinates":[8.48392699696415,47.4135093497342]},"properties":{"Ort":"Zürich","www":"http://www.heizenholz.ch","Adresse":"Regensdorferstrasse 192","PLZ":"8049","Tel":"044 344 36 76","Name":"Kita Heizenholz (Stiftung ZKJH)"}}
,{"type":"Feature","geometry":{"type":"Point","coordinates":[8.55833656559083,47.413630796212]},"properties":{"Ort":"Zürich","www":"http://www.stadt-zuerich.ch/kinderbetreuung","Adresse":"Hagenholzstrasse 94","PLZ":"8050","Tel":"043 300 12 14","Name":"Kita im Andreaspark"}}
,{"type":"Feature","geometry":{"type":"Point","coordinates":[8.57408031060476,47.4068298014327]},"properties":{"Ort":"Zürich","www":"http://www.childcare.ch","Adresse":"Kreuzwiesen 2","PLZ":"8051","Tel":"044 254 60 50","Name":"Kita Kids & Co Kreuzwiesen"}}
,{"type":"Feature","geometry":{"type":"Point","coordinates":[8.50623622114336,47.3788453607437]},"properties":{"Ort":"Zürich","www":"http://www.vefz.ch/pilgerbrunnen/","Adresse":"Brahmsstrasse 44","PLZ":"8003","Tel":"044 405 73 50","Name":"Kita Pilgerbrunnen"}}
,{"type":"Feature","geometry":{"type":"Point","coordinates":[8.49757071696926,47.380607226384]},"properties":{"Ort":"Zürich","www":"http://www.stadt-zuerich.ch/kinderbetreuung","Adresse":"Dennlerstrasse 37","PLZ":"8047","Tel":"043 321 95 37","Name":"Kita Sonnenschein Dennler"}}
,{"type":"Feature","geometry":{"type":"Point","coordinates":[8.58708019527087,47.3584835448244]},"properties":{"Ort":"Zürich","www":"http://www.apfelbluete.ch","Adresse":"Witikonerstrasse 311b","PLZ":"8053","Tel":"","Name":"Kita Apfelblüte"}}
,{"type":"Feature","geometry":{"type":"Point","coordinates":[8.51386532768107,47.3651289867337]},"properties":{"Ort":"Zürich","www":"http://www.kita-tandem.ch","Adresse":"Bühlstrasse 47a","PLZ":"8055","Tel":"043 317 97 10","Name":"Kita Tandem Binz"}}
,{"type":"Feature","geometry":{"type":"Point","coordinates":[8.49533063673851,47.3738365123874]},"properties":{"Ort":"Zürich","www":"http://www.stadt-zuerich.ch/kinderbetreuung","Adresse":"Letzigraben 165","PLZ":"8047","Tel":"043 311 01 02","Name":"Kita Villa Kunterbunt Letzigraben"}}
,{"type":"Feature","geometry":{"type":"Point","coordinates":[8.53310298494641,47.4122175024394]},"properties":{"Ort":"Zürich","www":"http://www.stadt-zuerich.ch/kinderbetreuung","Adresse":"Regina-Kägi-Hof 3","PLZ":"8050","Tel":"044 310 81 68","Name":"Kita Windrädli"}}
,{"type":"Feature","geometry":{"type":"Point","coordinates":[8.51930795348969,47.3625775045911]},"properties":{"Ort":"Zürich","www":"http://www.wingsschool.ch","Adresse":"Eichstrasse 29","PLZ":"8045","Tel":"043 333 36 46","Name":"Kita Wings School, Krippe-Vorschule"}}
,{"type":"Feature","geometry":{"type":"Point","coordinates":[8.48773738601798,47.3957186542794]},"properties":{"Ort":"Zürich","www":"http://www.stadt-zuerich.ch/kinderbetreuung","Adresse":"Bändlistrasse 28","PLZ":"8064","Tel":"044 432 25 66","Name":"Kita Wirbelwind Werdwies"}}
,{"type":"Feature","geometry":{"type":"Point","coordinates":[8.53215574044852,47.3596499863301]},"properties":{"Ort":"Zürich","www":"http://www.kinderkrippe-pika.ch","Adresse":"Seestrasse 97","PLZ":"8002","Tel":"044 201 09 33","Name":"Pika Kinderkrippe"}}
,{"type":"Feature","geometry":{"type":"Point","coordinates":[8.53075975426734,47.3984178503382]},"properties":{"Ort":"Zürich","www":"http://www.waldkindergarten-zh.ch","Adresse":"Obere Waidstrasse 11","PLZ":"8037","Tel":"043 321 54 08","Name":"Waldkindergarten Troll: Gruppe Chäferberg/Bucheggplatz"}}
,{"type":"Feature","geometry":{"type":"Point","coordinates":[8.52733303203786,47.3601003694992]},"properties":{"Ort":"Zürich","www":"http://www.kinderkrippe-alexis.ch","Adresse":"Steinhaldenstrasse 36","PLZ":"8002","Tel":"044 201 92 12","Name":"Alexi s Kinderkrippe GmbH"}}
,{"type":"Feature","geometry":{"type":"Point","coordinates":[8.52534000499543,47.3779205303735]},"properties":{"Ort":"Zürich","www":"http://www.playground-edu.ch","Adresse":"Herbartstrasse 11","PLZ":"8004","Tel":"043 817 55 44","Name":"playground education"}}
,{"type":"Feature","geometry":{"type":"Point","coordinates":[8.51298864680044,47.4168587996193]},"properties":{"Ort":"Zürich","www":"http://www.krippekinderparadies.ch","Adresse":"In Böden 45","PLZ":"8046","Tel":"","Name":"Kita Kinderparadies in Böden"}}
,{"type":"Feature","geometry":{"type":"Point","coordinates":[8.52896235391182,47.3633862048747]},"properties":{"Ort":"Zürich","www":"http://www.kinderkrippe-alexis.ch","Adresse":"Bürglistrasse 6","PLZ":"8002","Tel":"044 201 92 09","Name":"Alexis Kinderkrippe GmbH"}}
,{"type":"Feature","geometry":{"type":"Point","coordinates":[8.49403204039753,47.3684423546492]},"properties":{"Ort":"Zürich","www":"","Adresse":"Triemlistrasse 153","PLZ":"8047","Tel":"044 536 79 69","Name":"Kita Kiddi"}}
,{"type":"Feature","geometry":{"type":"Point","coordinates":[8.55422657618728,47.3585122957988]},"properties":{"Ort":"Zürich","www":"http://www.tandem-ims.ch/de","Adresse":"Seefeldstrasse 111","PLZ":"8008","Tel":"043 500 10 30","Name":"Tanden International Multilingual School"}}
,{"type":"Feature","geometry":{"type":"Point","coordinates":[8.53466555637698,47.3774096160002]},"properties":{"Ort":"Zürich","www":"http://www.childcare.ch","Adresse":"Lagerstrasse 2","PLZ":"8004","Tel":"043 305 54 32","Name":"Kids & Co Campus Pädagogische Hochschule Zürich"}}
]}
