{"name":"Kreisbuero","type":"FeatureCollection"
,"features":[
{"type":"Feature","geometry":{"type":"Point","coordinates":[8.55617702054636,47.3694585902132]},"properties":{"Ort":"Zürich","www":"http://www.stadt-zuerich.ch/personenmeldeamt","Adresse":"Gemeindestrasse 54","PLZ":"8032","Tel":"044 412 04 60","Name":"Kreisbüro  7"}}
,{"type":"Feature","geometry":{"type":"Point","coordinates":[8.55365005941659,47.360694715155]},"properties":{"Ort":"Zürich","www":"http://www.stadt-zuerich.ch/personenmeldeamt","Adresse":"Feldeggstrasse 60","PLZ":"8034","Tel":"044 412 04 70","Name":"Kreisbüro  8"}}
,{"type":"Feature","geometry":{"type":"Point","coordinates":[8.52647664637511,47.3771632292458]},"properties":{"Ort":"Zürich","www":"http://www.stadt-zuerich.ch/personenmeldeamt","Adresse":"Hohlstrasse 35","PLZ":"8026","Tel":"044 413 69 49","Name":"Kreisbüro  4"}}
,{"type":"Feature","geometry":{"type":"Point","coordinates":[8.5400109466604,47.3867946818463]},"properties":{"Ort":"Zürich","www":"http://www.stadt-zuerich.ch/personenmeldeamt","Adresse":"Beckenhofstrasse 59","PLZ":"8042","Tel":"044 366 44 10","Name":"Kreisbüro  6"}}
,{"type":"Feature","geometry":{"type":"Point","coordinates":[8.48590208431631,47.3872709964942]},"properties":{"Ort":"Zürich","www":"http://www.stadt-zuerich.ch/personenmeldeamt","Adresse":"Lindenplatz 4","PLZ":"8048","Tel":"044 431 18 00","Name":"Kreisbüro  9"}}
,{"type":"Feature","geometry":{"type":"Point","coordinates":[8.54163567041637,47.3693105792271]},"properties":{"Ort":"Zürich","www":"http://www.stadt-zuerich.ch/personenmeldeamt","Adresse":"Stadthausquai 17","PLZ":"8022","Tel":"044 412 36 77","Name":"Kreisbüro  1"}}
,{"type":"Feature","geometry":{"type":"Point","coordinates":[8.53130919541218,47.3654958568924]},"properties":{"Ort":"Zürich","www":"http://www.stadt-zuerich.ch/personenmeldeamt","Adresse":"Ulmbergstrasse 1","PLZ":"8027","Tel":"044 412 02 70","Name":"Kreisbüro  2"}}
,{"type":"Feature","geometry":{"type":"Point","coordinates":[8.51930905438786,47.3704662125795]},"properties":{"Ort":"Zürich","www":"http://www.stadt-zuerich.ch/personenmeldeamt","Adresse":"Zurlindenstrasse 87","PLZ":"8003","Tel":"044 412 03 30","Name":"Kreisbüro  3"}}
,{"type":"Feature","geometry":{"type":"Point","coordinates":[8.52958506608098,47.387334400118]},"properties":{"Ort":"Zürich","www":"http://www.stadt-zuerich.ch/personenmeldeamt","Adresse":"Fabrikstrasse 3","PLZ":"8031","Tel":"044 271 31 80","Name":"Kreisbüro  5"}}
,{"type":"Feature","geometry":{"type":"Point","coordinates":[8.52288484219948,47.3926236581068]},"properties":{"Ort":"Zürich","www":"http://www.stadt-zuerich.ch/personenmeldeamt","Adresse":"Wipkingerplatz 5","PLZ":"8037","Tel":"044 412 03 10","Name":"Kreisbüro 10"}}
,{"type":"Feature","geometry":{"type":"Point","coordinates":[8.54473129830359,47.4112792182469]},"properties":{"Ort":"Zürich","www":"http://www.stadt-zuerich.ch/personenmeldeamt","Adresse":"Hofwiesenstrasse 370","PLZ":"8050","Tel":"044 316 67 00","Name":"Kreisbüro 11"}}
,{"type":"Feature","geometry":{"type":"Point","coordinates":[8.57199428031946,47.4046914528707]},"properties":{"Ort":"Zürich","www":"http://www.stadt-zuerich.ch/personenmeldeamt","Adresse":"Schwamendingerplatz 1","PLZ":"8051","Tel":"044 325 29 70","Name":"Kreisbüro 12"}}
]}
