{"name":"Muetterberatungsstelle","type":"FeatureCollection"
,"features":[
{"type":"Feature","geometry":{"type":"Point","coordinates":[8.47649975462804,47.4138551705375]},"properties":{"Ort":"Zürich","www":"http://www.stadt-zuerich.ch/mvb","Adresse":"Hurdäckerstrasse 6","PLZ":"8049","Tel":"","Name":"Mütter- und Väterberatungsstelle Rütihof"}}
,{"type":"Feature","geometry":{"type":"Point","coordinates":[8.53580134171345,47.3451061447765]},"properties":{"Ort":"Zürich","www":"http://www.stadt-zuerich.ch/mvb","Adresse":"Bachstrasse 7","PLZ":"8038","Tel":"","Name":"Mütter- und Väterberatungsstelle Wollishofen"}}
,{"type":"Feature","geometry":{"type":"Point","coordinates":[8.52411559843424,47.3789215138009]},"properties":{"Ort":"Zürich","www":"http://www.stadt-zuerich.ch/mvb","Adresse":"Hohlstrasse 86c","PLZ":"8004","Tel":"","Name":"Mütter- und Väterberatungsstelle Aussersihl"}}
,{"type":"Feature","geometry":{"type":"Point","coordinates":[8.48999447276196,47.3959769778562]},"properties":{"Ort":"Zürich","www":"http://www.stadt-zuerich.ch/mvb","Adresse":"Grünauring 18","PLZ":"8064","Tel":"","Name":"Mütter- und Väterberatungsstelle Grünau"}}
,{"type":"Feature","geometry":{"type":"Point","coordinates":[8.48471643097882,47.3869219406765]},"properties":{"Ort":"Zürich","www":"http://www.stadt-zuerich.ch/mvb","Adresse":"Pfarrhausstrasse 19","PLZ":"8048","Tel":"","Name":"Mütter- und Väterberatungsstelle Altstetten"}}
,{"type":"Feature","geometry":{"type":"Point","coordinates":[8.48779800978576,47.3759470809906]},"properties":{"Ort":"Zürich","www":"http://www.stadt-zuerich.ch/mvb","Adresse":"Albisriederstrasse 330","PLZ":"8047","Tel":"","Name":"Mütter- und Väterberatungsstelle Albisrieden 2"}}
,{"type":"Feature","geometry":{"type":"Point","coordinates":[8.52021873893624,47.3930984094102]},"properties":{"Ort":"Zürich","www":"http://www.stadt-zuerich.ch/mvb","Adresse":"Breitensteinstrasse 19a","PLZ":"8037","Tel":"","Name":"Mütter- und Väterberatungsstelle Wipkingen"}}
,{"type":"Feature","geometry":{"type":"Point","coordinates":[8.53024011240095,47.3695358010693]},"properties":{"Ort":"Zürich","www":"http://www.stadt-zuerich.ch/mvb","Adresse":"Sihlamtsstrasse 18","PLZ":"8001","Tel":"","Name":"Mütter- und Väterberatungsstelle Selnau"}}
,{"type":"Feature","geometry":{"type":"Point","coordinates":[8.59182538072728,47.4027052052734]},"properties":{"Ort":"Zürich","www":"http://www.stadt-zuerich.ch/mvb","Adresse":"Helen-Keller-Strasse 55","PLZ":"8051","Tel":"","Name":"Mütter- und Väterberatungsstelle Hirzenbach"}}
,{"type":"Feature","geometry":{"type":"Point","coordinates":[8.54569173272636,47.4077619502317]},"properties":{"Ort":"Zürich","www":"http://www.stadt-zuerich.ch/mvb","Adresse":"Gubelstrasse 10","PLZ":"8050","Tel":"","Name":"Mütter- und Väterberatungsstelle Oerlikon"}}
,{"type":"Feature","geometry":{"type":"Point","coordinates":[8.50558145390065,47.3606993205346]},"properties":{"Ort":"Zürich","www":"http://www.stadt-zuerich.ch/mvb","Adresse":"Borrweg 71","PLZ":"8055","Tel":"","Name":"Mütter- und Väterberatungsstelle Friesenberg"}}
,{"type":"Feature","geometry":{"type":"Point","coordinates":[8.5097318413388,47.3821141818074]},"properties":{"Ort":"Zürich","www":"http://www.stadt-zuerich.ch/mvb","Adresse":"Bullingerstrasse 60","PLZ":"8004","Tel":"","Name":"Mütter- und Väterberatungsstelle Hard"}}
,{"type":"Feature","geometry":{"type":"Point","coordinates":[8.50391043996258,47.367173242425]},"properties":{"Ort":"Zürich","www":"http://www.stadt-zuerich.ch/mvb","Adresse":"Döltschiweg 130","PLZ":"8055","Tel":"","Name":"Mütter- und Väterberatungsstelle Heuried"}}
,{"type":"Feature","geometry":{"type":"Point","coordinates":[8.48471643097882,47.3869219406765]},"properties":{"Ort":"Zürich","www":"","Adresse":"Pfarrhausstrasse 19","PLZ":"8048","Tel":"","Name":"Mütter- und Väterberatungsstelle Altstetten 1"}}
,{"type":"Feature","geometry":{"type":"Point","coordinates":[8.54254440941664,47.3946412361383]},"properties":{"Ort":"Zürich","www":"http://www.stadt-zuerich.ch/mvb","Adresse":"Scheuchzerstrasse 184","PLZ":"8057","Tel":"","Name":"Mütter- und Väterberatungsstelle Milchbuck"}}
,{"type":"Feature","geometry":{"type":"Point","coordinates":[8.51311207144497,47.4157512648168]},"properties":{"Ort":"Zürich","www":"http://www.stadt-zuerich.ch/mvb","Adresse":"Wehntalerstrasse 440","PLZ":"8046","Tel":"","Name":"Mütter- und Väterberatungsstelle Affoltern 2"}}
,{"type":"Feature","geometry":{"type":"Point","coordinates":[8.53987731509052,47.4149236050614]},"properties":{"Ort":"Zürich","www":"http://www.stadt-zuerich.ch/mvb","Adresse":"Otto-Schütz-Weg 9","PLZ":"8050","Tel":"","Name":"Mütter- und Väterberatungsstelle Neu-Oerlikon"}}
,{"type":"Feature","geometry":{"type":"Point","coordinates":[8.55390981194577,47.3591900008301]},"properties":{"Ort":"Zürich","www":"http://www.stadt-zuerich.ch/mvb","Adresse":"Seefeldstrasse 93","PLZ":"8008","Tel":"","Name":"Mütter- und Väterberatungsstelle Seefeld"}}
,{"type":"Feature","geometry":{"type":"Point","coordinates":[8.50067467565302,47.4007815882134]},"properties":{"Ort":"Zürich","www":"http://www.stadt-zuerich.ch/mvb","Adresse":"Ackersteinstrasse 186","PLZ":"8049","Tel":"","Name":"Mütter- und Väterberatungsstelle Höngg"}}
,{"type":"Feature","geometry":{"type":"Point","coordinates":[8.51994027972139,47.3715577035631]},"properties":{"Ort":"Zürich","www":"http://www.stadt-zuerich.ch/mvb","Adresse":"Zentralstrasse 34","PLZ":"8003","Tel":"","Name":"Mütter- und Väterberatungsstelle Wiedikon 2"}}
,{"type":"Feature","geometry":{"type":"Point","coordinates":[8.52290746443363,47.3865787298507]},"properties":{"Ort":"Zürich","www":"http://www.stadt-zuerich.ch/mvb","Adresse":"Viaduktstrasse 55","PLZ":"8005","Tel":"","Name":"Mütter- und Väterberatungsstelle Industrie"}}
,{"type":"Feature","geometry":{"type":"Point","coordinates":[8.47248250048502,47.3885074299832]},"properties":{"Ort":"Zürich","www":"http://www.stadt-zuerich.ch/mvb","Adresse":"Salzweg 1","PLZ":"8048","Tel":"","Name":"Mütter- und Väterberatungsstelle Altstetten 2"}}
,{"type":"Feature","geometry":{"type":"Point","coordinates":[8.55032998982617,47.4223882922959]},"properties":{"Ort":"Zürich","www":"http://www.stadt-zuerich.ch/mvb","Adresse":"Glatttalstrasse 1","PLZ":"8052","Tel":"","Name":"Mütter- und Väterberatungsstelle Seebach"}}
,{"type":"Feature","geometry":{"type":"Point","coordinates":[8.541047119438,47.3888626758483]},"properties":{"Ort":"Zürich","www":"http://www.stadt-zuerich.ch/mvb","Adresse":"Langmauerstrasse 7","PLZ":"8006","Tel":"","Name":"Mütter- und Väterberatungsstelle Quartierhaus 6"}}
,{"type":"Feature","geometry":{"type":"Point","coordinates":[8.55861792351672,47.368418465317]},"properties":{"Ort":"Zürich","www":"http://www.stadt-zuerich.ch/mvb","Adresse":"Asylstrasse 36","PLZ":"8032","Tel":"","Name":"Mütter- und Väterberatungsstelle Hottingen"}}
,{"type":"Feature","geometry":{"type":"Point","coordinates":[8.57351247535062,47.4044336806631]},"properties":{"Ort":"Zürich","www":"http://www.stadt-zuerich.ch/mvb","Adresse":"Winterthurerstrasse 537","PLZ":"8051","Tel":"","Name":"Mütter- und Väterberatungsstelle Schwamendingen"}}
,{"type":"Feature","geometry":{"type":"Point","coordinates":[8.51421055566277,47.3264733557235]},"properties":{"Ort":"Zürich","www":"","Adresse":"Leimbachstrasse 200","PLZ":"8041","Tel":"","Name":"Mütter- und Väterberatungsstelle Leimbach"}}
,{"type":"Feature","geometry":{"type":"Point","coordinates":[8.54457154558276,47.3697772392262]},"properties":{"Ort":"Zürich","www":"http://www.stadt-zuerich.ch/mvb","Adresse":"Kirchgasse 14","PLZ":"8001","Tel":"","Name":"Mütter- und Väterberatungsstelle Altstadt"}}
,{"type":"Feature","geometry":{"type":"Point","coordinates":[8.52954263302557,47.3593958700097]},"properties":{"Ort":"Zürich","www":"http://www.stadt-zuerich.ch/mvb","Adresse":"Gablerstrasse 20","PLZ":"8002","Tel":"","Name":"Mütter- und Väterberatungsstelle Enge"}}
,{"type":"Feature","geometry":{"type":"Point","coordinates":[8.58599479032362,47.3577690143948]},"properties":{"Ort":"Zürich","www":"http://www.stadt-zuerich.ch/mvb","Adresse":"Heilighüsli 9","PLZ":"8053","Tel":"","Name":"Mütter- und Väterberatungsstelle Witikon"}}
,{"type":"Feature","geometry":{"type":"Point","coordinates":[8.51093043678025,47.4245506612952]},"properties":{"Ort":"Zürich","www":"http://www.stadt-zuerich.ch/mvb","Adresse":"Bodenacker 25","PLZ":"8046","Tel":"","Name":"Mütter- und Väterberatungsstelle Affoltern 1"}}
,{"type":"Feature","geometry":{"type":"Point","coordinates":[8.54993948292304,47.4074962926809]},"properties":{"Ort":"Zürich","www":"http://www.stadt-zuerich.ch/mvb","Adresse":"Schwamendingenstrasse 39","PLZ":"8050","Tel":"","Name":"Mütter- und Väterberatungsstelle Dorflinde"}}
,{"type":"Feature","geometry":{"type":"Point","coordinates":[8.48864615111756,47.3840348667575]},"properties":{"Ort":"Zürich","www":"http://www.stadt-zuerich.ch/mvb","Adresse":"Saumackerstrasse 83","PLZ":"8048","Tel":"","Name":"Mütter- und Väterberatungsstelle Albisrieden 1"}}
]}
