{"name":"Nachbarschaftshilfe","type":"FeatureCollection"
,"features":[
{"type":"Feature","geometry":{"type":"Point","coordinates":[8.48229823537759,47.3878603043707]},"properties":{"Ort":"Zürich","www":"http://www.nachbarschaftshilfe.ch","Adresse":"Dachslernstrasse 2","PLZ":"8048","Tel":"044 432 82 22","Name":"NBH Kreis 9"}}
,{"type":"Feature","geometry":{"type":"Point","coordinates":[8.52339587139793,47.3932148301221]},"properties":{"Ort":"Zürich","www":"http://www.nachbarschaftshilfe.ch","Adresse":"Rosengartenstrasse 1a","PLZ":"8037","Tel":"044 272 68 80","Name":"NBH Wipkingen"}}
,{"type":"Feature","geometry":{"type":"Point","coordinates":[8.57017611787288,47.4030525512269]},"properties":{"Ort":"Zürich","www":"http://www.nachbarschaftshilfe.ch","Adresse":"Hüttenkopfstrasse 14","PLZ":"8051","Tel":"044 321 01 07","Name":"NBH Schwamendingen"}}
,{"type":"Feature","geometry":{"type":"Point","coordinates":[8.55390575813472,47.3591879621146]},"properties":{"Ort":"Zürich","www":"http://www.nachbarschaftshilfe.ch","Adresse":"Seefeldstrasse 93","PLZ":"8008","Tel":"044 383 40 97","Name":"NBH Riesbach"}}
,{"type":"Feature","geometry":{"type":"Point","coordinates":[8.54513837629643,47.370293529752]},"properties":{"Ort":"Zürich","www":"http://www.nachbarschaftshilfe.ch","Adresse":"Kirchgasse 13","PLZ":"8001","Tel":"044 252 02 01","Name":"NBH Kreis 1"}}
,{"type":"Feature","geometry":{"type":"Point","coordinates":[8.50502302829489,47.3605785503299]},"properties":{"Ort":"","www":"http://www.nachbarschaftshilfe.ch","Adresse":"Borrweg 79","PLZ":"8055","Tel":"044 463 97 35","Name":"NBH Kreis 3"}}
,{"type":"Feature","geometry":{"type":"Point","coordinates":[8.51463643228794,47.3797118650246]},"properties":{"Ort":"Zürich","www":"http://www.nachbarschaftshilfe.ch","Adresse":"Bullingerstrasse 9","PLZ":"8004","Tel":"043 243 95 16","Name":"NBH Kreis 4"}}
,{"type":"Feature","geometry":{"type":"Point","coordinates":[8.55861763195536,47.3684159315033]},"properties":{"Ort":"Zürich","www":"http://www.nachbarschaftshilfe.ch","Adresse":"Asylstrasse 36","PLZ":"8032","Tel":"044 253 62 26","Name":"NBH Hottingen"}}
,{"type":"Feature","geometry":{"type":"Point","coordinates":[8.53399196558765,47.3427091254482]},"properties":{"Ort":"Zürich","www":"http://www.nachbarschaftshilfe.ch","Adresse":"Kilchbergstrasse 21","PLZ":"8038","Tel":"044 201 88 22","Name":"NBH Kreis 2"}}
,{"type":"Feature","geometry":{"type":"Point","coordinates":[8.54104765144602,47.3888659809849]},"properties":{"Ort":"Zürich","www":"http://www.nachbarschaftshilfe.ch","Adresse":"Langmauerstrasse 7","PLZ":"8006","Tel":"044 253 62 88","Name":"NBH Kreis 6"}}
,{"type":"Feature","geometry":{"type":"Point","coordinates":[8.51865616129528,47.4147233741764]},"properties":{"Ort":"Zürich","www":"http://www.nachbarschaftshilfe.ch","Adresse":"Riedenhaldenstrasse 1","PLZ":"8046","Tel":"043 299 07 25","Name":"NBH Affoltern"}}
,{"type":"Feature","geometry":{"type":"Point","coordinates":[8.54507142284779,47.4084744809294]},"properties":{"Ort":"Zürich","www":"http://www.nachbarschaftshilfe.ch","Adresse":"Baumackerstrasse 19","PLZ":"8050","Tel":"044 313 16 60","Name":"NBH Oerlikon"}}
,{"type":"Feature","geometry":{"type":"Point","coordinates":[8.54670505344647,47.4201562217015]},"properties":{"Ort":"Zürich","www":"http://www.nachbarschaftshilfe.ch","Adresse":"Höhenring 6","PLZ":"8052","Tel":"043 443 91 11","Name":"NBH Seebach"}}
]}
