{"name":"Pflegezentrum","type":"FeatureCollection"
,"features":[
{"type":"Feature","geometry":{"type":"Point","coordinates":[8.51068107892638,47.364133167631]},"properties":{"Ort":"Zürich","www":"http://www.stadt-zuerich.ch/pflegezentren","Adresse":"Sieberstrasse 22","PLZ":"8055","Tel":"044 454 15 00","Name":"Pflegezentrum Gehrenholz"}}
,{"type":"Feature","geometry":{"type":"Point","coordinates":[8.5508574180064,47.404069953729]},"properties":{"Ort":"Zürich","www":"","Adresse":"Gorwiden 2","PLZ":"8057","Tel":"044 315 11 11","Name":"Gorwiden Stiftung"}}
,{"type":"Feature","geometry":{"type":"Point","coordinates":[8.57656138094214,47.3524292489493]},"properties":{"Ort":"Zürich","www":"http://www.stadt-zuerich.ch/pflegezentren","Adresse":"Witellikerstrasse 19","PLZ":"8008","Tel":"044 386 81 11","Name":"Pflegezentrum Riesbach"}}
,{"type":"Feature","geometry":{"type":"Point","coordinates":[8.528540538752,47.3798647107102]},"properties":{"Ort":"Zürich","www":"","Adresse":"Lagerstrasse 119","PLZ":"8004","Tel":"044 298 39 00","Name":"Pflegezentrum Erlenhof"}}
,{"type":"Feature","geometry":{"type":"Point","coordinates":[8.54779273700804,47.3934935493539]},"properties":{"Ort":"Zürich","www":"http://www.stadt-zuerich.ch/pflegezentren","Adresse":"Langensteinenstrasse 65","PLZ":"8057","Tel":"044 325 50 90","Name":"Pflegezentrum Irchelpark"}}
,{"type":"Feature","geometry":{"type":"Point","coordinates":[8.48710495269401,47.3784090085242]},"properties":{"Ort":"Zürich","www":"http://www.stadt-zuerich.ch/pflegezentren","Adresse":"Flurstrasse 130","PLZ":"8047","Tel":"044 406 23 00","Name":"Pflegezentrum Bachwiesen"}}
,{"type":"Feature","geometry":{"type":"Point","coordinates":[8.55827124867026,47.3801608952194]},"properties":{"Ort":"Zürich","www":"","Adresse":"Restelbergstrasse 7","PLZ":"8044","Tel":"043 268 78 78","Name":"Bethanien"}}
,{"type":"Feature","geometry":{"type":"Point","coordinates":[8.48367840592738,47.4042197816218]},"properties":{"Ort":"Zürich","www":"http://www.stadt-zuerich.ch/pflegezentren","Adresse":"Limmattalstrasse 371","PLZ":"8049","Tel":"044 414 83 00","Name":"Pflegezentrum Bombach"}}
,{"type":"Feature","geometry":{"type":"Point","coordinates":[8.60181495536475,47.3553888566098]},"properties":{"Ort":"Zürich","www":"http://www.stadt-zuerich.ch/pflegezentren","Adresse":"Kienastenwiesweg 2","PLZ":"8053","Tel":"044 414 83 00","Name":"Pflegezentrum Witikon"}}
,{"type":"Feature","geometry":{"type":"Point","coordinates":[8.73135984790732,47.2441830404823]},"properties":{"Ort":"Stäfa","www":"http://www.stadt-zuerich.ch/pflegezentren","Adresse":"Chessibühlstrasse 23","PLZ":"8712","Tel":"044 927 31 11","Name":"Pflegezentrum Seeblick"}}
,{"type":"Feature","geometry":{"type":"Point","coordinates":[8.52679911067263,47.3345950113717]},"properties":{"Ort":"Zürich","www":"http://www.stadt-zuerich.ch/pflegezentren","Adresse":"Paradiesstrasse 45","PLZ":"8038","Tel":"043 495 10 00","Name":"Pflegezentrum Entlisberg"}}
,{"type":"Feature","geometry":{"type":"Point","coordinates":[8.51554432159485,47.3990698316902]},"properties":{"Ort":"Zürich","www":"http://www.stadt-zuerich.ch/pflegezentren","Adresse":"Emil-Klöti-Strasse 25","PLZ":"8037","Tel":"044 414 60 00","Name":"Pflegezentrum Käferberg"}}
,{"type":"Feature","geometry":{"type":"Point","coordinates":[8.59411095280801,47.399965845337]},"properties":{"Ort":"Zürich","www":"http://www.stadt-zuerich.ch/pflegezentren","Adresse":"Helen-Keller-Strasse 12","PLZ":"8051","Tel":"044 325 50 00","Name":"Pflegezentrum Mattenhof"}}
,{"type":"Feature","geometry":{"type":"Point","coordinates":[8.57815002840191,47.351687028041]},"properties":{"Ort":"Zürich","www":"","Adresse":"Forchstrasse 366","PLZ":"8008","Tel":"044 387 55 55","Name":"Pflegeheim Rehalp"}}
]}
