{"name":"Quartiertreff","type":"FeatureCollection"
,"features":[
{"type":"Feature","geometry":{"type":"Point","coordinates":[8.57017080077198,47.4030542224295]},"properties":{"Ort":"Zürich","www":"http://www.stadt-zuerich.ch/huettenkopf","Adresse":"Hüttenkopfstrasse 14","PLZ":"8051","Tel":"044 321 65 88","Name":"Quartiertreff Hüttenkopf"}}
,{"type":"Feature","geometry":{"type":"Point","coordinates":[8.56849054201781,47.4037902780465]},"properties":{"Ort":"Zürich","www":"","Adresse":"Winterthurerstrasse 462","PLZ":"8051","Tel":"044 321 65 88","Name":"Lade 462"}}
,{"type":"Feature","geometry":{"type":"Point","coordinates":[8.541047119438,47.3888626758483]},"properties":{"Ort":"Zürich","www":"http://www.unterstrass.ch/Quahau.htm","Adresse":"Langmauerstrasse 7","PLZ":"8006","Tel":"044 363 32 94","Name":"Quartierhaus Kreis 6"}}
,{"type":"Feature","geometry":{"type":"Point","coordinates":[8.53987731509052,47.4149236050614]},"properties":{"Ort":"Zürich","www":"http://www.quartiertreff-accu.ch/","Adresse":"Otto-Schütz-Weg 9","PLZ":"8050","Tel":"043 333 43 36","Name":"ACCU"}}
,{"type":"Feature","geometry":{"type":"Point","coordinates":[8.57151677012637,47.41338538064]},"properties":{"Ort":"Zürich","www":"http://www.stadt-zuerich.ch/auzelg","Adresse":"Opfikonstrasse 25","PLZ":"8050","Tel":"044 321 65 88","Name":"Quartierbaracke Auzelg"}}
,{"type":"Feature","geometry":{"type":"Point","coordinates":[8.51994027972139,47.3715577035631]},"properties":{"Ort":"Zürich","www":"http://www.stadt-zuerich.ch/qt-zentralstrasse","Adresse":"Zentralstrasse 34","PLZ":"8003","Tel":"044 463 99 52","Name":"Quartiertreff Zentralstrasse"}}
,{"type":"Feature","geometry":{"type":"Point","coordinates":[8.56576888782377,47.3578333855139]},"properties":{"Ort":"Zürich","www":"http://www.quartierhof-weinegg.ch/","Adresse":"Weineggstrasse 44","PLZ":"8008","Tel":"044 381 01 99","Name":"Quartierhof Weinegg"}}
,{"type":"Feature","geometry":{"type":"Point","coordinates":[8.53019134403154,47.3639232903505]},"properties":{"Ort":"Zürich","www":"http://www.katpakam.ch","Adresse":"Grütlistrasse 4","PLZ":"8002","Tel":"044 201 32 08","Name":"Katpakam"}}
,{"type":"Feature","geometry":{"type":"Point","coordinates":[8.53590516616928,47.3687984731864]},"properties":{"Ort":"Zürich","www":"http://www.solino.ch","Adresse":"Am Schanzengraben 15","PLZ":"8002","Tel":"044 342 28 04","Name":"Solino"}}
,{"type":"Feature","geometry":{"type":"Point","coordinates":[8.52446505927928,47.3778747907889]},"properties":{"Ort":"Zürich","www":"http://www.stadt-zuerich.ch/qz-aussersihl","Adresse":"Hohlstrasse 67","PLZ":"8004","Tel":"043 243 85 70","Name":"Quartierzentrum Aussersihl"}}
,{"type":"Feature","geometry":{"type":"Point","coordinates":[8.51271547136131,47.3770492102266]},"properties":{"Ort":"Zürich","www":"http://www.stadt-zuerich.ch/popcorntreff","Adresse":"Zypressenstrasse 40","PLZ":"8003","Tel":"044 495 80 30","Name":"Popcorntreff"}}
,{"type":"Feature","geometry":{"type":"Point","coordinates":[8.505859975916,47.4215393136779]},"properties":{"Ort":"Zürich","www":"http://www.kubaa.ch","Adresse":"Bachmannweg 16","PLZ":"8048","Tel":"","Name":"Kulturbahnhof Affoltern, KuBaA"}}
,{"type":"Feature","geometry":{"type":"Point","coordinates":[8.48268261853364,47.3987058293501]},"properties":{"Ort":"Zürich","www":"http://www.igo.ch/vertigo.php","Adresse":"Bändlistrasse 86","PLZ":"8064","Tel":"044 435 10 60","Name":"Quartierfabrik Vert.igo"}}
,{"type":"Feature","geometry":{"type":"Point","coordinates":[8.52954263302557,47.3593958700097]},"properties":{"Ort":"Zürich","www":"http://www.quartiertreff.ch/","Adresse":"Gablerstrasse 20","PLZ":"8002","Tel":"044 201 60 64","Name":"Quartiertreff Enge"}}
,{"type":"Feature","geometry":{"type":"Point","coordinates":[8.55430437377941,47.3793084256052]},"properties":{"Ort":"Zürich","www":"http://lokal-fluntern.ch/willkommen/","Adresse":"Voltastrasse 58","PLZ":"8044","Tel":"043 244 92 74","Name":"Quartiertreff Fluntern"}}
,{"type":"Feature","geometry":{"type":"Point","coordinates":[8.54457154558276,47.3697772392262]},"properties":{"Ort":"Zürich","www":"http://www.stadt-zuerich.ch/karldergrosse","Adresse":"Kirchgasse 14","PLZ":"8001","Tel":"044 266 85 00","Name":"Zentrum Karl der Grosse"}}
,{"type":"Feature","geometry":{"type":"Point","coordinates":[8.53458572969123,47.3844715731349]},"properties":{"Ort":"Zürich","www":"http://www.stadt-zuerich.ch/quartierhaus5","Adresse":"Sihlquai 115","PLZ":"8005","Tel":"044 271 10 44","Name":"Quartierhaus Kreis 5"}}
,{"type":"Feature","geometry":{"type":"Point","coordinates":[8.51463643228794,47.3797118650246]},"properties":{"Ort":"Zürich","www":"http://www.stadt-zuerich.ch/bullingertreff","Adresse":"Bullingerstrasse 9","PLZ":"8004","Tel":"044 241 03 30","Name":"Bullingertreff"}}
,{"type":"Feature","geometry":{"type":"Point","coordinates":[8.50993997413355,47.3806100714173]},"properties":{"Ort":"Zürich","www":"http://www.stadt-zuerich.ch/hardau","Adresse":"Bullingerstrasse 63","PLZ":"8004","Tel":"044 495 80 30","Name":"Quartiertreff Hardau"}}
,{"type":"Feature","geometry":{"type":"Point","coordinates":[8.52309767366352,47.3861631679991]},"properties":{"Ort":"Zürich","www":"http://www.kioskjosefwiese.ch","Adresse":"Josefstrasse 197","PLZ":"8005","Tel":"043 366 81 45","Name":"Kiosk Josefwiese"}}
,{"type":"Feature","geometry":{"type":"Point","coordinates":[8.57075822631615,47.3583962118645]},"properties":{"Ort":"Zürich","www":"http://www.qth.ch","Adresse":"Forchstrasse 248","PLZ":"8032","Tel":"043 819 37 27","Name":"Quartiertreff Hirslanden"}}
]}
