{"name":"Spitex","type":"FeatureCollection"
,"features":[
{"type":"Feature","geometry":{"type":"Point","coordinates":[8.49878143441205,47.4021752104718]},"properties":{"Ort":"Zürich","www":"http://www.spitex-zuerich.ch","Adresse":"Limmattalstrasse 186","PLZ":"8049","Tel":"058 404 36 36","Name":"Spitex Höngg (Zürich Limmat)"}}
,{"type":"Feature","geometry":{"type":"Point","coordinates":[8.54349420204153,47.4167960125751]},"properties":{"Ort":"Zürich","www":"http://www.spitex-zuerich.ch","Adresse":"Eggbühlstrasse 14","PLZ":"8050","Tel":"058 404 36 36","Name":"Spitex Oerlikon-Seebach (Zürich Limmat)"}}
,{"type":"Feature","geometry":{"type":"Point","coordinates":[8.53871745016412,47.3850889356163]},"properties":{"Ort":"Zürich","www":"http://www.stadt-zuerich.ch/spitex","Adresse":"Nordstrasse 20","PLZ":"8006","Tel":"058 404 48 36","Name":"Fachstelle für präventive Beratung im Alter"}}
,{"type":"Feature","geometry":{"type":"Point","coordinates":[8.53305395462742,47.3460137702816]},"properties":{"Ort":"Zürich","www":"http://www.spitex-zuerich.ch","Adresse":"Seestrasse 352","PLZ":"8038","Tel":"043 399 71 71","Name":"Spitex Enge/Leimbach/Wollishofen (Zürich 2) (Zürich Sihl)"}}
,{"type":"Feature","geometry":{"type":"Point","coordinates":[8.51596469958106,47.3772887872654]},"properties":{"Ort":"Zürich","www":"http://www.spitex-zuerich.ch","Adresse":"Agnesstrasse 2","PLZ":"8004","Tel":"058 404 36 36","Name":"Spitex Aussersihl-Hard (Zürich Limmat)"}}
,{"type":"Feature","geometry":{"type":"Point","coordinates":[8.58604882235107,47.3584341266623]},"properties":{"Ort":"Zürich","www":"http://www.spitex-zuerich.ch","Adresse":"Witikonerstrasse 289","PLZ":"8053","Tel":"058 404 36 36","Name":"Spitex Witikon (Zürich Limmat)"}}
,{"type":"Feature","geometry":{"type":"Point","coordinates":[8.50318171581281,47.4221486999343]},"properties":{"Ort":"Zürich","www":"http://www.spitex-zuerich.ch","Adresse":"Blumenfeldstrasse 20","PLZ":"8046","Tel":"058 404 36 36","Name":"Spitex Affoltern (Zürich Limmat)"}}
,{"type":"Feature","geometry":{"type":"Point","coordinates":[8.49463974190245,47.3790599430113]},"properties":{"Ort":"Zürich","www":"http://www.spitex-zuerich.ch","Adresse":"Albisriederstrasse 232","PLZ":"8047","Tel":"044 455 39 39","Name":"Spitex Albisrieden (Spitex Sihl)"}}
,{"type":"Feature","geometry":{"type":"Point","coordinates":[8.51829882169585,47.3709254223035]},"properties":{"Ort":"Zürich","www":"http://www.spitex-zuerich.ch","Adresse":"Bremgartnerstrasse 51","PLZ":"8003","Tel":"044 455 39 39","Name":"Spitex Wiedikon/Friesenberg (Zürich Sihl)"}}
,{"type":"Feature","geometry":{"type":"Point","coordinates":[8.48500682052191,47.3848504625466]},"properties":{"Ort":"Zürich","www":"http://www.spitex-zuerich.ch","Adresse":"Altstetterstrasse 187","PLZ":"8048","Tel":"058 404 36 36","Name":"Spitex Altstetten (Zürich Limmat)"}}
,{"type":"Feature","geometry":{"type":"Point","coordinates":[8.55527178336,47.3584841946241]},"properties":{"Ort":"Zürich","www":"http://www.spitex-zuerich.ch","Adresse":"Riesbachstrasse 59","PLZ":"8008","Tel":"058 404 36 36","Name":"Spitex Seefeld (Zürich Limmat)"}}
,{"type":"Feature","geometry":{"type":"Point","coordinates":[8.54748700577782,47.3864442946871]},"properties":{"Ort":"Zürich","www":"http://www.spitex-zuerich.ch","Adresse":"Winterthurerstrasse 25","PLZ":"8006","Tel":"058 404 36 36","Name":"Spitex Rigiplatz (Zürich Limmat)"}}
,{"type":"Feature","geometry":{"type":"Point","coordinates":[8.56926201796142,47.4045563118904]},"properties":{"Ort":"Zürich","www":"http://www.spitex-zuerich.ch","Adresse":"Friedrichstrasse 9","PLZ":"8051","Tel":"058 404 36 36","Name":"Spitex Schwamendingen (Zürich Limmat)"}}
,{"type":"Feature","geometry":{"type":"Point","coordinates":[8.52681641542095,47.391201437471]},"properties":{"Ort":"Zürich","www":"http://www.spitex-zuerich.ch","Adresse":"Burgstrasse 17","PLZ":"8037","Tel":"043 444 77 44","Name":"Spitex Wipkingen/Industrie (Zürich Sihl)"}}
]}
