{"name":"Sporthalle","type":"FeatureCollection"
,"features":[
{"type":"Feature","geometry":{"type":"Point","coordinates":[8.51460708560814,47.333665890321]},"properties":{"Ort":"Zürich","www":"http://www.stadt-zuerich.ch/content/ssd/de/index/sport/anlagen/miete.html","Adresse":"Rebenstrasse 73","PLZ":"8041","Tel":"044 485 45 67","Name":"Sporthalle Falletsche"}}
,{"type":"Feature","geometry":{"type":"Point","coordinates":[8.54004831920931,47.4276678614187]},"properties":{"Ort":"Zürich","www":"http://www.stadt-zuerich.ch/content/ssd/de/index/sport/anlagen/miete.html","Adresse":"Schönauweg 15","PLZ":"8052","Tel":"044 306 41 57","Name":"Sporthalle Buchwiesen"}}
,{"type":"Feature","geometry":{"type":"Point","coordinates":[8.56281224503096,47.4134704007548]},"properties":{"Ort":"Zürich","www":"http://www.stadt-zuerich.ch/content/ssd/de/index/sport/anlagen/miete.html","Adresse":"Saatlenfussweg 3","PLZ":"8050","Tel":"044 317 80 17","Name":"Sporthalle Leutschenbach"}}
,{"type":"Feature","geometry":{"type":"Point","coordinates":[8.55556818332517,47.4067403989071]},"properties":{"Ort":"Zürich","www":"http://www.stadt-zuerich.ch/content/ssd/de/index/sport/anlagen/miete.html","Adresse":"","PLZ":"8050","Tel":"043 300 61 74","Name":"Sporthalle Apfelbaum"}}
,{"type":"Feature","geometry":{"type":"Point","coordinates":[8.58193514748167,47.4011663708108]},"properties":{"Ort":"Zürich","www":"http://www.stadt-zuerich.ch/content/ssd/de/index/sport/anlagen/miete.html","Adresse":"Dübendorfstrasse 158","PLZ":"8051","Tel":"044 325 37 79","Name":"Sporthalle Stettbach"}}
,{"type":"Feature","geometry":{"type":"Point","coordinates":[8.58698712796951,47.4044354740813]},"properties":{"Ort":"Zürich","www":"http://www.stadt-zuerich.ch/content/ssd/de/index/sport/anlagen/miete.html","Adresse":"Luchswiesenstrasse 186","PLZ":"8051","Tel":"043 299 40 20","Name":"Sporthalle Hirzenbach"}}
,{"type":"Feature","geometry":{"type":"Point","coordinates":[8.52603338680577,47.3690717800924]},"properties":{"Ort":"","www":"http://www.stadt-zuerich.ch/content/ssd/de/index/sport/anlagen/miete.html","Adresse":"Manessestrasse 1","PLZ":"8003","Tel":"","Name":"Sporthalle Sihlhölzli"}}
,{"type":"Feature","geometry":{"type":"Point","coordinates":[8.49782480187282,47.3793995634654]},"properties":{"Ort":"Zürich","www":"http://www.stadt-zuerich.ch/content/ssd/de/index/sport/anlagen/miete.html","Adresse":"Dennlerstrasse 43a","PLZ":"8047","Tel":"044 492 16 89","Name":"Sporthalle Utogrund"}}
,{"type":"Feature","geometry":{"type":"Point","coordinates":[8.51196977145395,47.4208800441158]},"properties":{"Ort":"Zürich","www":"http://www.stadt-zuerich.ch/content/ssd/de/index/sport/anlagen/miete.html","Adresse":"Fronwaldstrasse 115","PLZ":"8046","Tel":"044 372 04 80","Name":"Sporthalle Fronwald"}}
,{"type":"Feature","geometry":{"type":"Point","coordinates":[8.54018368898298,47.4156402857963]},"properties":{"Ort":"Zürich","www":"http://www.stadt-zuerich.ch/content/ssd/de/index/sport/anlagen/miete.html","Adresse":"Margrit-Rainer-Strasse 5","PLZ":"8050","Tel":"043 300 67 60","Name":"Sporthalle Im Birch"}}
,{"type":"Feature","geometry":{"type":"Point","coordinates":[8.52001529284646,47.3569848976228]},"properties":{"Ort":"Zürich","www":"http://www.stadt-zuerich.ch/content/ssd/de/index/sport/anlagen/miete.html","Adresse":"Giesshübelstrasse 41","PLZ":"8045","Tel":"044 468 77 00","Name":"Saalsporthalle"}}
,{"type":"Feature","geometry":{"type":"Point","coordinates":[8.50922194452653,47.3824427339825]},"properties":{"Ort":"Zürich","www":"http://www.stadt-zuerich.ch/content/ssd/de/index/sport/anlagen/miete.html","Adresse":"Bullingerstrasse 80","PLZ":"8004","Tel":"044 406 28 60","Name":"Sporthalle Hardau"}}
]}
