{"name":"Stadtpolizei","type":"FeatureCollection"
,"features":[
{"type":"Feature","geometry":{"type":"Point","coordinates":[8.53613494816915,47.3574533937396]},"properties":{"Ort":"Zürich","www":"http://www.wasserschutzpolizei.ch","Adresse":"Mythenquai 73","PLZ":"8002","Tel":"044 411 84 11","Name":"Wache Wasserschutzpolizei"}}
,{"type":"Feature","geometry":{"type":"Point","coordinates":[8.56239916270409,47.3480704110454]},"properties":{"Ort":"Zürich","www":"http://www.wasserschutzpolizei.ch","Adresse":"Bellerivestrasse 260","PLZ":"8008","Tel":"044 411 84 02","Name":"Dienstgebäude Tiefenbrunnen Wasserschutzpolizei"}}
,{"type":"Feature","geometry":{"type":"Point","coordinates":[8.52944179439316,47.3874526901623]},"properties":{"Ort":"Zürich","www":"http://www.stadtpolizei.ch","Adresse":"Fabrikstrasse 1","PLZ":"8005","Tel":"044 411 62 30","Name":"Regionalwache Industrie"}}
,{"type":"Feature","geometry":{"type":"Point","coordinates":[8.52495517667574,47.3733366229127]},"properties":{"Ort":"Zürich","www":"","Adresse":"Grüngasse 19","PLZ":"8004","Tel":"044 411 74 44","Name":"Kommissariat Prävention und Kommunikation"}}
,{"type":"Feature","geometry":{"type":"Point","coordinates":[8.53071883220994,47.3754500817092]},"properties":{"Ort":"Zürich","www":"","Adresse":"Zeughausstrasse 31","PLZ":"8004","Tel":"044 411 64 60","Name":"Jugenddienst"}}
,{"type":"Feature","geometry":{"type":"Point","coordinates":[8.56865089208992,47.412594895767]},"properties":{"Ort":"Zürich","www":"","Adresse":"Aubruggweg 2","PLZ":"8050","Tel":"044 322 55 46","Name":"Schulinstruktion"}}
,{"type":"Feature","geometry":{"type":"Point","coordinates":[8.52495517667574,47.3733366229127]},"properties":{"Ort":"Zürich","www":"","Adresse":"Grüngasse 19","PLZ":"8004","Tel":"044 411 64 25","Name":"Büro für Waffenbelange"}}
,{"type":"Feature","geometry":{"type":"Point","coordinates":[8.53258148795864,47.3726529433216]},"properties":{"Ort":"Zürich","www":"","Adresse":"Selnaustrasse 27","PLZ":"8001","Tel":"","Name":"Bewilligungsbüro Strassenprostitution"}}
,{"type":"Feature","geometry":{"type":"Point","coordinates":[8.52494175436009,47.3733277540961]},"properties":{"Ort":"Zürich","www":"http://www.stadtpolizei.ch","Adresse":"Grüngasse 19","PLZ":"8004","Tel":"044 411 74 70","Name":"Schulinstruktion"}}
,{"type":"Feature","geometry":{"type":"Point","coordinates":[8.53071883220994,47.3754500817092]},"properties":{"Ort":"Zürich","www":"","Adresse":"Zeughausstrasse 31","PLZ":"8004","Tel":"044 411 97 97","Name":"Wissenschaftlicher Forschungsdienst"}}
,{"type":"Feature","geometry":{"type":"Point","coordinates":[8.51446140783243,47.3913711517715]},"properties":{"Ort":"Zürich","www":"","Adresse":"Förrlibuckstrasse 61","PLZ":"8005","Tel":"044 411 73 73","Name":"Kommissariat Polizeibewilligungen"}}
,{"type":"Feature","geometry":{"type":"Point","coordinates":[8.5421873609004,47.3767712900926]},"properties":{"Ort":"","www":"http://www.stadt-zuerich.ch/content/pd/de/index/stadtpolizei_zuerich/verkehr/verkehrspolizei/abschleppwesen.html","Adresse":"Bahnhofbrücke 1","PLZ":"","Tel":"044 411 86 90","Name":"Abschleppwesen"}}
,{"type":"Feature","geometry":{"type":"Point","coordinates":[8.54090209685634,47.3741749636862]},"properties":{"Ort":"Zürich","www":"","Adresse":"Uraniastrasse 3","PLZ":"8001","Tel":"044 411 90 02","Name":"Polizeimuseum"}}
,{"type":"Feature","geometry":{"type":"Point","coordinates":[8.51930905438786,47.3704662125795]},"properties":{"Ort":"Zürich","www":"http://www.stadtpolizei.ch","Adresse":"Zurlindenstrasse 87","PLZ":"8003","Tel":"044 411 61 10","Name":"Regionalwache Wiedikon"}}
,{"type":"Feature","geometry":{"type":"Point","coordinates":[8.48605302917697,47.3868648531971]},"properties":{"Ort":"Zürich","www":"http://www.stadt-zuerich.ch/content/pd/de/index/stadtpolizei_zuerich/ueber_uns/standorte/quartierwachen/altstetten.html","Adresse":"Altstetterstrasse 162","PLZ":"8048","Tel":"044 411 61 23","Name":"Quartierwache Altstetten"}}
,{"type":"Feature","geometry":{"type":"Point","coordinates":[8.54161082988306,47.3751486719062]},"properties":{"Ort":"Zürich","www":"","Adresse":"Bahnhofquai 3","PLZ":"8001","Tel":"044 411 87 80","Name":"Wache Sonderkommisariat"}}
,{"type":"Feature","geometry":{"type":"Point","coordinates":[8.53070559274858,47.3754502069377]},"properties":{"Ort":"Zürich","www":"","Adresse":"Zeughausstrasse 31","PLZ":"8004","Tel":"044 411 64 10","Name":"Gewaltdelikte"}}
,{"type":"Feature","geometry":{"type":"Point","coordinates":[8.54161082988306,47.3751486719062]},"properties":{"Ort":"Zürich","www":"","Adresse":"Bahnhofquai 3","PLZ":"8001","Tel":"044 411 91 91","Name":"Kommissariat Prävention und Kommunikation"}}
,{"type":"Feature","geometry":{"type":"Point","coordinates":[8.54160565406339,47.3751519595893]},"properties":{"Ort":"Zürich","www":"","Adresse":"Bahnhofquai 3","PLZ":"8001","Tel":"044 411 85 00","Name":"Schweizerische Zentralstelle Hooliganismus"}}
,{"type":"Feature","geometry":{"type":"Point","coordinates":[8.54161082988306,47.3751486719062]},"properties":{"Ort":"Zürich","www":"http://www.stadtpolizei.ch","Adresse":"Bahnhofquai 3","PLZ":"8001","Tel":"044 411 81 10","Name":"Regionalwache City"}}
,{"type":"Feature","geometry":{"type":"Point","coordinates":[8.5417514169154,47.3755431167373]},"properties":{"Ort":"Zürich","www":"http://www.stadt-zuerich.ch/content/pd/de/index/stadtpolizei_zuerich/ueber_uns/standorte/detektivposten/city.html","Adresse":"Bahnhofquai 5","PLZ":"8001","Tel":"044 411 82 00","Name":"Detektivposten City"}}
,{"type":"Feature","geometry":{"type":"Point","coordinates":[8.5421873609004,47.3767712900926]},"properties":{"Ort":"Zürich","www":"http://www.stadt-zuerich.ch/content/pd/de/index/stadtpolizei_zuerich/verkehr/verkehrspolizei/wache_verkehrspolizei.html","Adresse":"Bahnhofbrücke 1","PLZ":"8001","Tel":"044 411 86 70","Name":"Wache Verkehrspolizei"}}
,{"type":"Feature","geometry":{"type":"Point","coordinates":[8.5417514169154,47.3755431167373]},"properties":{"Ort":"Zürich","www":"http://www.stadtpolizei.ch","Adresse":"Bahnhofquai 5","PLZ":"8001","Tel":"044 411 76 76","Name":"Zentralstelle für Verkehrs- und Ordnungsbussen"}}
,{"type":"Feature","geometry":{"type":"Point","coordinates":[8.51190116686416,47.3517445110209]},"properties":{"Ort":"Zürich","www":"http://www.stadt-zuerich.ch/content/pd/de/index/stadtpolizei_zuerich/ueber_uns/standorte/spezialwachen/diensthundewesen1.html","Adresse":"Gänzilooweg 18","PLZ":"8045","Tel":"044 411 61 80","Name":"Diensthundewesen"}}
,{"type":"Feature","geometry":{"type":"Point","coordinates":[8.54174519034093,47.3755449032733]},"properties":{"Ort":"Zürich","www":"","Adresse":"Bahnhofquai 5","PLZ":"8001","Tel":"044 411 97 43","Name":"Unfalltechnischer Dienst"}}
,{"type":"Feature","geometry":{"type":"Point","coordinates":[8.54159759039336,47.3751487983265]},"properties":{"Ort":"Zürich","www":"","Adresse":"Bahnhofquai 3","PLZ":"8001","Tel":"044 411 90 10","Name":"Kommandokanzlei"}}
,{"type":"Feature","geometry":{"type":"Point","coordinates":[8.5421873609004,47.3767712900926]},"properties":{"Ort":"","www":"http://www.stadt-zuerich.ch/content/pd/de/index/stadtpolizei_zuerich/verkehr/verkehrspolizei/sondereinsaetze.html","Adresse":"Bahnhofbrücke 1","PLZ":"","Tel":"044 411 86 14","Name":"Sondereinsätze"}}
,{"type":"Feature","geometry":{"type":"Point","coordinates":[8.5417514169154,47.3755431167373]},"properties":{"Ort":"Zürich","www":"","Adresse":"Bahnhofquai 5","PLZ":"8001","Tel":"044 411 92 16","Name":"Personaldienst"}}
,{"type":"Feature","geometry":{"type":"Point","coordinates":[8.54161082988306,47.3751486719062]},"properties":{"Ort":"Zürich","www":"","Adresse":"Bahnhofquai 3","PLZ":"8001","Tel":"044 411 91 91","Name":"Kommissariat Prävention und Kommunikation"}}
,{"type":"Feature","geometry":{"type":"Point","coordinates":[8.51444798270055,47.391362281724]},"properties":{"Ort":"Zürich","www":"","Adresse":"Förrlibuckstrasse 61","PLZ":"8005","Tel":"044 411 71 17","Name":"Kommissariat Gewerbedelikte"}}
,{"type":"Feature","geometry":{"type":"Point","coordinates":[8.53071270200674,47.3754507693553]},"properties":{"Ort":"Zürich","www":"","Adresse":"Zeughausstrasse 31","PLZ":"8004","Tel":"044 411 64 30","Name":"Milieu- und Sexualdelikte"}}
,{"type":"Feature","geometry":{"type":"Point","coordinates":[8.51190116686416,47.3517445110209]},"properties":{"Ort":"Zürich","www":"","Adresse":"Gänzilooweg 18","PLZ":"8045","Tel":"044 411 61 92","Name":"Hundekontrolle der Stadt Zürich"}}
,{"type":"Feature","geometry":{"type":"Point","coordinates":[8.53924270826318,47.3899005195472]},"properties":{"Ort":"","www":"","Adresse":"Schaffhauserstrasse 26","PLZ":"","Tel":"","Name":"Verwaltungs- und Fahndungsaufträge"}}
,{"type":"Feature","geometry":{"type":"Point","coordinates":[8.51446028894092,47.3913682208026]},"properties":{"Ort":"Zürich","www":"","Adresse":"Förrlibuckstrasse 61","PLZ":"8005","Tel":"044 411 85 82","Name":"Kommissariat Verkehrspolizei"}}
,{"type":"Feature","geometry":{"type":"Point","coordinates":[8.50093032526678,47.4016427595928]},"properties":{"Ort":"Zürich","www":"http://www.stadt-zuerich.ch/content/pd/de/index/stadtpolizei_zuerich/ueber_uns/standorte/quartierwachen/hoengg.html","Adresse":"Limmattalstrasse 160","PLZ":"8049","Tel":"044 411 62 50","Name":"Quartierwache Höngg"}}
,{"type":"Feature","geometry":{"type":"Point","coordinates":[8.54650615205485,47.4074213263273]},"properties":{"Ort":"Zürich","www":"http://www.stadt-zuerich.ch/content/pd/de/index/stadtpolizei_zuerich/ueber_uns/standorte/detektivposten/oerlikon.html","Adresse":"Gubelstrasse 1","PLZ":"8050","Tel":"044 411 83 70","Name":"Detektivposten Oerlikon"}}
,{"type":"Feature","geometry":{"type":"Point","coordinates":[8.57451269440917,47.4041180169603]},"properties":{"Ort":"Zürich","www":"http://www.stadt-zuerich.ch/content/pd/de/index/stadtpolizei_zuerich/ueber_uns/standorte/quartierwachen/schwamendingen.html","Adresse":"Dübendorfstrasse 5","PLZ":"8051","Tel":"044 411 83 34","Name":"Quartierwache Schwamendingen"}}
,{"type":"Feature","geometry":{"type":"Point","coordinates":[8.53924062213617,47.3898963566844]},"properties":{"Ort":"Zürich","www":"http://www.stadt-zuerich.ch/content/pd/de/index/stadtpolizei_zuerich/ueber_uns/standorte/weitere_dienststellen/dienststelle-ausweisverluste.html","Adresse":"Schaffhauserstrasse 26","PLZ":"8006","Tel":"044 411 63 80","Name":"Ausweisverluste"}}
,{"type":"Feature","geometry":{"type":"Point","coordinates":[8.56239916270409,47.3480704110454]},"properties":{"Ort":"Zürich","www":"http://www.wasserschutzpolizei.ch","Adresse":"Bellerivestrasse 260","PLZ":"8034","Tel":"044 411 84 42","Name":"Hafenverwaltung"}}
,{"type":"Feature","geometry":{"type":"Point","coordinates":[8.5411288337027,47.3883311819641]},"properties":{"Ort":"Zürich","www":"http://www.stadt-zuerich.ch/content/pd/de/index/stadtpolizei_zuerich/ueber_uns/standorte/quartierwachen/unterstrass.html","Adresse":"Röslistrasse 10","PLZ":"8006","Tel":"044 411 83 43","Name":"Quartierwache Unterstrass"}}
,{"type":"Feature","geometry":{"type":"Point","coordinates":[8.55617702054636,47.3694585902132]},"properties":{"Ort":"Zürich","www":"http://www.stadt-zuerich.ch/content/pd/de/index/stadtpolizei_zuerich/ueber_uns/standorte/quartierwachen/hottingen.html","Adresse":"Gemeindestrasse 54","PLZ":"8032","Tel":"044 411 81 83","Name":"Quartierwache Hottingen"}}
,{"type":"Feature","geometry":{"type":"Point","coordinates":[8.54650615205485,47.4074213263273]},"properties":{"Ort":"Zürich","www":"http://www.stadtpolizei.ch","Adresse":"Gubelstrasse 1","PLZ":"8050","Tel":"044 411 83 11","Name":"Regionalwache Oerlikon"}}
,{"type":"Feature","geometry":{"type":"Point","coordinates":[8.51446140783243,47.3913711517715]},"properties":{"Ort":"Zürich","www":"http://www.stadt-zuerich.ch/content/pd/de/index/stadtpolizei_zuerich/bewilligungen_informationen/planung.html","Adresse":"Förrlibuckstrasse 61","PLZ":"8005","Tel":"044 411 73 66","Name":"Büro für Veranstaltungen"}}
,{"type":"Feature","geometry":{"type":"Point","coordinates":[8.53144972501962,47.3749304411898]},"properties":{"Ort":"Zürich","www":"","Adresse":"Zeughausstrasse 11","PLZ":"8004","Tel":"044 411 96 96","Name":"Forensisches Institut Zürich"}}
,{"type":"Feature","geometry":{"type":"Point","coordinates":[8.51444798270055,47.391362281724]},"properties":{"Ort":"Zürich","www":"","Adresse":"Förrlibuckstrasse 61","PLZ":"8005","Tel":"044 411 73 50/51","Name":"Kommissariat Polizeibewilligungen"}}
,{"type":"Feature","geometry":{"type":"Point","coordinates":[8.53070559274858,47.3754502069377]},"properties":{"Ort":"Zürich","www":"","Adresse":"Zeughausstrasse 31","PLZ":"8004","Tel":"044 411 64 80","Name":"Kinderschutz"}}
,{"type":"Feature","geometry":{"type":"Point","coordinates":[8.5421873609004,47.3767712900926]},"properties":{"Ort":"","www":"http://www.stadt-zuerich.ch/content/pd/de/index/stadtpolizei_zuerich/verkehr/verkehrspolizei/sdr.html","Adresse":"Bahnhofbrücke 1","PLZ":"","Tel":"044 411 86 11","Name":"Gefahrgutbeauftragter"}}
,{"type":"Feature","geometry":{"type":"Point","coordinates":[8.51444798270055,47.391362281724]},"properties":{"Ort":"Zürich","www":"","Adresse":"Förrlibuckstrasse 61","PLZ":"8005","Tel":"044 411 73 11","Name":"Kommissariat Polizeibewilligungen"}}
,{"type":"Feature","geometry":{"type":"Point","coordinates":[8.53137076993618,47.3652703949517]},"properties":{"Ort":"Zürich","www":"http://www.stadt-zuerich.ch/content/pd/de/index/stadtpolizei_zuerich/ueber_uns/standorte/quartierwachen/enge.html","Adresse":"Bederstrasse 2","PLZ":"8002","Tel":"044 411 81 43","Name":"Quartierwache Enge"}}
,{"type":"Feature","geometry":{"type":"Point","coordinates":[8.51930905438786,47.3704662125795]},"properties":{"Ort":"Zürich","www":"http://www.stadt-zuerich.ch/content/pd/de/index/stadtpolizei_zuerich/ueber_uns/standorte/detektivposten/wiedikon.html","Adresse":"Zurlindenstrasse 87","PLZ":"8003","Tel":"044 411 61 40","Name":"Detektivposten Wiedikon"}}
,{"type":"Feature","geometry":{"type":"Point","coordinates":[8.52884423432651,47.3789669157494]},"properties":{"Ort":"Zürich","www":"http://www.stadtpolizei.ch","Adresse":"Militärstrasse 105","PLZ":"8004","Tel":"044 411 62 10","Name":"Regionalwache Aussersihl"}}
,{"type":"Feature","geometry":{"type":"Point","coordinates":[8.52884423432651,47.3789669157494]},"properties":{"Ort":"Zürich","www":"http://www.stadt-zuerich.ch/content/pd/de/index/stadtpolizei_zuerich/ueber_uns/standorte/detektivposten/aussersihl.html","Adresse":"Militärstrasse 105","PLZ":"8004","Tel":"044 411 62 60","Name":"Detektivposten Aussersihl"}}
,{"type":"Feature","geometry":{"type":"Point","coordinates":[8.55368619109225,47.3605234566085]},"properties":{"Ort":"Zürich","www":"http://www.stadt-zuerich.ch/content/pd/de/index/stadtpolizei_zuerich/ueber_uns/standorte/quartierwachen/riesbach.html","Adresse":"Riesbachstrasse 3","PLZ":"8008","Tel":"044 411 82 63","Name":"Quartierwache Riesbach"}}
,{"type":"Feature","geometry":{"type":"Point","coordinates":[8.50766104895525,47.4194897905185]},"properties":{"Ort":"Zürich","www":"http://www.stadt-zuerich.ch/content/pd/de/index/stadtpolizei_zuerich/ueber_uns/standorte/quartierwachen/affoltern.html","Adresse":"In Böden 173","PLZ":"8046","Tel":"044 411 83 53","Name":"Quartierwache Affoltern"}}
,{"type":"Feature","geometry":{"type":"Point","coordinates":[8.54161082988306,47.3751486719062]},"properties":{"Ort":"Zürich","www":"","Adresse":"Bahnhofquai 3","PLZ":"8001","Tel":"044 411 91 11","Name":"Mediendienst"}}
,{"type":"Feature","geometry":{"type":"Point","coordinates":[8.54552691447682,47.3749762842501]},"properties":{"Ort":"Zürich","www":"","Adresse":"Seilergraben 43","PLZ":"8001","Tel":"044 411 82 70","Name":"Wache Seilergraben"}}
,{"type":"Feature","geometry":{"type":"Point","coordinates":[8.53144972501962,47.3749304411898]},"properties":{"Ort":"Zürich","www":"","Adresse":"Zeughausstrasse 11","PLZ":"8004","Tel":"044 411 67 67","Name":"Haftsachen und Detektivbüro Zeughausstrasse"}}
,{"type":"Feature","geometry":{"type":"Point","coordinates":[8.51444798270055,47.391362281724]},"properties":{"Ort":"Zürich","www":"","Adresse":"Förrlibuckstrasse 61","PLZ":"8005","Tel":"044 411 73 41/43-47","Name":"Kommissariat Polizeibewilligungen"}}
,{"type":"Feature","geometry":{"type":"Point","coordinates":[8.54161082988306,47.3751486719062]},"properties":{"Ort":"Zürich","www":"","Adresse":"Bahnhofquai 3","PLZ":"8001","Tel":"044 411 71 17","Name":"Stadtpolizei Zürich"}}
,{"type":"Feature","geometry":{"type":"Point","coordinates":[8.54160565406339,47.3751519595893]},"properties":{"Ort":"Zürich","www":"","Adresse":"Bahnhofquai 3","PLZ":"8001","Tel":"044 411 74 03","Name":"Koordinationsstelle Katastrophenvorsorge"}}
]}
