{"name":"Stimmlokal","type":"FeatureCollection"
,"features":[
{"type":"Feature","geometry":{"type":"Point","coordinates":[8.53255623986269,47.361103407714]},"properties":{"Ort":"Zürich","www":"http://www.stadt-zuerich.ch/abstimmungen","Adresse":"Schulhausstrasse 1","PLZ":"8002","Tel":"","Name":"Schulhaus Lavater"}}
,{"type":"Feature","geometry":{"type":"Point","coordinates":[8.51644195901993,47.3334508781845]},"properties":{"Ort":"Zürich","www":"http://www.stadt-zuerich.ch/abstimmungen","Adresse":"Wegackerstrasse 40","PLZ":"8041","Tel":"","Name":"Schulhaus Leimbach"}}
,{"type":"Feature","geometry":{"type":"Point","coordinates":[8.51931279267843,47.3704664294404]},"properties":{"Ort":"Zürich","www":"http://www.stadt-zuerich.ch/abstimmungen","Adresse":"Zurlindenstrasse 87","PLZ":"8003","Tel":"","Name":"Kreisbüro 3"}}
,{"type":"Feature","geometry":{"type":"Point","coordinates":[8.48099007963597,47.4144353798257]},"properties":{"Ort":"Zürich","www":"http://www.stadt-zuerich.ch/abstimmungen","Adresse":"Geeringstrasse 30a","PLZ":"8049","Tel":"","Name":"Pavillon Rütihof"}}
,{"type":"Feature","geometry":{"type":"Point","coordinates":[8.58248941369539,47.4041472648607]},"properties":{"Ort":"Zürich","www":"http://www.stadt-zuerich.ch/abstimmungen","Adresse":"Glattwiesenstrasse 86","PLZ":"8051","Tel":"","Name":"Schulhaus Luchswiesen"}}
,{"type":"Feature","geometry":{"type":"Point","coordinates":[8.54696077384562,47.4190745225707]},"properties":{"Ort":"Zürich","www":"http://www.stadt-zuerich.ch/abstimmungen","Adresse":"Bahnhaldenstrasse 5","PLZ":"8052","Tel":"","Name":"Poststelle Seebach"}}
,{"type":"Feature","geometry":{"type":"Point","coordinates":[8.5257663515676,47.3754518441032]},"properties":{"Ort":"Zürich","www":"http://www.stadt-zuerich.ch/abstimmungen","Adresse":"Kanzleistrasse 56","PLZ":"8004","Tel":"","Name":"Schulhaus Kanzlei"}}
,{"type":"Feature","geometry":{"type":"Point","coordinates":[8.54900306839456,47.3822919551887]},"properties":{"Ort":"Zürich","www":"http://www.stadt-zuerich.ch/abstimmungen","Adresse":"Huttenstrasse 14","PLZ":"8006","Tel":"","Name":"Schulhaus Huttenstrasse"}}
,{"type":"Feature","geometry":{"type":"Point","coordinates":[8.48778477007456,47.3759472012809]},"properties":{"Ort":"Zürich","www":"http://www.stadt-zuerich.ch/abstimmungen","Adresse":"Albisriederstrasse 330","PLZ":"8047","Tel":"","Name":"Albisriederhaus"}}
,{"type":"Feature","geometry":{"type":"Point","coordinates":[8.58830001123639,47.3989713780798]},"properties":{"Ort":"Zürich","www":"http://www.stadt-zuerich.ch/abstimmungen","Adresse":"Dübendorfstrasse 300","PLZ":"8051","Tel":"","Name":"Schulhaus Mattenhof"}}
,{"type":"Feature","geometry":{"type":"Point","coordinates":[8.54163567041637,47.3693105792271]},"properties":{"Ort":"Zürich","www":"http://www.stadt-zuerich.ch/abstimmungen","Adresse":"Stadthausquai 17","PLZ":"8001","Tel":"","Name":"Kreisbüro 1 (Stadthaus)"}}
,{"type":"Feature","geometry":{"type":"Point","coordinates":[8.52702101565784,47.3376872803301]},"properties":{"Ort":"Zürich","www":"http://www.stadt-zuerich.ch/abstimmungen","Adresse":"Balberstrasse 71","PLZ":"8038","Tel":"","Name":"Schulhaus Entlisberg"}}
,{"type":"Feature","geometry":{"type":"Point","coordinates":[8.5261176642272,47.3478963897451]},"properties":{"Ort":"Zürich","www":"http://www.stadt-zuerich.ch/abstimmungen","Adresse":"Tannenrauchstrasse 10","PLZ":"8038","Tel":"","Name":"Schulhaus Manegg"}}
,{"type":"Feature","geometry":{"type":"Point","coordinates":[8.51055791869938,47.3810450956134]},"properties":{"Ort":"Zürich","www":"http://www.stadt-zuerich.ch/abstimmungen","Adresse":"Bullingerstrasse 69","PLZ":"8004","Tel":"","Name":"Altersheim Bullinger"}}
,{"type":"Feature","geometry":{"type":"Point","coordinates":[8.55617702054636,47.3694585902132]},"properties":{"Ort":"Zürich","www":"http://www.stadt-zuerich.ch/abstimmungen","Adresse":"Gemeindestrasse 54","PLZ":"8032","Tel":"","Name":"Kreisbüro 7"}}
,{"type":"Feature","geometry":{"type":"Point","coordinates":[8.5015176373035,47.4018622341652]},"properties":{"Ort":"Zürich","www":"http://www.stadt-zuerich.ch/abstimmungen","Adresse":"Bläsistrasse 2","PLZ":"8049","Tel":"","Name":"Schulhaus Bläsi"}}
,{"type":"Feature","geometry":{"type":"Point","coordinates":[8.54420453865259,47.4114371761232]},"properties":{"Ort":"Zürich","www":"http://www.stadt-zuerich.ch/abstimmungen","Adresse":"Hofwiesenstrasse 369","PLZ":"8050","Tel":"","Name":"Bahnhof Oerlikon"}}
,{"type":"Feature","geometry":{"type":"Point","coordinates":[8.5471144446628,47.3736297768448]},"properties":{"Ort":"Zürich","www":"http://www.stadt-zuerich.ch/abstimmungen","Adresse":"Hirschengraben 46","PLZ":"8001","Tel":"","Name":"Schulhaus Hirschengraben"}}
,{"type":"Feature","geometry":{"type":"Point","coordinates":[8.51384125316709,47.3258741100764]},"properties":{"Ort":"Zürich","www":"http://www.stadt-zuerich.ch/abstimmungen","Adresse":"Klebestrasse 9","PLZ":"8041","Tel":"","Name":"Altersheim Mittelleimbach"}}
,{"type":"Feature","geometry":{"type":"Point","coordinates":[8.54189988672882,47.3884677411454]},"properties":{"Ort":"Zürich","www":"http://www.stadt-zuerich.ch/abstimmungen","Adresse":"Röslistrasse 14","PLZ":"8006","Tel":"","Name":"Schulhaus Rösli"}}
,{"type":"Feature","geometry":{"type":"Point","coordinates":[8.55309095414908,47.3687778122366]},"properties":{"Ort":"Zürich","www":"http://www.stadt-zuerich.ch/abstimmungen","Adresse":"Minervastrasse 14","PLZ":"8032","Tel":"","Name":"Kantonsschule Hottingen"}}
,{"type":"Feature","geometry":{"type":"Point","coordinates":[8.48823167523479,47.4080283592215]},"properties":{"Ort":"Zürich","www":"http://www.stadt-zuerich.ch/abstimmungen","Adresse":"Wildenweg 11","PLZ":"8049","Tel":"","Name":"Kindergarten Wildenweg"}}
,{"type":"Feature","geometry":{"type":"Point","coordinates":[8.52619091827597,47.3949492919737]},"properties":{"Ort":"Zürich","www":"http://www.stadt-zuerich.ch/abstimmungen","Adresse":"Nordstrasse 270","PLZ":"8037","Tel":"","Name":"Schulhaus Nordstrasse"}}
,{"type":"Feature","geometry":{"type":"Point","coordinates":[8.57198084214201,47.4046825895669]},"properties":{"Ort":"Zürich","www":"http://www.stadt-zuerich.ch/abstimmungen","Adresse":"Schwamendingerplatz 1","PLZ":"8051","Tel":"","Name":"Kreisbüro 12"}}
,{"type":"Feature","geometry":{"type":"Point","coordinates":[8.50554239825792,47.422225867166]},"properties":{"Ort":"Zürich","www":"http://www.stadt-zuerich.ch/abstimmungen","Adresse":"Dora-Staudinger-Strasse 12","PLZ":"8046","Tel":"","Name":"Genossenschaftssiedlung Ruggächern"}}
,{"type":"Feature","geometry":{"type":"Point","coordinates":[8.5399977044164,47.3867948081312]},"properties":{"Ort":"Zürich","www":"http://www.stadt-zuerich.ch/abstimmungen","Adresse":"Beckenhofstrasse 59","PLZ":"8006","Tel":"","Name":"Kreisbüro 6"}}
,{"type":"Feature","geometry":{"type":"Point","coordinates":[8.47318992626527,47.3881053012189]},"properties":{"Ort":"Zürich","www":"http://www.stadt-zuerich.ch/abstimmungen","Adresse":"Eugen-Huber-Strasse 145","PLZ":"8048","Tel":"","Name":"Schulhaus Loogarten"}}
,{"type":"Feature","geometry":{"type":"Point","coordinates":[8.53350428613823,47.3892042812251]},"properties":{"Ort":"Zürich","www":"http://www.stadt-zuerich.ch/abstimmungen","Adresse":"Rousseaustrasse 43","PLZ":"8037","Tel":"","Name":"Schulhaus Letten"}}
,{"type":"Feature","geometry":{"type":"Point","coordinates":[8.5426626260305,47.4207887425405]},"properties":{"Ort":"Zürich","www":"http://www.stadt-zuerich.ch/abstimmungen","Adresse":"Buhnrain 40","PLZ":"8052","Tel":"","Name":"Schulhaus Buhnrain"}}
,{"type":"Feature","geometry":{"type":"Point","coordinates":[8.53002477406258,47.3861698729558]},"properties":{"Ort":"Zürich","www":"http://www.stadt-zuerich.ch/abstimmungen","Adresse":"Limmatstrasse 176","PLZ":"8005","Tel":"","Name":"Schulhaus Kornhausbrücke"}}
,{"type":"Feature","geometry":{"type":"Point","coordinates":[8.54713372509974,47.3936527933792]},"properties":{"Ort":"Zürich","www":"http://www.stadt-zuerich.ch/abstimmungen","Adresse":"Langensteinenstrasse 40","PLZ":"8057","Tel":"","Name":"Altersheim Oberstrass"}}
,{"type":"Feature","geometry":{"type":"Point","coordinates":[8.58663425928227,47.3567282010132]},"properties":{"Ort":"Zürich","www":"http://www.stadt-zuerich.ch/abstimmungen","Adresse":"Heilighüsli 19","PLZ":"8053","Tel":"","Name":"Schulhaus Langmatt"}}
,{"type":"Feature","geometry":{"type":"Point","coordinates":[8.49292713178933,47.3861996475812]},"properties":{"Ort":"Zürich","www":"http://www.stadt-zuerich.ch/abstimmungen","Adresse":"Badenerstrasse 618","PLZ":"8048","Tel":"","Name":"Schulhaus Kappeli"}}
,{"type":"Feature","geometry":{"type":"Point","coordinates":[8.54007995342566,47.377322120864]},"properties":{"Ort":"Zürich","www":"http://www.stadt-zuerich.ch/abstimmungen","Adresse":"Zwischengeschoss Bahnhofhalle","PLZ":"8001","Tel":"","Name":"Hauptbahnhof"}}
,{"type":"Feature","geometry":{"type":"Point","coordinates":[8.51265889914511,47.3735866182867]},"properties":{"Ort":"Zürich","www":"http://www.stadt-zuerich.ch/abstimmungen","Adresse":"Bertastrasse 50","PLZ":"8003","Tel":"","Name":"Schulhaus Aemtler A"}}
,{"type":"Feature","geometry":{"type":"Point","coordinates":[8.52237093110991,47.3777865253897]},"properties":{"Ort":"Zürich","www":"http://www.stadt-zuerich.ch/abstimmungen","Adresse":"Feldstrasse 75","PLZ":"8004","Tel":"","Name":"Turnhalle Feld"}}
,{"type":"Feature","geometry":{"type":"Point","coordinates":[8.53865292164434,47.3960726054023]},"properties":{"Ort":"Zürich","www":"http://www.stadt-zuerich.ch/abstimmungen","Adresse":"Guggachstrasse 11","PLZ":"8057","Tel":"","Name":"Schulhaus Milchbuck A"}}
,{"type":"Feature","geometry":{"type":"Point","coordinates":[8.55365005941659,47.360694715155]},"properties":{"Ort":"Zürich","www":"http://www.stadt-zuerich.ch/abstimmungen","Adresse":"Feldeggstrasse 60","PLZ":"8008","Tel":"","Name":"Kreisbüro 8"}}
,{"type":"Feature","geometry":{"type":"Point","coordinates":[8.5556021772931,47.3571946769128]},"properties":{"Ort":"Zürich","www":"http://www.stadt-zuerich.ch/abstimmungen","Adresse":"Seefeldstrasse 131","PLZ":"8008","Tel":"","Name":"Schulhaus Seefeld"}}
,{"type":"Feature","geometry":{"type":"Point","coordinates":[8.52288465908955,47.3926146647266]},"properties":{"Ort":"Zürich","www":"http://www.stadt-zuerich.ch/abstimmungen","Adresse":"Wipkingerplatz 5","PLZ":"8037","Tel":"","Name":"Kreisbüro 10"}}
,{"type":"Feature","geometry":{"type":"Point","coordinates":[8.56231019934374,47.408519012235]},"properties":{"Ort":"Zürich","www":"http://www.stadt-zuerich.ch/abstimmungen","Adresse":"Tramstrasse 208","PLZ":"8050","Tel":"","Name":"Schulhaus Saatlen"}}
,{"type":"Feature","geometry":{"type":"Point","coordinates":[8.53117241007423,47.3426763830211]},"properties":{"Ort":"Zürich","www":"http://www.stadt-zuerich.ch/abstimmungen","Adresse":"Kilchbergstrasse 1","PLZ":"8038","Tel":"","Name":"Foyer Pfarreizentrum St. Franziskus"}}
,{"type":"Feature","geometry":{"type":"Point","coordinates":[8.51020795756659,47.3649651116635]},"properties":{"Ort":"Zürich","www":"http://www.stadt-zuerich.ch/abstimmungen","Adresse":"Sieberstrasse 10","PLZ":"8055","Tel":"","Name":"Seniorama Im Tiergarten"}}
,{"type":"Feature","geometry":{"type":"Point","coordinates":[8.504472557428,47.3628414086207]},"properties":{"Ort":"Zürich","www":"http://www.stadt-zuerich.ch/abstimmungen","Adresse":"Schweighofstrasse 296","PLZ":"8055","Tel":"","Name":"Genossenschaftshaus Friesenberg"}}
,{"type":"Feature","geometry":{"type":"Point","coordinates":[8.51348764787978,47.3577962990107]},"properties":{"Ort":"Zürich","www":"http://www.stadt-zuerich.ch/abstimmungen","Adresse":"Hegianwandweg 16","PLZ":"8045","Tel":"","Name":"Altersheim Laubegg"}}
,{"type":"Feature","geometry":{"type":"Point","coordinates":[8.53340191953033,47.4042000766475]},"properties":{"Ort":"Zürich","www":"http://www.stadt-zuerich.ch/abstimmungen","Adresse":"Wehntalerstrasse 129","PLZ":"8057","Tel":"","Name":"Werkjahrschulhaus"}}
,{"type":"Feature","geometry":{"type":"Point","coordinates":[8.55841565734078,47.3762315482541]},"properties":{"Ort":"Zürich","www":"http://www.stadt-zuerich.ch/abstimmungen","Adresse":"Hochstrasse 114","PLZ":"8044","Tel":"","Name":"Schulhaus Fluntern"}}
,{"type":"Feature","geometry":{"type":"Point","coordinates":[8.56274355442572,47.3631431170577]},"properties":{"Ort":"Zürich","www":"http://www.stadt-zuerich.ch/abstimmungen","Adresse":"Freiestrasse 160","PLZ":"8032","Tel":"","Name":"Schulhaus Freiestrasse"}}
,{"type":"Feature","geometry":{"type":"Point","coordinates":[8.48590208431631,47.3872709964942]},"properties":{"Ort":"Zürich","www":"http://www.stadt-zuerich.ch/abstimmungen","Adresse":"Lindenplatz 4","PLZ":"8048","Tel":"","Name":"Kreisbüro 9"}}
,{"type":"Feature","geometry":{"type":"Point","coordinates":[8.57217190329809,47.4074332214984]},"properties":{"Ort":"Zürich","www":"http://www.stadt-zuerich.ch/abstimmungen","Adresse":"Herzogenmühlestrasse 53","PLZ":"8051","Tel":"","Name":"Schulhaus Auhof"}}
]}
