{"name":"Suchtbehandlung","type":"FeatureCollection"
,"features":[
{"type":"Feature","geometry":{"type":"Point","coordinates":[8.52963268435952,47.377500345776]},"properties":{"Ort":"Zürich","www":"","Adresse":"Kanonengasse 18","PLZ":"8004","Tel":"044 245 96 16","Name":"Ambulatorium Kanonengasse"}}
,{"type":"Feature","geometry":{"type":"Point","coordinates":[8.52963529196625,47.3775022281115]},"properties":{"Ort":"Zürich","www":"","Adresse":"Kanonengasse 18","PLZ":"8004","Tel":"044 245 96 06","Name":"Ambulatorium Kanonengasse"}}
,{"type":"Feature","geometry":{"type":"Point","coordinates":[8.55414722138075,47.357883396344]},"properties":{"Ort":"","www":"http://ada-zh.ch/de/beratung/beratungsangebot.php","Adresse":"Seefeldstrasse 128","PLZ":"8034","Tel":"044 384 80 15","Name":"Beratungsstelle ada-zh"}}
,{"type":"Feature","geometry":{"type":"Point","coordinates":[8.52963529196625,47.3775022281115]},"properties":{"Ort":"","www":"","Adresse":"Kanonengasse 18","PLZ":"","Tel":"044 245 96 01","Name":"Ambulatorium Kanonengasse"}}
,{"type":"Feature","geometry":{"type":"Point","coordinates":[8.47725202510716,47.4075879373086]},"properties":{"Ort":"Zürich","www":"http://www.stadt-zuerich.ch/frankental","Adresse":"Frankentalerstrasse 55","PLZ":"8049","Tel":"079 542 87 03","Name":"Suchtbehandlung Frankental"}}
,{"type":"Feature","geometry":{"type":"Point","coordinates":[8.55138620198039,47.3816213583668]},"properties":{"Ort":"Zürich","www":"http://www.stadt-zuerich.ch/frankental","Adresse":"Hochstrasse 7","PLZ":"8044","Tel":"044 363 17 31","Name":"Suchtbehandlung Frankental"}}
,{"type":"Feature","geometry":{"type":"Point","coordinates":[8.47733133534581,47.4075782288528]},"properties":{"Ort":"Zürich","www":"http://www.stadt-zuerich.ch/frankental","Adresse":"Frankentalerstrasse 55","PLZ":"8049","Tel":"044 341 41 40","Name":"Suchtbehandlung Frankental"}}
,{"type":"Feature","geometry":{"type":"Point","coordinates":[8.52962205199601,47.3775023532141]},"properties":{"Ort":"Zürich","www":"http://www.stadt-zuerich.ch/internet/sgd/kzob/home.html","Adresse":"Kanonengasse 18","PLZ":"8004","Tel":"044 245 96 10","Name":"Ambulatorium Kanonengasse"}}
,{"type":"Feature","geometry":{"type":"Point","coordinates":[8.54253995866917,47.3784500156149]},"properties":{"Ort":"Zürich","www":"http://www.stadt-zuerich.ch/internet/sgd/kzob/home/bus.html","Adresse":"Neumühlequai/Walchebrücke","PLZ":"8006","Tel":"044 245 96 14","Name":"Spritzenbus"}}
,{"type":"Feature","geometry":{"type":"Point","coordinates":[8.54106653804577,47.3834024302837]},"properties":{"Ort":"","www":"http://www.arud.ch/standorte/zokl2-zuerich","Adresse":"Stampfenbachstrasse 106","PLZ":"8006","Tel":"044 446 50 10","Name":"Arud Zentrum Stampfenbach"}}
,{"type":"Feature","geometry":{"type":"Point","coordinates":[8.53066242973907,47.3830335348428]},"properties":{"Ort":"","www":"http://www.zfa.ch/","Adresse":"Josefstrasse 91","PLZ":"8005","Tel":"043 444 77 00","Name":"Zürcher Fachstelle für Alkoholprobleme"}}
,{"type":"Feature","geometry":{"type":"Point","coordinates":[8.53721679529182,47.3798842842302]},"properties":{"Ort":"Zürich","www":"http://www.saferparty.ch/de/testing/DIZ/index.asp","Adresse":"Konradstrasse 1","PLZ":"8005","Tel":"043 300 54 77","Name":"Drogeninformationszentrum DIZ"}}
,{"type":"Feature","geometry":{"type":"Point","coordinates":[8.47725202510716,47.4075879373086]},"properties":{"Ort":"Zürich","www":"http://www.stadt-zuerich.ch/frankental","Adresse":"Frankentalerstrasse 55","PLZ":"8049","Tel":"044 341 26 26","Name":"Suchtbehandlung Frankental"}}
,{"type":"Feature","geometry":{"type":"Point","coordinates":[8.53712162211701,47.4303751970944]},"properties":{"Ort":"Zürich","www":"http://www.stadt-zuerich.ch/frankental","Adresse":"Käshaldenstrasse 30","PLZ":"8052","Tel":"044 303 12 48","Name":"Suchtbehandlung Frankental"}}
]}
